{
  "type": "FeatureCollection",
  "features": [
    {
      "type": "Feature",
      "properties": {
        "label": "J01",
        "point_id": "jamila_floating_debris_kolkata_20201115_JAMILA_0001",
        "centre_lon": 88.4019013929995,
        "centre_lat": 20.724450097220494,
        "box_size_m": 400.0
      },
      "geometry": {
        "type": "Polygon",
        "coordinates": [
          [
            [
              88.39996447240014,
              20.72265908671624
            ],
            [
              88.40380505273585,
              20.722627797630672
            ],
            [
              88.40383835912296,
              20.72624108294425
            ],
            [
              88.39999768773909,
              20.72627237797467
            ],
            [
              88.39996447240014,
              20.72265908671624
            ]
          ]
        ]
      }
    },
    {
      "type": "Feature",
      "properties": {
        "label": "J02",
        "point_id": "jamila_floating_debris_kolkata_20201115_JAMILA_0002",
        "centre_lon": 88.18525202259124,
        "centre_lat": 20.755210303170685,
        "box_size_m": 400.0
      },
      "geometry": {
        "type": "Polygon",
        "coordinates": [
          [
            [
              88.18331709592495,
              20.753416745429853
            ],
            [
              88.18715878213848,
              20.753390253566252
            ],
            [
              88.18718699488022,
              20.757003836551206
            ],
            [
              88.1833452174213,
              20.75703033344246
            ],
            [
              88.18331709592495,
              20.753416745429853
            ]
          ]
        ]
      }
    },
    {
      "type": "Feature",
      "properties": {
        "label": "J03",
        "point_id": "jamila_floating_debris_kolkata_20201115_JAMILA_0003",
        "centre_lon": 88.3885611880242,
        "centre_lat": 20.72455323233884,
        "box_size_m": 400.0
      },
      "geometry": {
        "type": "Polygon",
        "coordinates": [
          [
            [
              88.38662441331083,
              20.722762062790036
            ],
            [
              88.39046501813773,
              20.722731071240236
            ],
            [
              88.39049800826297,
              20.726344377135074
            ],
            [
              88.38665731238527,
              20.72637537457321
            ],
            [
              88.38662441331083,
              20.722762062790036
            ]
          ]
        ]
      }
    },
    {
      "type": "Feature",
      "properties": {
        "label": "J04",
        "point_id": "jamila_floating_debris_kolkata_20201115_JAMILA_0004",
        "centre_lon": 88.50550454066482,
        "centre_lat": 20.743420213309808,
        "box_size_m": 400.0
      },
      "geometry": {
        "type": "Polygon",
        "coordinates": [
          [
            [
              88.5035662227788,
              20.741630460676486
            ],
            [
              88.50740710447627,
              20.741596830444564
            ],
            [
              88.50744290411774,
              20.7452099409229
            ],
            [
              88.50360193128645,
              20.745243577539355
            ],
            [
              88.5035662227788,
              20.741630460676486
            ]
          ]
        ]
      }
    },
    {
      "type": "Feature",
      "properties": {
        "label": "J05",
        "point_id": "jamila_floating_debris_kolkata_20201115_JAMILA_0005",
        "centre_lon": 88.22661991364615,
        "centre_lat": 20.76286007455312,
        "box_size_m": 400.0
      },
      "geometry": {
        "type": "Polygon",
        "coordinates": [
          [
            [
              88.22468442234813,
              20.761067013078268
            ],
            [
              88.2285262431397,
              20.76103958709218
            ],
            [
              88.22855545058474,
              20.76465311157171
            ],
            [
              88.22471353851202,
              20.76468054276107
            ],
            [
              88.22468442234813,
              20.761067013078268
            ]
          ]
        ]
      }
    },
    {
      "type": "Feature",
      "properties": {
        "label": "J06",
        "point_id": "jamila_floating_debris_kolkata_20201115_JAMILA_0006",
        "centre_lon": 88.39429842363731,
        "centre_lat": 20.724808023242886,
        "box_size_m": 400.0
      },
      "geometry": {
        "type": "Polygon",
        "coordinates": [
          [
            [
              88.39236158213784,
              20.723016922359488
            ],
            [
              88.39620218399922,
              20.72298580241924
            ],
            [
              88.39623531066243,
              20.726599099361344
            ],
            [
              88.39239461774977,
              20.726630225214237
            ],
            [
              88.39236158213784,
              20.723016922359488
            ]
          ]
        ]
      }
    },
    {
      "type": "Feature",
      "properties": {
        "label": "J07",
        "point_id": "jamila_floating_debris_kolkata_20201115_JAMILA_0007",
        "centre_lon": 88.29844507883209,
        "centre_lat": 20.7386158098489,
        "box_size_m": 400.0
      },
      "geometry": {
        "type": "Polygon",
        "coordinates": [
          [
            [
              88.29650911300689,
              20.73682358014663
            ],
            [
              88.3003502149229,
              20.73679458081126
            ],
            [
              88.30038109022736,
              20.740408014971813
            ],
            [
              88.29653989717121,
              20.740437019814117
            ],
            [
              88.29650911300689,
              20.73682358014663
            ]
          ]
        ]
      }
    },
    {
      "type": "Feature",
      "properties": {
        "label": "J08",
        "point_id": "jamila_floating_debris_kolkata_20201115_JAMILA_0008",
        "centre_lon": 88.37252241426876,
        "centre_lat": 20.72460081359338,
        "box_size_m": 400.0
      },
      "geometry": {
        "type": "Polygon",
        "coordinates": [
          [
            [
              88.37058581612321,
              20.72280945288468
            ],
            [
              88.37442644819204,
              20.722778819172333
            ],
            [
              88.37445905794107,
              20.72639214958317
            ],
            [
              88.37061833481872,
              20.726422789115887
            ],
            [
              88.37058581612321,
              20.72280945288468
            ]
          ]
        ]
      }
    },
    {
      "type": "Feature",
      "properties": {
        "label": "J09",
        "point_id": "jamila_floating_debris_kolkata_20201115_JAMILA_0009",
        "centre_lon": 88.35435937819271,
        "centre_lat": 20.727623252374777,
        "box_size_m": 400.0
      },
      "geometry": {
        "type": "Polygon",
        "coordinates": [
          [
            [
              88.35242294024853,
              20.725831678042873
            ],
            [
              88.35626367765028,
              20.725801445437423
            ],
            [
              88.35629586167319,
              20.72941480202246
            ],
            [
              88.35245503319888,
              20.72944504037142
            ],
            [
              88.35242294024853,
              20.725831678042873
            ]
          ]
        ]
      }
    },
    {
      "type": "Feature",
      "properties": {
        "label": "J10",
        "point_id": "jamila_floating_debris_kolkata_20201115_JAMILA_0010",
        "centre_lon": 88.47621568868148,
        "centre_lat": 20.743540943987337,
        "box_size_m": 400.0
      },
      "geometry": {
        "type": "Polygon",
        "coordinates": [
          [
            [
              88.47427769119184,
              20.74175084025355
            ],
            [
              88.47811862729866,
              20.741717863954378
            ],
            [
              88.47815373174079,
              20.74533102276228
            ],
            [
              88.47431270449465,
              20.745364005321893
            ],
            [
              88.47427769119184,
              20.74175084025355
            ]
          ]
        ]
      }
    },
    {
      "type": "Feature",
      "properties": {
        "label": "J11",
        "point_id": "jamila_floating_debris_kolkata_20201115_JAMILA_0011",
        "centre_lon": 88.32974375951981,
        "centre_lat": 20.730314942805624,
        "box_size_m": 400.0
      },
      "geometry": {
        "type": "Polygon",
        "coordinates": [
          [
            [
              88.32780755797874,
              20.728523077905077
            ],
            [
              88.33164840211522,
              20.728493391006293
            ],
            [
              88.33168000660628,
              20.732106783070606
            ],
            [
              88.32783907137905,
              20.732136475608677
            ],
            [
              88.32780755797874,
              20.728523077905077
            ]
          ]
        ]
      }
    },
    {
      "type": "Feature",
      "properties": {
        "label": "J12",
        "point_id": "jamila_floating_debris_kolkata_20201115_JAMILA_0012",
        "centre_lon": 88.51524118717157,
        "centre_lat": 20.74226560960341,
        "box_size_m": 400.0
      },
      "geometry": {
        "type": "Polygon",
        "coordinates": [
          [
            [
              88.5133027780069,
              20.740475972691314
            ],
            [
              88.51714361326768,
              20.740442126806744
            ],
            [
              88.51717964189922,
              20.744055221476156
            ],
            [
              88.5133387155125,
              20.74408907378647
            ],
            [
              88.5133027780069,
              20.740475972691314
            ]
          ]
        ]
      }
    },
    {
      "type": "Feature",
      "properties": {
        "label": "J13",
        "point_id": "jamila_floating_debris_kolkata_20201115_JAMILA_0013",
        "centre_lon": 88.16564758152009,
        "centre_lat": 20.75245546498607,
        "box_size_m": 400.0
      },
      "geometry": {
        "type": "Polygon",
        "coordinates": [
          [
            [
              88.16371291101134,
              20.750661673207393
            ],
            [
              88.16755455475523,
              20.750635622765017
            ],
            [
              88.16758229764535,
              20.75424923244891
            ],
            [
              88.16374056266841,
              20.754275287835746
            ],
            [
              88.16371291101134,
              20.750661673207393
            ]
          ]
        ]
      }
    },
    {
      "type": "Feature",
      "properties": {
        "label": "J14",
        "point_id": "jamila_floating_debris_kolkata_20201115_JAMILA_0014",
        "centre_lon": 88.41675490366332,
        "centre_lat": 20.725481722139932,
        "box_size_m": 400.0
      },
      "geometry": {
        "type": "Polygon",
        "coordinates": [
          [
            [
              88.41481780528777,
              20.72369088990919
            ],
            [
              88.41865838701142,
              20.723659267872655
            ],
            [
              88.41869204756458,
              20.72727252955776
            ],
            [
              88.4148513747895,
              20.727304157602113
            ],
            [
              88.41481780528777,
              20.72369088990919
            ]
          ]
        ]
      }
    },
    {
      "type": "Feature",
      "properties": {
        "label": "J15",
        "point_id": "jamila_floating_debris_kolkata_20201115_JAMILA_0015",
        "centre_lon": 88.16682775348664,
        "centre_lat": 20.751552514713346,
        "box_size_m": 400.0
      },
      "geometry": {
        "type": "Polygon",
        "coordinates": [
          [
            [
              88.16489308182867,
              20.749758736151914
            ],
            [
              88.16873470115016,
              20.74973266042
            ],
            [
              88.16876247075864,
              20.7533462689575
            ],
            [
              88.16492076020911,
              20.753372349638855
            ],
            [
              88.16489308182867,
              20.749758736151914
            ]
          ]
        ]
      }
    }
  ]
}