{
"type": "FeatureCollection",
"name": "predicted_seed_polygons",
"crs": { "type": "name", "properties": { "name": "urn:ogc:def:crs:OGC:1.3:CRS84" } },
"features": [
{ "type": "Feature", "properties": { "seed_idx": 0, "source_id": 0, "delta_h": -15.700555555555555, "mean_lon": -0.34445501118898392, "mean_lat": 5.5123100996017458, "dx_m": 33475.528831222677, "dy_m": 22959.175568962237, "n_particles": 20, "snap_water": false, "snap_m": 0.0, "outside_grid": 0 }, "geometry": { "type": "Polygon", "coordinates": [ [ [ -0.345671315615625, 5.511673742471308 ], [ -0.345603370952632, 5.51185508075424 ], [ -0.345211491726244, 5.512411711090796 ], [ -0.344802192244295, 5.512356064494522 ], [ -0.344499385612962, 5.512509444187159 ], [ -0.344538411736634, 5.512792171534489 ], [ -0.343701806911865, 5.513710096496237 ], [ -0.342829138499498, 5.513679288018253 ], [ -0.341622580515322, 5.513243339456146 ], [ -0.34024839183343, 5.512759547644142 ], [ -0.340217040338367, 5.512261577483535 ], [ -0.341705601075426, 5.512692060482214 ], [ -0.342048690268528, 5.512538862615678 ], [ -0.342615547648298, 5.51188883329213 ], [ -0.343105051602136, 5.512025568751066 ], [ -0.343431930009667, 5.512497950104581 ], [ -0.343890439221166, 5.512055985957857 ], [ -0.34478803209122, 5.511010509954898 ], [ -0.345096983448237, 5.51098497883982 ], [ -0.345022175584497, 5.511199923676904 ], [ -0.345511082636513, 5.511471203692918 ], [ -0.345671315615625, 5.511673742471308 ] ] ] } },
{ "type": "Feature", "properties": { "seed_idx": 1, "source_id": 1, "delta_h": -15.700555555555555, "mean_lon": -0.34006454944610598, "mean_lat": 5.5136665344238285, "dx_m": 34440.408106241492, "dy_m": 23301.298059988301, "n_particles": 20, "snap_water": false, "snap_m": 0.0, "outside_grid": 0 }, "geometry": { "type": "Polygon", "coordinates": [ [ [ -0.338983352402883, 5.514742296254552 ], [ -0.339428138503462, 5.514367550843873 ], [ -0.33947087918688, 5.513816093025407 ], [ -0.339204907933104, 5.51323634434411 ], [ -0.339570985795209, 5.512444145524768 ], [ -0.339702922693288, 5.512969475101311 ], [ -0.340144950023015, 5.513213639639652 ], [ -0.340653755660488, 5.513538831848373 ], [ -0.340800319402098, 5.513795129760243 ], [ -0.340517023748624, 5.514089869920888 ], [ -0.339926154441744, 5.514100681830374 ], [ -0.339533999402449, 5.51471785076205 ], [ -0.339009547649145, 5.514890416842688 ], [ -0.338983352402883, 5.514742296254552 ] ] ] } },
{ "type": "Feature", "properties": { "seed_idx": 2, "source_id": 2, "delta_h": -15.700555555555555, "mean_lon": -0.32365300953388215, "mean_lat": 5.5189194202423097, "dx_m": 36596.658350026701, "dy_m": 24077.85650710226, "n_particles": 20, "snap_water": false, "snap_m": 0.0, "outside_grid": 0 }, "geometry": { "type": "Polygon", "coordinates": [ [ [ -0.323407196466514, 5.520061906065838 ], [ -0.323165864998073, 5.519980090487684 ], [ -0.323572310498597, 5.519174641101843 ], [ -0.323250052538771, 5.519173189201384 ], [ -0.323605443030925, 5.517775503434212 ], [ -0.324084845993065, 5.518665671809102 ], [ -0.323758604023979, 5.519552211483774 ], [ -0.323407196466514, 5.520061906065838 ] ] ] } },
{ "type": "Feature", "properties": { "seed_idx": 3, "source_id": 3, "delta_h": -15.700555555555555, "mean_lon": -0.26828888803720474, "mean_lat": 5.4932444572448729, "dx_m": 42686.765475158114, "dy_m": 21697.70322851697, "n_particles": 20, "snap_water": false, "snap_m": 0.0, "outside_grid": 0 }, "geometry": { "type": "Polygon", "coordinates": [ [ [ -0.268429310941951, 5.493863954054279 ], [ -0.268334959312531, 5.493944246683859 ], [ -0.268147176045012, 5.493903024829907 ], [ -0.267933705817583, 5.493606057802552 ], [ -0.268192238436357, 5.492853812599562 ], [ -0.268530039677063, 5.492384465500469 ], [ -0.268662033222743, 5.492882870764315 ], [ -0.268376771261279, 5.493608085940722 ], [ -0.268429310941951, 5.493863954054279 ] ] ] } },
{ "type": "Feature", "properties": { "seed_idx": 4, "source_id": 4, "delta_h": -15.700555555555555, "mean_lon": -0.25148366540670397, "mean_lat": 5.5112628936767578, "dx_m": 44587.807299051201, "dy_m": 22813.661559919012, "n_particles": 20, "snap_water": false, "snap_m": 0.0, "outside_grid": 0 }, "geometry": { "type": "Polygon", "coordinates": [ [ [ -0.251648757544927, 5.511391654958259 ], [ -0.251527671980578, 5.511444911106859 ], [ -0.251220287938844, 5.511134051413599 ], [ -0.251368969149206, 5.510919476119784 ], [ -0.25156980841981, 5.511041489002221 ], [ -0.251648757544927, 5.511391654958259 ] ] ] } },
{ "type": "Feature", "properties": { "seed_idx": 5, "source_id": 5, "delta_h": -15.700555555555555, "mean_lon": -0.26352473497390749, "mean_lat": 5.5048236608505245, "dx_m": 42776.907099591452, "dy_m": 22122.494248956093, "n_particles": 20, "snap_water": false, "snap_m": 0.0, "outside_grid": 0 }, "geometry": { "type": "Polygon", "coordinates": [ [ [ -0.26363822123013, 5.505012984601597 ], [ -0.263537461442332, 5.505025975680584 ], [ -0.263410433689194, 5.504911032790505 ], [ -0.263404520828714, 5.504736103277821 ], [ -0.263452652203552, 5.504487424922029 ], [ -0.263646935138542, 5.504575768689156 ], [ -0.26363822123013, 5.505012984601597 ] ] ] } },
{ "type": "Feature", "properties": { "seed_idx": 6, "source_id": 6, "delta_h": -15.700555555555555, "mean_lon": -0.32429705709218981, "mean_lat": 5.5161350965499878, "dx_m": 36727.469740249217, "dy_m": 24223.570957957883, "n_particles": 20, "snap_water": false, "snap_m": 0.0, "outside_grid": 0 }, "geometry": { "type": "Polygon", "coordinates": [ [ [ -0.324926415009601, 5.515573103516953 ], [ -0.32534314527996, 5.515467341017993 ], [ -0.325409468135989, 5.515649277896758 ], [ -0.325493912230029, 5.516282028881054 ], [ -0.324473221203399, 5.516324526769624 ], [ -0.323646412921171, 5.516549534087537 ], [ -0.323325182245292, 5.516319357980174 ], [ -0.322957408792083, 5.51598806213557 ], [ -0.323112668024645, 5.515800395853393 ], [ -0.324012450670249, 5.515770810339188 ], [ -0.324562700543141, 5.515833833232827 ], [ -0.324926415009601, 5.515573103516953 ] ] ] } },
{ "type": "Feature", "properties": { "seed_idx": 7, "source_id": 7, "delta_h": -15.700555555555555, "mean_lon": -0.34318547993898391, "mean_lat": 5.5096331834793091, "dx_m": 35093.757138425717, "dy_m": 24240.482798726531, "n_particles": 20, "snap_water": false, "snap_m": 0.0, "outside_grid": 0 }, "geometry": { "type": "Polygon", "coordinates": [ [ [ -0.344026315939376, 5.509070668166953 ], [ -0.344227368399792, 5.509152294791763 ], [ -0.343715511755445, 5.509513292887857 ], [ -0.343271330138784, 5.509753498301851 ], [ -0.34317572283548, 5.510116353673892 ], [ -0.342908071817782, 5.509913335191822 ], [ -0.342843567325472, 5.509321031871599 ], [ -0.34348772414746, 5.50940463692675 ], [ -0.344026315939376, 5.509070668166953 ] ] ] } },
{ "type": "Feature", "properties": { "seed_idx": 8, "source_id": 8, "delta_h": -15.700555555555555, "mean_lon": -0.32936752587556839, "mean_lat": 5.5163841962814333, "dx_m": 36348.744795275619, "dy_m": 24958.498664134764, "n_particles": 20, "snap_water": false, "snap_m": 0.0, "outside_grid": 0 }, "geometry": { "type": "Polygon", "coordinates": [ [ [ -0.329396636949096, 5.516940129488125 ], [ -0.32925558871679, 5.516952950413328 ], [ -0.329256010241633, 5.516858769100773 ], [ -0.329156689551807, 5.516548863691848 ], [ -0.329158164802655, 5.516219229118724 ], [ -0.329321431076651, 5.515742319263601 ], [ -0.329583054769321, 5.515790586213468 ], [ -0.329581218654424, 5.516200947768989 ], [ -0.32957251816908, 5.51664491534601 ], [ -0.329396636949096, 5.516940129488125 ] ] ] } },
{ "type": "Feature", "properties": { "seed_idx": 9, "source_id": 9, "delta_h": -15.700555555555555, "mean_lon": -0.34727947115898133, "mean_lat": 5.5090176582336428, "dx_m": 34492.286359602469, "dy_m": 24167.270302176825, "n_particles": 20, "snap_water": false, "snap_m": 0.0, "outside_grid": 0 }, "geometry": { "type": "Polygon", "coordinates": [ [ [ -0.347980877571542, 5.508964886317554 ], [ -0.347678282131701, 5.50907117749057 ], [ -0.347526073628803, 5.509329506830901 ], [ -0.347512063855844, 5.509460630089063 ], [ -0.347377386081006, 5.509550850671451 ], [ -0.347149746454559, 5.509408559102966 ], [ -0.347134037309023, 5.509166300169085 ], [ -0.347077164773352, 5.509122318110855 ], [ -0.346969371847516, 5.509205930977421 ], [ -0.346728245302904, 5.509077034170555 ], [ -0.346732647567916, 5.508841592430224 ], [ -0.346860656238698, 5.508741251032484 ], [ -0.347112047434198, 5.508826464934669 ], [ -0.347360679104621, 5.50877711704585 ], [ -0.34751602033134, 5.508569257710469 ], [ -0.347677866169405, 5.508408519574729 ], [ -0.347852422895026, 5.508409297355039 ], [ -0.347962781362184, 5.508503973697974 ], [ -0.347924721457658, 5.508759448135486 ], [ -0.347980877571542, 5.508964886317554 ] ] ] } },
{ "type": "Feature", "properties": { "seed_idx": 10, "source_id": 10, "delta_h": -15.700555555555555, "mean_lon": -0.32346515506505968, "mean_lat": 5.5123672485351562, "dx_m": 36689.837422059849, "dy_m": 23558.059544405667, "n_particles": 20, "snap_water": false, "snap_m": 0.0, "outside_grid": 0 }, "geometry": { "type": "Polygon", "coordinates": [ [ [ -0.323509168918039, 5.512795260332076 ], [ -0.323307940763945, 5.512753990710485 ], [ -0.323342232592198, 5.512592688861494 ], [ -0.323256975517032, 5.512141573386636 ], [ -0.323404765778967, 5.51212205639969 ], [ -0.323668496403565, 5.511699420477515 ], [ -0.323829774118541, 5.511666509317211 ], [ -0.323509168918039, 5.512795260332076 ] ] ] } },
{ "type": "Feature", "properties": { "seed_idx": 11, "source_id": 11, "delta_h": -15.700555555555555, "mean_lon": -0.31909420341253281, "mean_lat": 5.5105971097946167, "dx_m": 37942.768782644067, "dy_m": 24226.735290423851, "n_particles": 20, "snap_water": false, "snap_m": 0.0, "outside_grid": 0 }, "geometry": { "type": "Polygon", "coordinates": [ [ [ -0.319039050093385, 5.510960237101553 ], [ -0.318932900691139, 5.510677211454 ], [ -0.319256843351918, 5.510301941225354 ], [ -0.319525930049013, 5.510182061698345 ], [ -0.319538693220918, 5.510330120241098 ], [ -0.319202168710531, 5.510516969093938 ], [ -0.319119733949775, 5.510933691396566 ], [ -0.319039050093385, 5.510960237101553 ] ] ] } },
{ "type": "Feature", "properties": { "seed_idx": 12, "source_id": 12, "delta_h": -15.700555555555555, "mean_lon": -0.37439809888601305, "mean_lat": 5.4826827049255371, "dx_m": 32457.595183169702, "dy_m": 21548.385131971561, "n_particles": 20, "snap_water": false, "snap_m": 0.0, "outside_grid": 0 }, "geometry": { "type": "Polygon", "coordinates": [ [ [ -0.374511317026452, 5.483101094053167 ], [ -0.374363559390699, 5.483113900510437 ], [ -0.374190006551671, 5.482884399367976 ], [ -0.374191771627689, 5.482480749970632 ], [ -0.374395414252483, 5.481970344942974 ], [ -0.374716724521883, 5.482187039324616 ], [ -0.374511317026452, 5.483101094053167 ] ] ] } },
{ "type": "Feature", "properties": { "seed_idx": 13, "source_id": 13, "delta_h": -15.700555555555555, "mean_lon": -0.37598596960306169, "mean_lat": 5.4799475193023683, "dx_m": 31540.09335560922, "dy_m": 21174.130211251788, "n_particles": 20, "snap_water": false, "snap_m": 0.0, "outside_grid": 0 }, "geometry": { "type": "Polygon", "coordinates": [ [ [ -0.3760032038179, 5.48041167805979 ], [ -0.375761515674148, 5.480410617940372 ], [ -0.375762456074349, 5.480195337972299 ], [ -0.375832177482305, 5.479603612495056 ], [ -0.3760079050121, 5.479335277992937 ], [ -0.376274860583615, 5.479699740662379 ], [ -0.3760032038179, 5.48041167805979 ] ] ] } },
{ "type": "Feature", "properties": { "seed_idx": 14, "source_id": 14, "delta_h": -15.700555555555555, "mean_lon": -0.37267485409975054, "mean_lat": 5.4829944133758541, "dx_m": 32545.736593511188, "dy_m": 21577.591288756113, "n_particles": 20, "snap_water": false, "snap_m": 0.0, "outside_grid": 0 }, "geometry": { "type": "Polygon", "coordinates": [ [ [ -0.372954467015022, 5.482322142581332 ], [ -0.373195507975128, 5.482471208864697 ], [ -0.372885330002098, 5.482779316507168 ], [ -0.372856591912282, 5.483209757420305 ], [ -0.37250725057258, 5.48326204333592 ], [ -0.372442764354216, 5.48265627508648 ], [ -0.372954467015022, 5.482322142581332 ] ] ] } },
{ "type": "Feature", "properties": { "seed_idx": 15, "source_id": 15, "delta_h": -15.700555555555555, "mean_lon": -0.37953774780035021, "mean_lat": 5.4765543222427366, "dx_m": 31525.578411487048, "dy_m": 20891.477692093351, "n_particles": 20, "snap_water": false, "snap_m": 0.0, "outside_grid": 0 }, "geometry": { "type": "Polygon", "coordinates": [ [ [ -0.38055675875935, 5.476175165501195 ], [ -0.380562768809256, 5.476336655495302 ], [ -0.380421549978002, 5.476389858836287 ], [ -0.379802174515459, 5.476784079766527 ], [ -0.379673825475787, 5.476965164514842 ], [ -0.379493117088123, 5.476836548164261 ], [ -0.379286669108527, 5.476452168518314 ], [ -0.379495169893949, 5.476365621761827 ], [ -0.379863153503028, 5.476656521305094 ], [ -0.37986435567304, 5.476380692900941 ], [ -0.38055675875935, 5.476175165501195 ] ] ] } },
{ "type": "Feature", "properties": { "seed_idx": 16, "source_id": 16, "delta_h": -15.700555555555555, "mean_lon": -0.47556784898042681, "mean_lat": 5.3935609340667723, "dx_m": 20831.285091180122, "dy_m": 11668.529265636695, "n_particles": 20, "snap_water": false, "snap_m": 0.0, "outside_grid": 0 }, "geometry": { "type": "Polygon", "coordinates": [ [ [ -0.47550235372556, 5.393759234828259 ], [ -0.47536263008126, 5.393455887105502 ], [ -0.475585081216818, 5.393234781626518 ], [ -0.475725444814573, 5.393383384189137 ], [ -0.475724276436639, 5.393665962268421 ], [ -0.475736951563736, 5.393847675367518 ], [ -0.47550235372556, 5.393759234828259 ] ] ] } },
{ "type": "Feature", "properties": { "seed_idx": 17, "source_id": 17, "delta_h": -15.700555555555555, "mean_lon": -0.51168587803840637, "mean_lat": 5.3794354915618898, "dx_m": 17964.899373469758, "dy_m": 10337.313884320785, "n_particles": 20, "snap_water": false, "snap_m": 0.0, "outside_grid": 0 }, "geometry": { "type": "Polygon", "coordinates": [ [ [ -0.510663684824102, 5.379190282058992 ], [ -0.511002723483712, 5.379460800746189 ], [ -0.511736914018505, 5.379409972259495 ], [ -0.511755836796443, 5.379158857763996 ], [ -0.512132356851277, 5.379016856781442 ], [ -0.511987246883744, 5.379482763453798 ], [ -0.511359299489317, 5.379821102318942 ], [ -0.510465233429571, 5.379566258668026 ], [ -0.510663684824102, 5.379190282058992 ] ] ] } },
{ "type": "Feature", "properties": { "seed_idx": 18, "source_id": 18, "delta_h": -15.700555555555555, "mean_lon": -0.50614996254444122, "mean_lat": 5.3820859670639036, "dx_m": 18406.822778675822, "dy_m": 10278.626790233538, "n_particles": 20, "snap_water": false, "snap_m": 0.0, "outside_grid": 0 }, "geometry": { "type": "Polygon", "coordinates": [ [ [ -0.506101663269977, 5.382364218505948 ], [ -0.505994691542591, 5.382256127344285 ], [ -0.506121393392948, 5.381915744510567 ], [ -0.5062747282715, 5.381629297194426 ], [ -0.506408479514124, 5.381755440104301 ], [ -0.506101663269977, 5.382364218505948 ] ] ] } },
{ "type": "Feature", "properties": { "seed_idx": 19, "source_id": 19, "delta_h": -15.700555555555555, "mean_lon": -0.50175184309482579, "mean_lat": 5.3832412958145142, "dx_m": 18907.319610430626, "dy_m": 10529.947522102972, "n_particles": 20, "snap_water": false, "snap_m": 0.0, "outside_grid": 0 }, "geometry": { "type": "Polygon", "coordinates": [ [ [ -0.50191996425004, 5.383337901291615 ], [ -0.50183217120073, 5.383465378829433 ], [ -0.501700109262831, 5.383473808092855 ], [ -0.501595220555567, 5.383403851999274 ], [ -0.501593294295702, 5.383327590045162 ], [ -0.501591761921084, 5.383154890760084 ], [ -0.501702399211497, 5.382913125888477 ], [ -0.501887836472372, 5.382985655119457 ], [ -0.50191996425004, 5.383337901291615 ] ] ] } },
{ "type": "Feature", "properties": { "seed_idx": 20, "source_id": 20, "delta_h": -15.700555555555555, "mean_lon": -0.50383418500423427, "mean_lat": 5.3831889867782596, "dx_m": 20278.290161824785, "dy_m": 11317.567794684204, "n_particles": 20, "snap_water": false, "snap_m": 0.0, "outside_grid": 0 }, "geometry": { "type": "Polygon", "coordinates": [ [ [ -0.504020566777108, 5.38250769820983 ], [ -0.504683223980088, 5.38243864487006 ], [ -0.504287555765778, 5.382885577820987 ], [ -0.503854692250633, 5.383673258818475 ], [ -0.503515290972384, 5.383492445841561 ], [ -0.503589753685802, 5.382793007006475 ], [ -0.504020566777108, 5.38250769820983 ] ] ] } },
{ "type": "Feature", "properties": { "seed_idx": 21, "source_id": 21, "delta_h": -15.700555555555555, "mean_lon": -0.47617762833833693, "mean_lat": 5.4022077322006226, "dx_m": 23059.709212391637, "dy_m": 13239.958696864196, "n_particles": 20, "snap_water": false, "snap_m": 0.0, "outside_grid": 0 }, "geometry": { "type": "Polygon", "coordinates": [ [ [ -0.476138165962234, 5.401686810830698 ], [ -0.476833073045104, 5.402479138819171 ], [ -0.478030722349368, 5.402914720790998 ], [ -0.478405401928782, 5.403221288705572 ], [ -0.477259452136182, 5.40327035035201 ], [ -0.476114840646396, 5.40299646337318 ], [ -0.475758882283488, 5.402492613051239 ], [ -0.475761185642866, 5.401936427768662 ], [ -0.476138017394748, 5.401722693763262 ], [ -0.476138165962234, 5.401686810830698 ] ] ] } },
{ "type": "Feature", "properties": { "seed_idx": 22, "source_id": 22, "delta_h": -15.700555555555555, "mean_lon": -0.47552102953195574, "mean_lat": 5.4009275436401367, "dx_m": 22639.374570105341, "dy_m": 12968.853336882428, "n_particles": 20, "snap_water": false, "snap_m": 0.0, "outside_grid": 0 }, "geometry": { "type": "Polygon", "coordinates": [ [ [ -0.478269741957206, 5.400250204240399 ], [ -0.478717957288868, 5.400090589675035 ], [ -0.478787932812255, 5.40048560015576 ], [ -0.478803386375087, 5.401077744135695 ], [ -0.478479444785249, 5.40148906003646 ], [ -0.476348669784693, 5.401587854394061 ], [ -0.47368314592253, 5.401128221172484 ], [ -0.471178301227888, 5.400776897732917 ], [ -0.471144878830142, 5.400202623848152 ], [ -0.476065878799742, 5.400707531472497 ], [ -0.478269741957206, 5.400250204240399 ] ] ] } },
{ "type": "Feature", "properties": { "seed_idx": 23, "source_id": 23, "delta_h": -15.700555555555555, "mean_lon": -0.4750129610300064, "mean_lat": 5.4015572547912596, "dx_m": 30865.161156778922, "dy_m": 22309.13359844673, "n_particles": 20, "snap_water": false, "snap_m": 0.0, "outside_grid": 0 }, "geometry": { "type": "Polygon", "coordinates": [ [ [ -0.476927108768173, 5.402038623393024 ], [ -0.476307201742865, 5.401868589159058 ], [ -0.475159596450094, 5.40231834038846 ], [ -0.474134310541834, 5.402050927948948 ], [ -0.473036526253278, 5.401998513113627 ], [ -0.473540951688209, 5.401235099098137 ], [ -0.475618461355635, 5.401028442125149 ], [ -0.476548468757412, 5.401247610682749 ], [ -0.476927108768173, 5.402038623393024 ] ] ] } },
{ "type": "Feature", "properties": { "seed_idx": 24, "source_id": 24, "delta_h": -15.700555555555555, "mean_lon": -0.4727505758404732, "mean_lat": 5.405245614051819, "dx_m": 31019.472290437203, "dy_m": 22160.331749406527, "n_particles": 20, "snap_water": false, "snap_m": 0.0, "outside_grid": 0 }, "geometry": { "type": "Polygon", "coordinates": [ [ [ -0.473803519513691, 5.405273871302512 ], [ -0.473466769351331, 5.405894448781728 ], [ -0.472941445569794, 5.405940104535952 ], [ -0.47172708910264, 5.405217374387703 ], [ -0.471944493602201, 5.404596301121003 ], [ -0.473803519513691, 5.405273871302512 ] ] ] } },
{ "type": "Feature", "properties": { "seed_idx": 25, "source_id": 25, "delta_h": -15.700555555555555, "mean_lon": -0.46751095205545423, "mean_lat": 5.4119661808013912, "dx_m": 32111.868746835273, "dy_m": 24541.911959854071, "n_particles": 20, "snap_water": false, "snap_m": 0.0, "outside_grid": 0 }, "geometry": { "type": "Polygon", "coordinates": [ [ [ -0.468912596107402, 5.412137270817515 ], [ -0.469054121261753, 5.412544540097212 ], [ -0.468338036014896, 5.412541547433938 ], [ -0.46743059692768, 5.412633442654566 ], [ -0.466882694500869, 5.412368007324168 ], [ -0.466885184495464, 5.411769962945461 ], [ -0.466334493862055, 5.412174337014124 ], [ -0.465715482619308, 5.411788992758056 ], [ -0.466076711838437, 5.411024994196834 ], [ -0.467362473895752, 5.41179588079308 ], [ -0.468912596107402, 5.412137270817515 ] ] ] } },
{ "type": "Feature", "properties": { "seed_idx": 26, "source_id": 26, "delta_h": -15.700555555555555, "mean_lon": -0.46908518671989441, "mean_lat": 5.40984354019165, "dx_m": 31835.109523781692, "dy_m": 23728.012117702863, "n_particles": 20, "snap_water": false, "snap_m": 0.0, "outside_grid": 0 }, "geometry": { "type": "Polygon", "coordinates": [ [ [ -0.468843349094838, 5.409039291741715 ], [ -0.468843647493075, 5.408967526299779 ], [ -0.469822292071428, 5.408971612553413 ], [ -0.469819905693663, 5.409545736519915 ], [ -0.469387769853274, 5.410141988143828 ], [ -0.468956926417586, 5.410427255459188 ], [ -0.468456763040281, 5.410162021556601 ], [ -0.468843349094838, 5.409039291741715 ] ] ] } },
{ "type": "Feature", "properties": { "seed_idx": 27, "source_id": 27, "delta_h": -15.700555555555555, "mean_lon": -0.45684060752391814, "mean_lat": 5.4155050754547123, "dx_m": 33510.329026984982, "dy_m": 26465.554037426715, "n_particles": 20, "snap_water": false, "snap_m": 0.0, "outside_grid": 0 }, "geometry": { "type": "Polygon", "coordinates": [ [ [ -0.457745497221913, 5.414979061451698 ], [ -0.458175946454451, 5.414789492583666 ], [ -0.45891369879294, 5.415318874416676 ], [ -0.45891369879294, 5.415318874416676 ], [ -0.458196215869153, 5.415650770786534 ], [ -0.457264207729317, 5.41590999877051 ], [ -0.456500986733687, 5.415763260247668 ], [ -0.455258676725657, 5.416021180739969 ], [ -0.455118964839245, 5.415183324271958 ], [ -0.457481333416412, 5.415360704407814 ], [ -0.457745497221913, 5.414979061451698 ] ] ] } },
{ "type": "Feature", "properties": { "seed_idx": 28, "source_id": 28, "delta_h": -15.700555555555555, "mean_lon": -0.46364419609308244, "mean_lat": 5.4157526969909666, "dx_m": 32539.155807089992, "dy_m": 25893.955100001418, "n_particles": 20, "snap_water": false, "snap_m": 0.0, "outside_grid": 0 }, "geometry": { "type": "Polygon", "coordinates": [ [ [ -0.46165607763775, 5.415427284534507 ], [ -0.466072838295463, 5.415230488533548 ], [ -0.465854422788483, 5.416090772437492 ], [ -0.464254163151481, 5.416323292075246 ], [ -0.462321727673922, 5.416075972129082 ], [ -0.461271269064052, 5.416119411406773 ], [ -0.46144175161406, 5.415306775367669 ], [ -0.46165607763775, 5.415427284534507 ] ] ] } },
{ "type": "Feature", "properties": { "seed_idx": 29, "source_id": 29, "delta_h": -15.700555555555555, "mean_lon": -0.75402823388576512, "mean_lat": 5.2401656866073605, "dx_m": -1260.0113405218581, "dy_m": 1004.6442256440641, "n_particles": 20, "snap_water": false, "snap_m": 0.0, "outside_grid": 0 }, "geometry": { "type": "Polygon", "coordinates": [ [ [ -0.752252007295914, 5.240923374196514 ], [ -0.752134807414205, 5.240324772422871 ], [ -0.753256253455326, 5.240424510858029 ], [ -0.7532588191237, 5.239706702892718 ], [ -0.755217946651528, 5.239163409350568 ], [ -0.757556654543358, 5.239267506168995 ], [ -0.758983865373867, 5.240636478475515 ], [ -0.756814103903445, 5.240006590188099 ], [ -0.755620880831787, 5.239954455237842 ], [ -0.753876903087736, 5.240402812847295 ], [ -0.752252007295914, 5.240923374196514 ] ] ] } },
{ "type": "Feature", "properties": { "seed_idx": 30, "source_id": 30, "delta_h": -15.700555555555555, "mean_lon": -0.75153907239437101, "mean_lat": 5.2392104148864744, "dx_m": -1061.4489884810755, "dy_m": 394.38304247311316, "n_particles": 20, "snap_water": false, "snap_m": 0.0, "outside_grid": 0 }, "geometry": { "type": "Polygon", "coordinates": [ [ [ -0.75071180796662, 5.237674369129271 ], [ -0.754531841037017, 5.237353106862455 ], [ -0.75332631262616, 5.240746448320571 ], [ -0.750170961597871, 5.242075027681826 ], [ -0.747160869277213, 5.24282985755611 ], [ -0.746878916878551, 5.241584630440964 ], [ -0.75071180796662, 5.237674369129271 ] ] ] } },
{ "type": "Feature", "properties": { "seed_idx": 31, "source_id": 31, "delta_h": -15.700555555555555, "mean_lon": -0.74846810102462769, "mean_lat": 5.2469909906387331, "dx_m": -4051.8251780539285, "dy_m": -1775.3608137364499, "n_particles": 20, "snap_water": false, "snap_m": 0.0, "outside_grid": 0 }, "geometry": { "type": "Polygon", "coordinates": [ [ [ -0.748068697185869, 5.247649050486398 ], [ -0.748284882845289, 5.247266995442174 ], [ -0.747475173250181, 5.246761606048418 ], [ -0.74747757696311, 5.246091654756407 ], [ -0.749219167542992, 5.246313275951691 ], [ -0.749575643799198, 5.246745249298587 ], [ -0.748643074880593, 5.247220432260267 ], [ -0.748068697185869, 5.247649050486398 ] ] ] } },
{ "type": "Feature", "properties": { "seed_idx": 32, "source_id": 32, "delta_h": -15.700555555555555, "mean_lon": -0.7491603881120682, "mean_lat": 5.2485929250717165, "dx_m": -2102.9760442224797, "dy_m": 43.821256395080127, "n_particles": 20, "snap_water": false, "snap_m": 0.0, "outside_grid": 0 }, "geometry": { "type": "Polygon", "coordinates": [ [ [ -0.750776107575299, 5.249627630877233 ], [ -0.750157079975779, 5.249194711233997 ], [ -0.747582244433617, 5.248371905489621 ], [ -0.747584305316017, 5.247797661512982 ], [ -0.750731287408107, 5.248813944867319 ], [ -0.751683955113484, 5.249391628653682 ], [ -0.750776107575299, 5.249627630877233 ] ] ] } },
{ "type": "Feature", "properties": { "seed_idx": 33, "source_id": 33, "delta_h": -15.700555555555555, "mean_lon": -0.73454446494579317, "mean_lat": 5.2663933753967287, "dx_m": -1205.5313996890327, "dy_m": 1687.6635397317586, "n_particles": 20, "snap_water": false, "snap_m": 0.0, "outside_grid": 0 }, "geometry": { "type": "Polygon", "coordinates": [ [ [ -0.735798079885299, 5.265964428076349 ], [ -0.734840219324535, 5.266822312173106 ], [ -0.733741919789389, 5.266914021240337 ], [ -0.733793124829635, 5.265957131494995 ], [ -0.734654470629098, 5.265386020882074 ], [ -0.735798079885299, 5.265964428076349 ] ] ] } },
{ "type": "Feature", "properties": { "seed_idx": 34, "source_id": 34, "delta_h": -15.700555555555555, "mean_lon": -0.73762145042419436, "mean_lat": 5.2660294055938719, "dx_m": -988.44687039440032, "dy_m": 1545.3090007991996, "n_particles": 20, "snap_water": false, "snap_m": 0.0, "outside_grid": 0 }, "geometry": { "type": "Polygon", "coordinates": [ [ [ -0.738565090481633, 5.266362551722604 ], [ -0.735699996238208, 5.266591404216546 ], [ -0.735036528976676, 5.265249082148133 ], [ -0.736327852154201, 5.264583824623993 ], [ -0.737664487965645, 5.2645886830237 ], [ -0.739569992839555, 5.265696246211732 ], [ -0.740472677148903, 5.266895874304002 ], [ -0.738565090481633, 5.266362551722604 ] ] ] } },
{ "type": "Feature", "properties": { "seed_idx": 35, "source_id": 35, "delta_h": -15.700555555555555, "mean_lon": -0.73518165946006775, "mean_lat": 5.2679650783538818, "dx_m": -4319.8563601346686, "dy_m": -762.76900750480127, "n_particles": 20, "snap_water": false, "snap_m": 0.0, "outside_grid": 0 }, "geometry": { "type": "Polygon", "coordinates": [ [ [ -0.732369189526748, 5.26756056488964 ], [ -0.732539479340119, 5.266675890727179 ], [ -0.734423098547839, 5.267233069692399 ], [ -0.736902052961889, 5.268175241249505 ], [ -0.737901765382312, 5.268944539873297 ], [ -0.733180025946503, 5.267754934425088 ], [ -0.732369189526748, 5.26756056488964 ] ] ] } },
{ "type": "Feature", "properties": { "seed_idx": 36, "source_id": 36, "delta_h": -15.700555555555555, "mean_lon": -0.73209146261215208, "mean_lat": 5.270359992980957, "dx_m": -2658.1492273283657, "dy_m": 633.31157973373774, "n_particles": 20, "snap_water": false, "snap_m": 0.0, "outside_grid": 0 }, "geometry": { "type": "Polygon", "coordinates": [ [ [ -0.731083261772199, 5.26811664965024 ], [ -0.734422779342922, 5.268703064922394 ], [ -0.734993545425082, 5.269279389405764 ], [ -0.734268985083653, 5.271621587927364 ], [ -0.731358741719031, 5.271132438977606 ], [ -0.728685629050609, 5.271074827172344 ], [ -0.730361646214227, 5.269645335946079 ], [ -0.731083261772199, 5.26811664965024 ] ] ] } },
{ "type": "Feature", "properties": { "seed_idx": 37, "source_id": 37, "delta_h": -15.700555555555555, "mean_lon": -0.69913280904293063, "mean_lat": 5.2967590570449827, "dx_m": 277.63241886324249, "dy_m": 3186.6204972547712, "n_particles": 20, "snap_water": false, "snap_m": 0.0, "outside_grid": 0 }, "geometry": { "type": "Polygon", "coordinates": [ [ [ -0.699923698930585, 5.296130900201907 ], [ -0.70006629401504, 5.296298914422501 ], [ -0.699800370697554, 5.297207126520663 ], [ -0.699132035414173, 5.297204641800838 ], [ -0.698345594922795, 5.296866748850837 ], [ -0.698322522927514, 5.296651326328035 ], [ -0.698658638062597, 5.296126197578298 ], [ -0.699923698930585, 5.296130900201907 ] ] ] } },
{ "type": "Feature", "properties": { "seed_idx": 38, "source_id": 38, "delta_h": -15.700555555555555, "mean_lon": -0.70169314146041872, "mean_lat": 5.2980287790298464, "dx_m": -23.734533419134095, "dy_m": 2928.8835965178441, "n_particles": 20, "snap_water": false, "snap_m": 0.0, "outside_grid": 0 }, "geometry": { "type": "Polygon", "coordinates": [ [ [ -0.702845540744646, 5.299015965598791 ], [ -0.70252542848007, 5.298440543890899 ], [ -0.702166992272907, 5.298546881306351 ], [ -0.701845200213402, 5.298426054187418 ], [ -0.701690713863609, 5.298246032617149 ], [ -0.701390844872612, 5.298651666527429 ], [ -0.700817231789745, 5.298852908808834 ], [ -0.700759461590821, 5.298338277772923 ], [ -0.700653997229707, 5.297811506353068 ], [ -0.70077630719004, 5.297010428442319 ], [ -0.702101088842871, 5.297003386095081 ], [ -0.702836303046942, 5.298286176864708 ], [ -0.702845540744646, 5.299015965598791 ] ] ] } },
{ "type": "Feature", "properties": { "seed_idx": 39, "source_id": 39, "delta_h": -15.700555555555555, "mean_lon": -0.70091753304004667, "mean_lat": 5.2947967290878299, "dx_m": -348.30709375091828, "dy_m": 2685.6720600426197, "n_particles": 20, "snap_water": false, "snap_m": 0.0, "outside_grid": 0 }, "geometry": { "type": "Polygon", "coordinates": [ [ [ -0.701446200539308, 5.294156471345469 ], [ -0.701684802503167, 5.294181283457688 ], [ -0.701708317970645, 5.294277076184288 ], [ -0.701611559999672, 5.294623649178297 ], [ -0.70140739105085, 5.294969823290739 ], [ -0.700821626243521, 5.295230837799574 ], [ -0.700249432298116, 5.295049264779799 ], [ -0.700454840018672, 5.294368127211071 ], [ -0.700835948596809, 5.294584879708324 ], [ -0.701446200539308, 5.294156471345469 ] ] ] } },
{ "type": "Feature", "properties": { "seed_idx": 40, "source_id": 40, "delta_h": -15.700555555555555, "mean_lon": -0.70792301893234255, "mean_lat": 5.2907884836196901, "dx_m": 2628.6265334530035, "dy_m": 5046.2032520136563, "n_particles": 20, "snap_water": false, "snap_m": 0.0, "outside_grid": 0 }, "geometry": { "type": "Polygon", "coordinates": [ [ [ -0.707217750350717, 5.29106276160306 ], [ -0.707077708830072, 5.290200891089727 ], [ -0.707673288090214, 5.290514138796697 ], [ -0.708462814671163, 5.290014603500962 ], [ -0.709345879651926, 5.290041795155275 ], [ -0.70939220918085, 5.290424790245631 ], [ -0.708076946951444, 5.291089867348916 ], [ -0.707432571475618, 5.291063556615902 ], [ -0.707217750350717, 5.29106276160306 ] ] ] } },
{ "type": "Feature", "properties": { "seed_idx": 41, "source_id": 41, "delta_h": -15.700555555555555, "mean_lon": -0.69785512685775752, "mean_lat": 5.3010027408599854, "dx_m": 4030.6068358833436, "dy_m": 6418.3780991820386, "n_particles": 20, "snap_water": false, "snap_m": 0.0, "outside_grid": 0 }, "geometry": { "type": "Polygon", "coordinates": [ [ [ -0.698548389086113, 5.300969731964165 ], [ -0.698689566154599, 5.301520562388744 ], [ -0.697830272704672, 5.301517363480121 ], [ -0.696732553513418, 5.301441496428164 ], [ -0.69632801865308, 5.3011050216374 ], [ -0.696425624476464, 5.30053115486013 ], [ -0.696996622872204, 5.301035733372589 ], [ -0.697999928414334, 5.300824132662806 ], [ -0.698548389086113, 5.300969731964165 ] ] ] } },
{ "type": "Feature", "properties": { "seed_idx": 42, "source_id": 42, "delta_h": -15.700555555555555, "mean_lon": -0.72954275310039518, "mean_lat": 5.2770589828491214, "dx_m": 804.95068868226372, "dy_m": 3915.4000869739102, "n_particles": 20, "snap_water": false, "snap_m": 0.0, "outside_grid": 0 }, "geometry": { "type": "Polygon", "coordinates": [ [ [ -0.728679918917501, 5.276888247895643 ], [ -0.728537968483101, 5.27654079004115 ], [ -0.728754093663768, 5.276182678038256 ], [ -0.729229816046899, 5.276639026752786 ], [ -0.729992661565634, 5.276905010096748 ], [ -0.730730160252973, 5.277577656591414 ], [ -0.73012185181702, 5.277479726326291 ], [ -0.729176854976258, 5.278074442509495 ], [ -0.729215313674078, 5.277344815032963 ], [ -0.729144185925659, 5.277212957460566 ], [ -0.728679918917501, 5.276888247895643 ] ] ] } },
{ "type": "Feature", "properties": { "seed_idx": 43, "source_id": 43, "delta_h": -15.700555555555555, "mean_lon": -0.72369967699050908, "mean_lat": 5.2769028663635256, "dx_m": 1173.6067202788545, "dy_m": 3946.3619418403832, "n_particles": 20, "snap_water": false, "snap_m": 0.0, "outside_grid": 0 }, "geometry": { "type": "Polygon", "coordinates": [ [ [ -0.723860043317532, 5.27706374955555 ], [ -0.723763346629203, 5.27739836947948 ], [ -0.723394384492259, 5.277121859801538 ], [ -0.723336327176099, 5.276679002551049 ], [ -0.723587734199628, 5.276464583339873 ], [ -0.723742880935104, 5.276465151857548 ], [ -0.723932391220602, 5.276860637405652 ], [ -0.724134970244679, 5.276945123259256 ], [ -0.723860043317532, 5.27706374955555 ] ] ] } },
{ "type": "Feature", "properties": { "seed_idx": 44, "source_id": 44, "delta_h": -15.700555555555555, "mean_lon": -0.73083924949169154, "mean_lat": 5.2730382442474362, "dx_m": 2000.485706733074, "dy_m": 5360.3300047597149, "n_particles": 20, "snap_water": false, "snap_m": 0.0, "outside_grid": 0 }, "geometry": { "type": "Polygon", "coordinates": [ [ [ -0.730498252386462, 5.273766869073217 ], [ -0.730333171041381, 5.273215948837289 ], [ -0.730717330569829, 5.272595253325077 ], [ -0.731028145114583, 5.272452826700078 ], [ -0.731289223545569, 5.272860536148487 ], [ -0.731144273025638, 5.273338544268227 ], [ -0.730927889756461, 5.2737684377581 ], [ -0.730498252386462, 5.273766869073217 ] ] ] } },
{ "type": "Feature", "properties": { "seed_idx": 45, "source_id": 45, "delta_h": -15.700555555555555, "mean_lon": -0.71184479892253871, "mean_lat": 5.289133524894714, "dx_m": 4052.7757876261603, "dy_m": 7331.4188331136247, "n_particles": 20, "snap_water": false, "snap_m": 0.0, "outside_grid": 0 }, "geometry": { "type": "Polygon", "coordinates": [ [ [ -0.711027032951555, 5.289407391406767 ], [ -0.710647855636526, 5.288664268911217 ], [ -0.711100838646076, 5.288809501076191 ], [ -0.711314780230761, 5.289049556372039 ], [ -0.711411311419112, 5.288762794576938 ], [ -0.712222242166407, 5.288933274262213 ], [ -0.713342680522323, 5.289320234144478 ], [ -0.714964810877787, 5.289589409893902 ], [ -0.71243556909122, 5.289340812881518 ], [ -0.711409640705597, 5.289217392341459 ], [ -0.711027032951555, 5.289407391406767 ] ] ] } },
{ "type": "Feature", "properties": { "seed_idx": 46, "source_id": 46, "delta_h": -15.700555555555555, "mean_lon": -0.74229048192501068, "mean_lat": 5.2601486444473267, "dx_m": 1093.7620830615051, "dy_m": 4991.1006903900998, "n_particles": 20, "snap_water": false, "snap_m": 0.0, "outside_grid": 0 }, "geometry": { "type": "Polygon", "coordinates": [ [ [ -0.741645409990843, 5.260863086685238 ], [ -0.741419825134963, 5.260539253994651 ], [ -0.741958676588196, 5.26003873916426 ], [ -0.74243591538127, 5.260076358937451 ], [ -0.74250959078302, 5.259502376611692 ], [ -0.742842842808663, 5.259754817821387 ], [ -0.742721818861647, 5.260220957025175 ], [ -0.742374777761577, 5.260482897273868 ], [ -0.742040404075351, 5.260541503239262 ], [ -0.741860182742543, 5.260875828673688 ], [ -0.741645409990843, 5.260863086685238 ] ] ] } },
{ "type": "Feature", "properties": { "seed_idx": 47, "source_id": 47, "delta_h": -15.700555555555555, "mean_lon": -0.74279706180095673, "mean_lat": 5.2556106567382814, "dx_m": 1244.8006656729849, "dy_m": 4360.5539426519535, "n_particles": 20, "snap_water": false, "snap_m": 0.0, "outside_grid": 0 }, "geometry": { "type": "Polygon", "coordinates": [ [ [ -0.742523602613839, 5.255202268775766 ], [ -0.743024060077856, 5.255419423559466 ], [ -0.744190848616133, 5.256189311537918 ], [ -0.743475316876887, 5.256043160260375 ], [ -0.742927208347332, 5.25580190604133 ], [ -0.742137918017967, 5.25625366279663 ], [ -0.741493475027941, 5.256251329029228 ], [ -0.741637805531037, 5.255940800240268 ], [ -0.74213938356993, 5.255846908282168 ], [ -0.742523602613839, 5.255202268775766 ] ] ] } },
{ "type": "Feature", "properties": { "seed_idx": 48, "source_id": 48, "delta_h": -15.700555555555555, "mean_lon": -0.7545596688985825, "mean_lat": 5.206203126907349, "dx_m": -32718.872420316562, "dy_m": -21463.585887040594, "n_particles": 20, "snap_water": false, "snap_m": 0.0, "outside_grid": 0 }, "geometry": { "type": "Polygon", "coordinates": [ [ [ -0.753322720806506, 5.20600734771143 ], [ -0.75324526131439, 5.205416865487939 ], [ -0.753818624153617, 5.20525939617175 ], [ -0.754374604128485, 5.205516603729522 ], [ -0.75481807539175, 5.206092440244919 ], [ -0.754941910819303, 5.207065924949168 ], [ -0.754671139486517, 5.207144716665058 ], [ -0.754276307179622, 5.206313829041141 ], [ -0.754309318239268, 5.205978964912944 ], [ -0.75411951813956, 5.205659257480496 ], [ -0.753322720806506, 5.20600734771143 ] ] ] } },
{ "type": "Feature", "properties": { "seed_idx": 49, "source_id": 49, "delta_h": -15.700555555555555, "mean_lon": -0.75602191984653477, "mean_lat": 5.2009760379791263, "dx_m": -33661.553870903561, "dy_m": -22013.150626274408, "n_particles": 20, "snap_water": false, "snap_m": 0.0, "outside_grid": 0 }, "geometry": { "type": "Polygon", "coordinates": [ [ [ -0.756286845363655, 5.201177631790161 ], [ -0.75614325127837, 5.201288781240522 ], [ -0.755745986517337, 5.201143802562237 ], [ -0.75569944075558, 5.200808654521311 ], [ -0.755922815420631, 5.20063398311599 ], [ -0.756351845356471, 5.200795026208189 ], [ -0.756286845363655, 5.201177631790161 ] ] ] } },
{ "type": "Feature", "properties": { "seed_idx": 50, "source_id": 50, "delta_h": -15.700555555555555, "mean_lon": -0.75485160946846008, "mean_lat": 5.2201076984405521, "dx_m": -32204.488689874648, "dy_m": -19276.291505050263, "n_particles": 20, "snap_water": false, "snap_m": 0.0, "outside_grid": 0 }, "geometry": { "type": "Polygon", "coordinates": [ [ [ -0.755061618753353, 5.22039439721246 ], [ -0.754553361931634, 5.220137355323398 ], [ -0.75471355434194, 5.219834849396396 ], [ -0.755030874241765, 5.22009120838344 ], [ -0.755237609006048, 5.220123850609875 ], [ -0.755268977846698, 5.22025157494951 ], [ -0.755061618753353, 5.22039439721246 ] ] ] } },
{ "type": "Feature", "properties": { "seed_idx": 51, "source_id": 51, "delta_h": -15.700555555555555, "mean_lon": -0.75547125935554504, "mean_lat": 5.2147026300430301, "dx_m": -32438.719688841491, "dy_m": -20123.157165601267, "n_particles": 20, "snap_water": false, "snap_m": 0.0, "outside_grid": 0 }, "geometry": { "type": "Polygon", "coordinates": [ [ [ -0.755762108666181, 5.214639728670584 ], [ -0.755562310877396, 5.21489423965785 ], [ -0.755244538858076, 5.214765492516388 ], [ -0.755189671385596, 5.21453399943451 ], [ -0.755189926474235, 5.214462218484105 ], [ -0.755531848641036, 5.214511294186145 ], [ -0.755682665649231, 5.21460754192956 ], [ -0.755762108666181, 5.214639728670584 ] ] ] } },
{ "type": "Feature", "properties": { "seed_idx": 52, "source_id": 52, "delta_h": -15.700555555555555, "mean_lon": -0.75174316763877869, "mean_lat": 5.2300633192062378, "dx_m": -31422.898103935062, "dy_m": -17738.846474594553, "n_particles": 20, "snap_water": false, "snap_m": 0.0, "outside_grid": 0 }, "geometry": { "type": "Polygon", "coordinates": [ [ [ -0.751737850748671, 5.230272682368685 ], [ -0.751547765518611, 5.230032728167425 ], [ -0.751548491596004, 5.229829349418072 ], [ -0.751822796089004, 5.229878187959978 ], [ -0.751929430828566, 5.230093915513428 ], [ -0.751928747543365, 5.230285330855662 ], [ -0.751737850748671, 5.230272682368685 ] ] ] } },
{ "type": "Feature", "properties": { "seed_idx": 53, "source_id": 53, "delta_h": -15.700555555555555, "mean_lon": -0.75215814709663387, "mean_lat": 5.2249432563781735, "dx_m": -31085.054287913023, "dy_m": -17811.244547941838, "n_particles": 20, "snap_water": false, "snap_m": 0.0, "outside_grid": 0 }, "geometry": { "type": "Polygon", "coordinates": [ [ [ -0.752445419614956, 5.225038700594509 ], [ -0.752134505507089, 5.225217040698284 ], [ -0.751836762216797, 5.225048483005192 ], [ -0.751861568049996, 5.224785372420518 ], [ -0.752076543770606, 5.224738288375907 ], [ -0.752434424342578, 5.224775461603113 ], [ -0.752493836539463, 5.22484745618364 ], [ -0.752445419614956, 5.225038700594509 ] ] ] } },
{ "type": "Feature", "properties": { "seed_idx": 54, "source_id": 54, "delta_h": -15.700555555555555, "mean_lon": -0.68079924583435059, "mean_lat": 5.3121583223342892, "dx_m": -22889.690219246084, "dy_m": -7832.0952691092389, "n_particles": 20, "snap_water": false, "snap_m": 0.0, "outside_grid": 0 }, "geometry": { "type": "Polygon", "coordinates": [ [ [ -0.680873875084456, 5.312373896240999 ], [ -0.680552667794719, 5.312097539972254 ], [ -0.680672327909796, 5.312014248748608 ], [ -0.680851124442817, 5.312074735735805 ], [ -0.68106541188338, 5.312219097073272 ], [ -0.680873875084456, 5.312373896240999 ] ] ] } },
{ "type": "Feature", "properties": { "seed_idx": 55, "source_id": 55, "delta_h": -15.700555555555555, "mean_lon": -0.68551726639270782, "mean_lat": 5.3109919071197513, "dx_m": -23408.991437808261, "dy_m": -8158.2832226804458, "n_particles": 20, "snap_water": false, "snap_m": 0.0, "outside_grid": 0 }, "geometry": { "type": "Polygon", "coordinates": [ [ [ -0.685537595868594, 5.311153632766981 ], [ -0.685329162690098, 5.311039202240369 ], [ -0.685449224148369, 5.31084824387545 ], [ -0.685633854875588, 5.310944640530519 ], [ -0.685734875748073, 5.311058668214893 ], [ -0.685674889675217, 5.311142184568829 ], [ -0.685537595868594, 5.311153632766981 ] ] ] } },
{ "type": "Feature", "properties": { "seed_idx": 56, "source_id": 56, "delta_h": -15.700555555555555, "mean_lon": -0.68839530646800995, "mean_lat": 5.3083664178848267, "dx_m": -19462.403262756416, "dy_m": -5639.1137698980747, "n_particles": 20, "snap_water": false, "snap_m": 0.0, "outside_grid": 0 }, "geometry": { "type": "Polygon", "coordinates": [ [ [ -0.688536550762208, 5.308574582391635 ], [ -0.687963953502864, 5.308500660313575 ], [ -0.687989249388768, 5.308117937082022 ], [ -0.688514508725151, 5.308084014207668 ], [ -0.688776224906262, 5.308312292055898 ], [ -0.688859366615999, 5.308420270846161 ], [ -0.688536550762208, 5.308574582391635 ] ] ] } },
{ "type": "Feature", "properties": { "seed_idx": 57, "source_id": 57, "delta_h": -15.700555555555555, "mean_lon": -0.672690749168396, "mean_lat": 5.3173770427703859, "dx_m": -17934.983570616925, "dy_m": -4630.9286148460815, "n_particles": 20, "snap_water": false, "snap_m": 0.0, "outside_grid": 0 }, "geometry": { "type": "Polygon", "coordinates": [ [ [ -0.672401632867985, 5.317507479579807 ], [ -0.672355602340812, 5.31705271454756 ], [ -0.67283299083887, 5.317054516774342 ], [ -0.673011292483056, 5.3172465967217 ], [ -0.672974499524566, 5.317509642349337 ], [ -0.672759090132716, 5.317664347261331 ], [ -0.672401632867985, 5.317507479579807 ] ] ] } },
{ "type": "Feature", "properties": { "seed_idx": 58, "source_id": 58, "delta_h": -15.700555555555555, "mean_lon": -0.67264498770236969, "mean_lat": 5.3187175989151001, "dx_m": -17463.051431975793, "dy_m": -4361.4529962959932, "n_particles": 20, "snap_water": false, "snap_m": 0.0, "outside_grid": 0 }, "geometry": { "type": "Polygon", "coordinates": [ [ [ -0.672901683526853, 5.319131719047521 ], [ -0.672186767735811, 5.318817982960469 ], [ -0.672582188032536, 5.318400773868821 ], [ -0.672891682042906, 5.318617275245781 ], [ -0.673212886289283, 5.318893635439577 ], [ -0.673271481164819, 5.319180967079879 ], [ -0.672901683526853, 5.319131719047521 ] ] ] } },
{ "type": "Feature", "properties": { "seed_idx": 59, "source_id": 59, "delta_h": -15.700555555555555, "mean_lon": -0.67395362854003904, "mean_lat": 5.3152833700180055, "dx_m": -17004.902084034635, "dy_m": -4468.7179648227757, "n_particles": 20, "snap_water": false, "snap_m": 0.0, "outside_grid": 0 }, "geometry": { "type": "Polygon", "coordinates": [ [ [ -0.678280805053874, 5.313146006523935 ], [ -0.678661281401314, 5.313530253617153 ], [ -0.678374669485504, 5.313577026984934 ], [ -0.676438290210829, 5.314359292175464 ], [ -0.674956503915705, 5.314856152324694 ], [ -0.674405353129204, 5.31542829570672 ], [ -0.670507180024612, 5.317399426360351 ], [ -0.669767498783648, 5.317324853369815 ], [ -0.671227399964836, 5.316301559084797 ], [ -0.673666480081029, 5.315138398372889 ], [ -0.675317237217888, 5.314139734944102 ], [ -0.678280805053874, 5.313146006523935 ] ] ] } },
{ "type": "Feature", "properties": { "seed_idx": 60, "source_id": 60, "delta_h": -15.700555555555555, "mean_lon": -0.66311836838722227, "mean_lat": 5.3175441503524778, "dx_m": -19922.72444141726, "dy_m": -5840.420862786239, "n_particles": 20, "snap_water": false, "snap_m": 0.0, "outside_grid": 0 }, "geometry": { "type": "Polygon", "coordinates": [ [ [ -0.664131415048598, 5.317118647335189 ], [ -0.664333221297561, 5.317406520569247 ], [ -0.664165098536558, 5.317681029291355 ], [ -0.663544045436404, 5.317798304144651 ], [ -0.662326802030458, 5.317769763419404 ], [ -0.661718406593025, 5.317695678842632 ], [ -0.66254365719587, 5.317232257774687 ], [ -0.664131415048598, 5.317118647335189 ] ] ] } },
{ "type": "Feature", "properties": { "seed_idx": 61, "source_id": 61, "delta_h": -15.700555555555555, "mean_lon": -0.6637074768543243, "mean_lat": 5.3176539421081541, "dx_m": -34125.127837723354, "dy_m": -16088.013584291912, "n_particles": 20, "snap_water": false, "snap_m": 0.0, "outside_grid": 0 }, "geometry": { "type": "Polygon", "coordinates": [ [ [ -0.66524101466022, 5.314957006966937 ], [ -0.666148045265607, 5.314960439994703 ], [ -0.665952765141806, 5.316108136872469 ], [ -0.66494610728073, 5.317204909125208 ], [ -0.662982325302747, 5.318920117875225 ], [ -0.661308400296661, 5.319727240579798 ], [ -0.659876783546955, 5.319578251517818 ], [ -0.662078362213439, 5.318103216160625 ], [ -0.664661118999076, 5.316821018010439 ], [ -0.665238850985209, 5.315531216433186 ], [ -0.66524101466022, 5.314957006966937 ] ] ] } },
{ "type": "Feature", "properties": { "seed_idx": 62, "source_id": 62, "delta_h": -15.700555555555555, "mean_lon": -0.66634517610073085, "mean_lat": 5.3179212331771852, "dx_m": -35163.440183123341, "dy_m": -16788.840182294953, "n_particles": 20, "snap_water": false, "snap_m": 0.0, "outside_grid": 0 }, "geometry": { "type": "Polygon", "coordinates": [ [ [ -0.666287564136617, 5.317670053867505 ], [ -0.666669113084752, 5.317767201270778 ], [ -0.66657165240083, 5.318293198984926 ], [ -0.666141823468499, 5.31833942307345 ], [ -0.665904121804467, 5.318075339760593 ], [ -0.666287564136617, 5.317670053867505 ] ] ] } },
{ "type": "Feature", "properties": { "seed_idx": 63, "source_id": 63, "delta_h": -15.700555555555555, "mean_lon": -0.66032029688358307, "mean_lat": 5.3184489250183109, "dx_m": -34145.164613421075, "dy_m": -16378.607344637509, "n_particles": 20, "snap_water": false, "snap_m": 0.0, "outside_grid": 0 }, "geometry": { "type": "Polygon", "coordinates": [ [ [ -0.660158263019529, 5.318172831046938 ], [ -0.660254463196575, 5.317981791032306 ], [ -0.66068429051002, 5.317935571137577 ], [ -0.660633569341845, 5.318724925291799 ], [ -0.659890637659325, 5.319511651058521 ], [ -0.65941370394176, 5.319390211524369 ], [ -0.660158263019529, 5.318172831046938 ] ] ] } },
{ "type": "Feature", "properties": { "seed_idx": 64, "source_id": 64, "delta_h": -15.700555555555555, "mean_lon": -0.66729719340801241, "mean_lat": 5.3179162263870241, "dx_m": -35066.929064510623, "dy_m": -16739.701630291529, "n_particles": 20, "snap_water": false, "snap_m": 0.0, "outside_grid": 0 }, "geometry": { "type": "Polygon", "coordinates": [ [ [ -0.6672077568881, 5.31759133905511 ], [ -0.667327734439768, 5.317424312688951 ], [ -0.667660914280482, 5.317688756873673 ], [ -0.667635332898121, 5.318143249794982 ], [ -0.667204692666017, 5.318404803538539 ], [ -0.666632188154617, 5.318306933382665 ], [ -0.6672077568881, 5.31759133905511 ] ] ] } },
{ "type": "Feature", "properties": { "seed_idx": 65, "source_id": 65, "delta_h": -15.700555555555555, "mean_lon": -0.66197075843811037, "mean_lat": 5.3215940952301022, "dx_m": -40818.712860993575, "dy_m": -19484.231796198641, "n_particles": 20, "snap_water": false, "snap_m": 0.0, "outside_grid": 0 }, "geometry": { "type": "Polygon", "coordinates": [ [ [ -0.661693745727332, 5.324033275179204 ], [ -0.660788333219013, 5.323599174144994 ], [ -0.660650363128316, 5.322210962088366 ], [ -0.659458340540065, 5.321823623239466 ], [ -0.659174803742338, 5.3210569256276 ], [ -0.65860374955834, 5.320576243069913 ], [ -0.659273538262559, 5.320195978052121 ], [ -0.661184892850811, 5.319724723091675 ], [ -0.662904569694874, 5.319444139558192 ], [ -0.663907805018422, 5.319256537925198 ], [ -0.66543598627084, 5.319118774696984 ], [ -0.664568203947864, 5.321364504496549 ], [ -0.66456459227921, 5.322321519607743 ], [ -0.66446622439217, 5.323086769568344 ], [ -0.661693745727332, 5.324033275179204 ] ] ] } },
{ "type": "Feature", "properties": { "seed_idx": 66, "source_id": 66, "delta_h": -15.700555555555555, "mean_lon": -0.65542251169681554, "mean_lat": 5.3296390533447262, "dx_m": -39535.641278022318, "dy_m": -18792.612425906351, "n_particles": 20, "snap_water": false, "snap_m": 0.0, "outside_grid": 0 }, "geometry": { "type": "Polygon", "coordinates": [ [ [ -0.655542556252186, 5.330046127657504 ], [ -0.655065254449423, 5.330020382418271 ], [ -0.654779545445595, 5.329827888600018 ], [ -0.655091575470657, 5.329374492787379 ], [ -0.6556423916232, 5.3288980811286 ], [ -0.656143471661511, 5.32894784172692 ], [ -0.656117696433184, 5.329450180543176 ], [ -0.655542556252186, 5.330046127657504 ] ] ] } },
{ "type": "Feature", "properties": { "seed_idx": 67, "source_id": 67, "delta_h": -15.700555555555555, "mean_lon": -0.65863017737865448, "mean_lat": 5.320614838600159, "dx_m": -37080.559878851403, "dy_m": -19454.13843830023, "n_particles": 20, "snap_water": false, "snap_m": 0.0, "outside_grid": 0 }, "geometry": { "type": "Polygon", "coordinates": [ [ [ -0.664355343451797, 5.31914743959113 ], [ -0.664736711900399, 5.319292439220013 ], [ -0.664448474270496, 5.31976986126458 ], [ -0.662771655578092, 5.321342598892896 ], [ -0.660765178621091, 5.321717793248236 ], [ -0.659286905276299, 5.321281516106751 ], [ -0.657426364195738, 5.320939485264797 ], [ -0.657239212822149, 5.319933898493224 ], [ -0.658671369962684, 5.319939342103255 ], [ -0.660767529829598, 5.321095735112334 ], [ -0.662393720632803, 5.320288434731168 ], [ -0.664355343451797, 5.31914743959113 ] ] ] } },
{ "type": "Feature", "properties": { "seed_idx": 68, "source_id": 68, "delta_h": -15.700555555555555, "mean_lon": -0.6575334787368774, "mean_lat": 5.3207821130752562, "dx_m": -38978.846457952866, "dy_m": -20203.527848647442, "n_particles": 20, "snap_water": false, "snap_m": 0.0, "outside_grid": 0 }, "geometry": { "type": "Polygon", "coordinates": [ [ [ -0.657738277922481, 5.32158383744013 ], [ -0.657382501781618, 5.320984344516419 ], [ -0.657308176927791, 5.321701829818801 ], [ -0.656976542324042, 5.321030651843198 ], [ -0.656930796207206, 5.320504114830078 ], [ -0.657385308776069, 5.320242661598701 ], [ -0.657933035172874, 5.320579702409368 ], [ -0.658337093724777, 5.321035824994313 ], [ -0.658311957076504, 5.321370688056004 ], [ -0.657738277922481, 5.32158383744013 ] ] ] } },
{ "type": "Feature", "properties": { "seed_idx": 69, "source_id": 69, "delta_h": -15.700555555555555, "mean_lon": -0.65988706052303314, "mean_lat": 5.3206261873245237, "dx_m": -37758.735421029036, "dy_m": -19434.410542971571, "n_particles": 20, "snap_water": false, "snap_m": 0.0, "outside_grid": 0 }, "geometry": { "type": "Polygon", "coordinates": [ [ [ -0.660822767385213, 5.320460794403059 ], [ -0.660200898139876, 5.320793392102136 ], [ -0.659604164338971, 5.320791125452695 ], [ -0.659198114056425, 5.320861359660945 ], [ -0.659367642164273, 5.320216011681635 ], [ -0.660155510838682, 5.320171152910183 ], [ -0.660656766910743, 5.320173056264994 ], [ -0.661014807073572, 5.320174415555029 ], [ -0.660822767385213, 5.320460794403059 ] ] ] } },
{ "type": "Feature", "properties": { "seed_idx": 70, "source_id": 70, "delta_h": -15.700555555555555, "mean_lon": -0.65670054852962489, "mean_lat": 5.3272566080093382, "dx_m": -39524.127924820641, "dy_m": -19456.389976283535, "n_particles": 20, "snap_water": false, "snap_m": 0.0, "outside_grid": 0 }, "geometry": { "type": "Polygon", "coordinates": [ [ [ -0.656449762641217, 5.327805986628086 ], [ -0.656452030198344, 5.327207855777393 ], [ -0.656046883052618, 5.32703883360371 ], [ -0.656596879829179, 5.326777746948593 ], [ -0.657145879040433, 5.326779837307837 ], [ -0.656929058368613, 5.32730537473723 ], [ -0.656449762641217, 5.327805986628086 ] ] ] } },
{ "type": "Feature", "properties": { "seed_idx": 71, "source_id": 71, "delta_h": -15.700555555555555, "mean_lon": -0.65137724876403813, "mean_lat": 5.335058331489563, "dx_m": -47154.133358564926, "dy_m": -17513.76239857683, "n_particles": 20, "snap_water": false, "snap_m": 0.0, "outside_grid": 0 }, "geometry": { "type": "Polygon", "coordinates": [ [ [ -0.654818975155961, 5.333611802993461 ], [ -0.655102504602143, 5.334378502486104 ], [ -0.65400431268475, 5.334422162056768 ], [ -0.652237404421339, 5.334558967099101 ], [ -0.650703913408524, 5.336084336827453 ], [ -0.649123769080969, 5.337322415371749 ], [ -0.648648743415842, 5.33669853548005 ], [ -0.65061043783553, 5.335557618894808 ], [ -0.652289146838328, 5.333506442571831 ], [ -0.654818975155961, 5.333611802993461 ] ] ] } },
{ "type": "Feature", "properties": { "seed_idx": 72, "source_id": 72, "delta_h": -15.700555555555555, "mean_lon": -0.65546950697898865, "mean_lat": 5.335613179206848, "dx_m": -48947.390943154227, "dy_m": -18152.856051635696, "n_particles": 20, "snap_water": false, "snap_m": 0.0, "outside_grid": 0 }, "geometry": { "type": "Polygon", "coordinates": [ [ [ -0.662833527462705, 5.331932877461456 ], [ -0.66340513638726, 5.33227000989014 ], [ -0.662592656079094, 5.332506178062145 ], [ -0.660344178318725, 5.333741757907774 ], [ -0.657524088340707, 5.334640188346208 ], [ -0.65484412333364, 5.336352605682086 ], [ -0.652546610907353, 5.337922913768542 ], [ -0.651258184090461, 5.33777443449091 ], [ -0.65341084043874, 5.336634238507396 ], [ -0.656043250280157, 5.334873797181138 ], [ -0.658149060417982, 5.333494141476961 ], [ -0.662833527462705, 5.331932877461456 ] ] ] } },
{ "type": "Feature", "properties": { "seed_idx": 73, "source_id": 73, "delta_h": -15.700555555555555, "mean_lon": -0.65429466366767886, "mean_lat": 5.3272756338119507, "dx_m": -46634.517352975439, "dy_m": -17036.455250711762, "n_particles": 20, "snap_water": false, "snap_m": 0.0, "outside_grid": 0 }, "geometry": { "type": "Polygon", "coordinates": [ [ [ -0.658061754387804, 5.319994368198361 ], [ -0.658632807590867, 5.320475050845064 ], [ -0.657862470606941, 5.322194766606442 ], [ -0.655651982282029, 5.326014447655704 ], [ -0.653589219428868, 5.328638395517198 ], [ -0.652382288082167, 5.332174766110473 ], [ -0.65161063421875, 5.33422941138402 ], [ -0.650316751939457, 5.335516440989369 ], [ -0.65200201065477, 5.331742654802097 ], [ -0.652682903893021, 5.328443533827429 ], [ -0.655174229847109, 5.326108329934732 ], [ -0.656236816820388, 5.32285849875083 ], [ -0.658061754387804, 5.319994368198361 ] ] ] } },
{ "type": "Feature", "properties": { "seed_idx": 74, "source_id": 74, "delta_h": -15.700555555555555, "mean_lon": -0.65510346889495852, "mean_lat": 5.3313231468200684, "dx_m": -39433.862203560886, "dy_m": -19276.087206357042, "n_particles": 20, "snap_water": false, "snap_m": 0.0, "outside_grid": 0 }, "geometry": { "type": "Polygon", "coordinates": [ [ [ -0.654652502042534, 5.332156413225356 ], [ -0.654422889066086, 5.329762982914248 ], [ -0.655520709735926, 5.329815019791058 ], [ -0.655708035600913, 5.330772756439989 ], [ -0.655560640725608, 5.331872770360164 ], [ -0.655892274114674, 5.332543950769524 ], [ -0.655939468731552, 5.332687684137819 ], [ -0.654652502042534, 5.332156413225356 ] ] ] } },
{ "type": "Feature", "properties": { "seed_idx": 75, "source_id": 75, "delta_h": -15.700555555555555, "mean_lon": -0.65238285362720494, "mean_lat": 5.3329278945922853, "dx_m": -37257.379888556083, "dy_m": -18540.679951155675, "n_particles": 20, "snap_water": false, "snap_m": 0.0, "outside_grid": 0 }, "geometry": { "type": "Polygon", "coordinates": [ [ [ -0.652496675622778, 5.332431358838681 ], [ -0.652855266327302, 5.332289174991068 ], [ -0.652299714834755, 5.334009690039957 ], [ -0.650317618006922, 5.334241369677462 ], [ -0.649100263516104, 5.334236713880693 ], [ -0.648816651634804, 5.333493940025908 ], [ -0.649843320223571, 5.333426090242394 ], [ -0.651657052135936, 5.333528724758103 ], [ -0.652496675622778, 5.332431358838681 ] ] ] } },
{ "type": "Feature", "properties": { "seed_idx": 76, "source_id": 76, "delta_h": -15.700555555555555, "mean_lon": -0.64836368858814242, "mean_lat": 5.3344279527664185, "dx_m": -36328.14778210083, "dy_m": -18213.519283190602, "n_particles": 20, "snap_water": false, "snap_m": 0.0, "outside_grid": 0 }, "geometry": { "type": "Polygon", "coordinates": [ [ [ -0.648693300277284, 5.334153828572324 ], [ -0.648715074183454, 5.334704197093809 ], [ -0.648142201580532, 5.334702004747647 ], [ -0.64788191385785, 5.334102872719601 ], [ -0.648693300277284, 5.334153828572324 ] ] ] } }
]
}
