{
"type": "FeatureCollection",
"name": "search_boxes_1km",
"crs": { "type": "name", "properties": { "name": "urn:ogc:def:crs:OGC:1.3:CRS84" } },
"features": [
{ "type": "Feature", "properties": { "seed_idx": 0, "delta_h": -15.700555555555555 }, "geometry": { "type": "Polygon", "coordinates": [ [ [ -0.339965905306705, 5.507771619478465 ], [ -0.339925656191437, 5.516808282552779 ], [ -0.348944185104955, 5.516848578080205 ], [ -0.348984298152836, 5.507811848608382 ], [ -0.339965905306705, 5.507771619478465 ] ] ] } },
{ "type": "Feature", "properties": { "seed_idx": 1, "delta_h": -15.700555555555555 }, "geometry": { "type": "Polygon", "coordinates": [ [ [ -0.335575487657227, 5.509128032501888 ], [ -0.335535162175906, 5.518164662754137 ], [ -0.344553679284706, 5.518205034747372 ], [ -0.344593868666584, 5.509168337988015 ], [ -0.335575487657227, 5.509128032501888 ] ] ] } },
{ "type": "Feature", "properties": { "seed_idx": 2, "delta_h": -15.700555555555555 }, "geometry": { "type": "Polygon", "coordinates": [ [ [ -0.319164112221707, 5.514380836288005 ], [ -0.319123499643253, 5.523417343322325 ], [ -0.328141974957964, 5.523458002770602 ], [ -0.328182451312606, 5.514421428819481 ], [ -0.319164112221707, 5.514380836288005 ] ] ] } },
{ "type": "Feature", "properties": { "seed_idx": 3, "delta_h": -15.700555555555555 }, "geometry": { "type": "Polygon", "coordinates": [ [ [ -0.263800713391092, 5.488705753646903 ], [ -0.26375945673675, 5.497741852622712 ], [ -0.272777130461109, 5.497783160271908 ], [ -0.272818251559865, 5.488746993001864 ], [ -0.263800713391092, 5.488705753646903 ] ] ] } },
{ "type": "Feature", "properties": { "seed_idx": 4, "delta_h": -15.700555555555555 }, "geometry": { "type": "Polygon", "coordinates": [ [ [ -0.246995613881945, 5.506724061945836 ], [ -0.246953967038783, 5.515760027584752 ], [ -0.255971784931155, 5.515801724933572 ], [ -0.256013295774933, 5.506765690579678 ], [ -0.246995613881945, 5.506724061945836 ] ] ] } },
{ "type": "Feature", "properties": { "seed_idx": 5, "delta_h": -15.700555555555555 }, "geometry": { "type": "Polygon", "coordinates": [ [ [ -0.259036570919983, 5.500284897654002 ], [ -0.258995154836111, 5.50932095695759 ], [ -0.268012966949599, 5.509362423462769 ], [ -0.268054247189938, 5.500326295744994 ], [ -0.259036570919983, 5.500284897654002 ] ] ] } },
{ "type": "Feature", "properties": { "seed_idx": 6, "delta_h": -15.700555555555555 }, "geometry": { "type": "Polygon", "coordinates": [ [ [ -0.319808163242523, 5.511596524886108 ], [ -0.319767581024314, 5.52063303755062 ], [ -0.328786019019015, 5.520673666797345 ], [ -0.328826465082909, 5.511637087232376 ], [ -0.319808163242523, 5.511596524886108 ] ] ] } },
{ "type": "Feature", "properties": { "seed_idx": 7, "delta_h": -15.700555555555555 }, "geometry": { "type": "Polygon", "coordinates": [ [ [ -0.338696398674826, 5.505094707774648 ], [ -0.338656150039537, 5.514131362291963 ], [ -0.34767462920301, 5.514171657571923 ], [ -0.347714741838564, 5.50513493662572 ], [ -0.338696398674826, 5.505094707774648 ] ] ] } },
{ "type": "Feature", "properties": { "seed_idx": 8, "delta_h": -15.700555555555555 }, "geometry": { "type": "Polygon", "coordinates": [ [ [ -0.324878573951099, 5.511845643355484 ], [ -0.324838066611263, 5.520882193593052 ], [ -0.333856545881444, 5.520922747725801 ], [ -0.333896917058467, 5.511886130714159 ], [ -0.324878573951099, 5.511845643355484 ] ] ] } },
{ "type": "Feature", "properties": { "seed_idx": 9, "delta_h": -15.700555555555555 }, "geometry": { "type": "Polygon", "coordinates": [ [ [ -0.342790346303294, 5.50447920058027 ], [ -0.342750164056821, 5.513515885473028 ], [ -0.351768664007725, 5.513556114227589 ], [ -0.351808710268085, 5.504519363008075 ], [ -0.342790346303294, 5.50447920058027 ] ] ] } },
{ "type": "Feature", "properties": { "seed_idx": 10, "delta_h": -15.700555555555555 }, "geometry": { "type": "Polygon", "coordinates": [ [ [ -0.318976285077633, 5.507828686922333 ], [ -0.318935718171632, 5.516865194543255 ], [ -0.327954093082246, 5.516905808765633 ], [ -0.327994523928731, 5.507869234223898 ], [ -0.318976285077633, 5.507828686922333 ] ] ] } },
{ "type": "Feature", "properties": { "seed_idx": 11, "delta_h": -15.700555555555555 }, "geometry": { "type": "Polygon", "coordinates": [ [ [ -0.314605389459607, 5.506058537573908 ], [ -0.314564769592948, 5.515095013208417 ], [ -0.323583085372061, 5.515135680698868 ], [ -0.323623569225513, 5.506099138034764 ], [ -0.314605389459607, 5.506058537573908 ] ] ] } },
{ "type": "Feature", "properties": { "seed_idx": 12, "delta_h": -15.700555555555555 }, "geometry": { "type": "Polygon", "coordinates": [ [ [ -0.369908772555849, 5.478144444083849 ], [ -0.369869191392001, 5.487181335721558 ], [ -0.378887492885174, 5.487220963934289 ], [ -0.378926938711033, 5.478184006648608 ], [ -0.369908772555849, 5.478144444083849 ] ] ] } },
{ "type": "Feature", "properties": { "seed_idx": 13, "delta_h": -15.700555555555555 }, "geometry": { "type": "Polygon", "coordinates": [ [ [ -0.371496636158686, 5.475409274072736 ], [ -0.371457098728695, 5.484446178110544 ], [ -0.380475370682507, 5.484485762696433 ], [ -0.380514772842362, 5.475448793050512 ], [ -0.371496636158686, 5.475409274072736 ] ] ] } },
{ "type": "Feature", "properties": { "seed_idx": 14, "delta_h": -15.700555555555555 }, "geometry": { "type": "Polygon", "coordinates": [ [ [ -0.368185545783329, 5.478456144758789 ], [ -0.368145936438524, 5.487493023730512 ], [ -0.377164230088697, 5.4875326801796 ], [ -0.37720370408845, 5.478495735516906 ], [ -0.368185545783329, 5.478456144758789 ] ] ] } },
{ "type": "Feature", "properties": { "seed_idx": 15, "delta_h": -15.700555555555555 }, "geometry": { "type": "Polygon", "coordinates": [ [ [ -0.375048387918564, 5.472016102517095 ], [ -0.375008928473376, 5.48105303344608 ], [ -0.384027175275459, 5.481092540109736 ], [ -0.384066499534003, 5.472055543661537 ], [ -0.375048387918564, 5.472016102517095 ] ] ] } },
{ "type": "Feature", "properties": { "seed_idx": 16, "delta_h": -15.700555555555555 }, "geometry": { "type": "Polygon", "coordinates": [ [ [ -0.471077753555556, 5.38902336916082 ], [ -0.471040316258061, 5.398061011081041 ], [ -0.480058010979206, 5.398098496435122 ], [ -0.480095315128887, 5.389060791398282 ], [ -0.471077753555556, 5.38902336916082 ] ] ] } },
{ "type": "Feature", "properties": { "seed_idx": 17, "delta_h": -15.700555555555555 }, "geometry": { "type": "Polygon", "coordinates": [ [ [ -0.507195445718051, 5.374898114827182 ], [ -0.507158639972527, 5.38393601241143 ], [ -0.516176376763105, 5.38397286539587 ], [ -0.516213049699945, 5.37493490559706 ], [ -0.507195445718051, 5.374898114827182 ] ] ] } },
{ "type": "Feature", "properties": { "seed_idx": 18, "delta_h": -15.700555555555555 }, "geometry": { "type": "Polygon", "coordinates": [ [ [ -0.5016595797697, 5.377548559870513 ], [ -0.501622674058232, 5.386586418360205 ], [ -0.510640411755603, 5.38662337140916 ], [ -0.51067718459423, 5.377585450566595 ], [ -0.5016595797697, 5.377548559870513 ] ] ] } },
{ "type": "Feature", "properties": { "seed_idx": 19, "delta_h": -15.700555555555555 }, "geometry": { "type": "Polygon", "coordinates": [ [ [ -0.497261503453096, 5.378703867542518 ], [ -0.497224524830861, 5.387741695192896 ], [ -0.506242249186555, 5.387778721286157 ], [ -0.506279094908791, 5.378740831173114 ], [ -0.497261503453096, 5.378703867542518 ] ] ] } },
{ "type": "Feature", "properties": { "seed_idx": 20, "delta_h": -15.700555555555555 }, "geometry": { "type": "Polygon", "coordinates": [ [ [ -0.499343822999467, 5.378651566862978 ], [ -0.499306875485919, 5.38768940897507 ], [ -0.508324613458767, 5.387726403867445 ], [ -0.508361428072782, 5.378688499344623 ], [ -0.499343822999467, 5.378651566862978 ] ] ] } },
{ "type": "Feature", "properties": { "seed_idx": 21, "delta_h": -15.700555555555555 }, "geometry": { "type": "Polygon", "coordinates": [ [ [ -0.471687492581156, 5.39767014101029 ], [ -0.471650003946646, 5.406707784643738 ], [ -0.480667830777852, 5.406745320791173 ], [ -0.480705186047695, 5.397707614055493 ], [ -0.471687492581156, 5.39767014101029 ] ] ] } },
{ "type": "Feature", "properties": { "seed_idx": 22, "delta_h": -15.700555555555555 }, "geometry": { "type": "Polygon", "coordinates": [ [ [ -0.471030905926013, 5.396389954121652 ], [ -0.470993416500753, 5.405427593530582 ], [ -0.480011219804063, 5.405465130575132 ], [ -0.480048575896994, 5.396427428047718 ], [ -0.471030905926013, 5.396389954121652 ] ] ] } },
{ "type": "Feature", "properties": { "seed_idx": 23, "delta_h": -15.700555555555555 }, "geometry": { "type": "Polygon", "coordinates": [ [ [ -0.470522840506488, 5.397019661194163 ], [ -0.470485339156819, 5.406057296852876 ], [ -0.479503148227473, 5.406094845807257 ], [ -0.479540516229248, 5.397057147017331 ], [ -0.470522840506488, 5.397019661194163 ] ] ] } },
{ "type": "Feature", "properties": { "seed_idx": 24, "delta_h": -15.700555555555555 }, "geometry": { "type": "Polygon", "coordinates": [ [ [ -0.468260465601209, 5.400707999351154 ], [ -0.468222904950329, 5.409745618039118 ], [ -0.477240752799419, 5.409783226176448 ], [ -0.477278180010937, 5.400745544300503 ], [ -0.468260465601209, 5.400707999351154 ] ] ] } },
{ "type": "Feature", "properties": { "seed_idx": 25, "delta_h": -15.700555555555555 }, "geometry": { "type": "Polygon", "coordinates": [ [ [ -0.463020872791667, 5.407428523226544 ], [ -0.462983187382479, 5.416466103094769 ], [ -0.472001098122023, 5.416503835823409 ], [ -0.472038649925647, 5.407466192635902 ], [ -0.463020872791667, 5.407428523226544 ] ] ] } },
{ "type": "Feature", "properties": { "seed_idx": 26, "delta_h": -15.700555555555555 }, "geometry": { "type": "Polygon", "coordinates": [ [ [ -0.464595098545727, 5.405305895848207 ], [ -0.464557451364666, 5.414343487418725 ], [ -0.47357534167058, 5.414381181975948 ], [ -0.473612855298604, 5.405343527125606 ], [ -0.464595098545727, 5.405305895848207 ] ] ] } },
{ "type": "Feature", "properties": { "seed_idx": 27, "delta_h": -15.700555555555555 }, "geometry": { "type": "Polygon", "coordinates": [ [ [ -0.452350631151663, 5.410967364295323 ], [ -0.452312762451916, 5.420004867885269 ], [ -0.461330650741075, 5.420042784172558 ], [ -0.461368385751022, 5.411005216996904 ], [ -0.452350631151663, 5.410967364295323 ] ] ] } },
{ "type": "Feature", "properties": { "seed_idx": 28, "delta_h": -15.700555555555555 }, "geometry": { "type": "Polygon", "coordinates": [ [ [ -0.459154144316249, 5.411215011648074 ], [ -0.459116374942536, 5.420252563166479 ], [ -0.468134314719328, 5.420290379805567 ], [ -0.468171950394216, 5.411252764871091 ], [ -0.459154144316249, 5.411215011648074 ] ] ] } },
{ "type": "Feature", "properties": { "seed_idx": 29, "delta_h": -15.700555555555555 }, "geometry": { "type": "Polygon", "coordinates": [ [ [ -0.749535799169455, 5.235629714142189 ], [ -0.749503434745193, 5.244669246246601 ], [ -0.758520733308403, 5.244701654016391 ], [ -0.75855296832001, 5.235662065755061 ], [ -0.749535799169455, 5.235629714142189 ] ] ] } },
{ "type": "Feature", "properties": { "seed_idx": 30, "delta_h": -15.700555555555555 }, "geometry": { "type": "Polygon", "coordinates": [ [ [ -0.747046667182974, 5.234674435070982 ], [ -0.747014272919398, 5.243713951906376 ], [ -0.756031542299696, 5.243746389683022 ], [ -0.756063807175419, 5.234706816628676 ], [ -0.747046667182974, 5.234674435070982 ] ] ] } },
{ "type": "Feature", "properties": { "seed_idx": 31, "delta_h": -15.700555555555555 }, "geometry": { "type": "Polygon", "coordinates": [ [ [ -0.743975695846028, 5.242454975371528 ], [ -0.743943209007722, 5.251494470764462 ], [ -0.752960570994018, 5.25152700087632 ], [ -0.752992928250743, 5.242487449187171 ], [ -0.743975695846028, 5.242454975371528 ] ] ] } },
{ "type": "Feature", "properties": { "seed_idx": 32, "delta_h": -15.700555555555555 }, "geometry": { "type": "Polygon", "coordinates": [ [ [ -0.744667969279623, 5.24405690791395 ], [ -0.744635482434445, 5.253096407175706 ], [ -0.753652871755483, 5.253128937181079 ], [ -0.753685228978721, 5.244089381640251 ], [ -0.744667969279623, 5.24405690791395 ] ] ] } },
{ "type": "Feature", "properties": { "seed_idx": 33, "delta_h": -15.700555555555555 }, "geometry": { "type": "Polygon", "coordinates": [ [ [ -0.730052124694137, 5.261857245831812 ], [ -0.730019315911451, 5.270896648236839 ], [ -0.73903687022868, 5.270929499983862 ], [ -0.739069548948908, 5.2618900409336 ], [ -0.730052124694137, 5.261857245831812 ] ] ] } },
{ "type": "Feature", "properties": { "seed_idx": 34, "delta_h": -15.700555555555555 }, "geometry": { "type": "Polygon", "coordinates": [ [ [ -0.733129079795525, 5.261493289707433 ], [ -0.73309631773993, 5.270532711575004 ], [ -0.74211388608009, 5.270565516466296 ], [ -0.742146518081237, 5.261526038030297 ], [ -0.733129079795525, 5.261493289707433 ] ] ] } },
{ "type": "Feature", "properties": { "seed_idx": 35, "delta_h": -15.700555555555555 }, "geometry": { "type": "Polygon", "coordinates": [ [ [ -0.730689306204629, 5.263428946737799 ], [ -0.730656496783118, 5.272468352698714 ], [ -0.739674077766529, 5.272501204974278 ], [ -0.739706757085993, 5.263461742383899 ], [ -0.730689306204629, 5.263428946737799 ] ] ] } },
{ "type": "Feature", "properties": { "seed_idx": 36, "delta_h": -15.700555555555555 }, "geometry": { "type": "Polygon", "coordinates": [ [ [ -0.727599131615844, 5.265823841604 ], [ -0.727566262520139, 5.274863227410291 ], [ -0.736583858688915, 5.274896139385799 ], [ -0.736616597623709, 5.265856696872738 ], [ -0.727599131615844, 5.265823841604 ] ] ] } },
{ "type": "Feature", "properties": { "seed_idx": 37, "delta_h": -15.700555555555555 }, "geometry": { "type": "Polygon", "coordinates": [ [ [ -0.694640713574033, 5.29222269190376 ], [ -0.694607200032156, 5.301261860835215 ], [ -0.703624969916867, 5.30129541746012 ], [ -0.703658352648668, 5.29225619099733 ], [ -0.694640713574033, 5.29222269190376 ] ] ] } },
{ "type": "Feature", "properties": { "seed_idx": 38, "delta_h": -15.700555555555555 }, "geometry": { "type": "Polygon", "coordinates": [ [ [ -0.697201014078653, 5.293492420531808 ], [ -0.697167529666325, 5.302531605453837 ], [ -0.706185334263595, 5.302565132761718 ], [ -0.706218687833103, 5.293525890372131 ], [ -0.697201014078653, 5.293492420531808 ] ] ] } },
{ "type": "Feature", "properties": { "seed_idx": 39, "delta_h": -15.700555555555555 }, "geometry": { "type": "Polygon", "coordinates": [ [ [ -0.69642542690826, 5.290260377147957 ], [ -0.69639195177409, 5.299299558056316 ], [ -0.705409704552625, 5.299333076291656 ], [ -0.705443048925211, 5.290293837896659 ], [ -0.69642542690826, 5.290260377147957 ] ] ] } },
{ "type": "Feature", "properties": { "seed_idx": 40, "delta_h": -15.700555555555555 }, "geometry": { "type": "Polygon", "coordinates": [ [ [ -0.703430856004661, 5.286252172361797 ], [ -0.703397508025477, 5.295291399121696 ], [ -0.712415247191903, 5.29532479007912 ], [ -0.712448464507327, 5.286285506007713 ], [ -0.703430856004661, 5.286252172361797 ] ] ] } },
{ "type": "Feature", "properties": { "seed_idx": 41, "delta_h": -15.700555555555555 }, "geometry": { "type": "Polygon", "coordinates": [ [ [ -0.693363027479185, 5.296466357706461 ], [ -0.693329468355236, 5.305505517231619 ], [ -0.702347291694279, 5.305539119276626 ], [ -0.702380719902332, 5.2964999021879 ], [ -0.693363027479185, 5.296466357706461 ] ] ] } },
{ "type": "Feature", "properties": { "seed_idx": 42, "delta_h": -15.700555555555555 }, "geometry": { "type": "Polygon", "coordinates": [ [ [ -0.725050421220545, 5.272522801129445 ], [ -0.725017473217192, 5.281562168923668 ], [ -0.734035150144124, 5.281595159586302 ], [ -0.734067967819718, 5.272555735021159 ], [ -0.725050421220545, 5.272522801129445 ] ] ] } },
{ "type": "Feature", "properties": { "seed_idx": 43, "delta_h": -15.700555555555555 }, "geometry": { "type": "Polygon", "coordinates": [ [ [ -0.719207406411629, 5.272366661172374 ], [ -0.71917437481088, 5.281405992100012 ], [ -0.72819201273026, 5.281439066646333 ], [ -0.728224914009272, 5.272399678801992 ], [ -0.719207406411629, 5.272366661172374 ] ] ] } },
{ "type": "Feature", "properties": { "seed_idx": 44, "delta_h": -15.700555555555555 }, "geometry": { "type": "Polygon", "coordinates": [ [ [ -0.726346920561727, 5.268502079788226 ], [ -0.726314016556554, 5.27754145692513 ], [ -0.735331643535422, 5.2775744037333 ], [ -0.735364417313063, 5.268534969858162 ], [ -0.726346920561727, 5.268502079788226 ] ] ] } },
{ "type": "Feature", "properties": { "seed_idx": 45, "delta_h": -15.700555555555555 }, "geometry": { "type": "Polygon", "coordinates": [ [ [ -0.707352601854984, 5.284597234643301 ], [ -0.707319321264956, 5.293636486840726 ], [ -0.716337061301965, 5.293669810309002 ], [ -0.716370211268251, 5.28463050089806 ], [ -0.707352601854984, 5.284597234643301 ] ] ] } },
{ "type": "Feature", "properties": { "seed_idx": 46, "delta_h": -15.700555555555555 }, "geometry": { "type": "Polygon", "coordinates": [ [ [ -0.737798086966932, 5.255612565081604 ], [ -0.737765429071283, 5.264652017972371 ], [ -0.746782941837517, 5.264684718777704 ], [ -0.746815469824311, 5.255645209435495 ], [ -0.737798086966932, 5.255612565081604 ] ] ] } },
{ "type": "Feature", "properties": { "seed_idx": 47, "delta_h": -15.700555555555555 }, "geometry": { "type": "Polygon", "coordinates": [ [ [ -0.738304680088688, 5.251074592854614 ], [ -0.738272057827971, 5.260114050234184 ], [ -0.747289508410924, 5.260146715608914 ], [ -0.747322000876244, 5.251107201790918 ], [ -0.738304680088688, 5.251074592854614 ] ] ] } },
{ "type": "Feature", "properties": { "seed_idx": 48, "delta_h": -15.700555555555555 }, "geometry": { "type": "Polygon", "coordinates": [ [ [ -0.750067365964884, 5.201667256444503 ], [ -0.75003522004457, 5.21070680161303 ], [ -0.759052036113567, 5.210738992521849 ], [ -0.759084053471311, 5.201699391212425 ], [ -0.750067365964884, 5.201667256444503 ] ] ] } },
{ "type": "Feature", "properties": { "seed_idx": 49, "delta_h": -15.700555555555555 }, "geometry": { "type": "Polygon", "coordinates": [ [ [ -0.751529622926033, 5.196440188780446 ], [ -0.751497530317465, 5.20547974456482 ], [ -0.760514280983155, 5.205511882344154 ], [ -0.760546245159482, 5.196472270455793 ], [ -0.751529622926033, 5.196440188780446 ] ] ] } },
{ "type": "Feature", "properties": { "seed_idx": 50, "delta_h": -15.700555555555555 }, "geometry": { "type": "Polygon", "coordinates": [ [ [ -0.750359247537584, 5.215571788285792 ], [ -0.750327019470075, 5.224611331292631 ], [ -0.759344035854712, 5.224643603655514 ], [ -0.759376135011466, 5.215604004513933 ], [ -0.750359247537584, 5.215571788285792 ] ] ] } },
{ "type": "Feature", "properties": { "seed_idx": 51, "delta_h": -15.700555555555555 }, "geometry": { "type": "Polygon", "coordinates": [ [ [ -0.750978912871701, 5.210166738285189 ], [ -0.750946727221171, 5.219206286707101 ], [ -0.759963670227221, 5.219238516887444 ], [ -0.75999572710209, 5.21019891234669 ], [ -0.750978912871701, 5.210166738285189 ] ] ] } },
{ "type": "Feature", "properties": { "seed_idx": 52, "delta_h": -15.700555555555555 }, "geometry": { "type": "Polygon", "coordinates": [ [ [ -0.74725079740087, 5.225527367142834 ], [ -0.747218462935568, 5.234566887884402 ], [ -0.756235602456139, 5.234599266305904 ], [ -0.756267807762538, 5.225559689351224 ], [ -0.74725079740087, 5.225527367142834 ] ] ] } },
{ "type": "Feature", "properties": { "seed_idx": 53, "delta_h": -15.700555555555555 }, "geometry": { "type": "Polygon", "coordinates": [ [ [ -0.747665793296848, 5.220407321069031 ], [ -0.747633496608363, 5.229446845873697 ], [ -0.756650565411852, 5.229479186750714 ], [ -0.756682733069475, 5.220439605743706 ], [ -0.747665793296848, 5.220407321069031 ] ] ] } },
{ "type": "Feature", "properties": { "seed_idx": 54, "delta_h": -15.700555555555555 }, "geometry": { "type": "Polygon", "coordinates": [ [ [ -0.67630727975265, 5.307621835745324 ], [ -0.676273401069229, 5.316660882510322 ], [ -0.685291277510559, 5.31669480432952 ], [ -0.685325025004967, 5.307655699574456 ], [ -0.67630727975265, 5.307621835745324 ] ] ] } },
{ "type": "Feature", "properties": { "seed_idx": 55, "delta_h": -15.700555555555555 }, "geometry": { "type": "Polygon", "coordinates": [ [ [ -0.681025255559299, 5.306455443336096 ], [ -0.680991453091494, 5.315494520814388 ], [ -0.69000934280689, 5.315528366257955 ], [ -0.690043014113148, 5.306489230907415 ], [ -0.681025255559299, 5.306455443336096 ] ] ] } },
{ "type": "Feature", "properties": { "seed_idx": 56, "delta_h": -15.700555555555555 }, "geometry": { "type": "Polygon", "coordinates": [ [ [ -0.68390327614396, 5.303829973814746 ], [ -0.683869532389598, 5.312869070556353 ], [ -0.692887402340486, 5.312902857289994 ], [ -0.692921014997999, 5.303863702748168 ], [ -0.68390327614396, 5.303829973814746 ] ] ] } },
{ "type": "Feature", "properties": { "seed_idx": 57, "delta_h": -15.700555555555555 }, "geometry": { "type": "Polygon", "coordinates": [ [ [ -0.668198847066025, 5.312840507226103 ], [ -0.668164816638901, 5.321879500123719 ], [ -0.677182716929124, 5.321913573789524 ], [ -0.677216616039535, 5.312874522699095 ], [ -0.668198847066025, 5.312840507226103 ] ] ] } },
{ "type": "Feature", "properties": { "seed_idx": 58, "delta_h": -15.700555555555555 }, "geometry": { "type": "Polygon", "coordinates": [ [ [ -0.668153080640296, 5.314181059097328 ], [ -0.668119040917039, 5.323220051307402 ], [ -0.677136960439582, 5.323254134199837 ], [ -0.677170868812563, 5.314215083795692 ], [ -0.668153080640296, 5.314181059097328 ] ] ] } },
{ "type": "Feature", "properties": { "seed_idx": 59, "delta_h": -15.700555555555555 }, "geometry": { "type": "Polygon", "coordinates": [ [ [ -0.669461721658946, 5.31074684600271 ], [ -0.669427723120688, 5.319785847676151 ], [ -0.678445601053501, 5.319819889505562 ], [ -0.678479468327019, 5.310780829670994 ], [ -0.669461721658946, 5.31074684600271 ] ] ] } },
{ "type": "Feature", "properties": { "seed_idx": 60, "delta_h": -15.700555555555555 }, "geometry": { "type": "Polygon", "coordinates": [ [ [ -0.65862656630178, 5.313007575335087 ], [ -0.658592395172811, 5.322046506155595 ], [ -0.667610236131327, 5.322080720963537 ], [ -0.667644275942977, 5.313041731711379 ], [ -0.65862656630178, 5.313007575335087 ] ] ] } },
{ "type": "Feature", "properties": { "seed_idx": 61, "delta_h": -15.700555555555555 }, "geometry": { "type": "Polygon", "coordinates": [ [ [ -0.659215668124036, 5.313117369148937 ], [ -0.659181504878597, 5.322156303762088 ], [ -0.668199351244758, 5.322190510652968 ], [ -0.668233383169906, 5.313151517622856 ], [ -0.659215668124036, 5.313117369148937 ] ] ] } },
{ "type": "Feature", "properties": { "seed_idx": 62, "delta_h": -15.700555555555555 }, "geometry": { "type": "Polygon", "coordinates": [ [ [ -0.661853338530358, 5.313384670127167 ], [ -0.661819212034993, 5.32242362177537 ], [ -0.67083707933509, 5.322457791778083 ], [ -0.670871074502482, 5.313418781778704 ], [ -0.661853338530358, 5.313384670127167 ] ] ] } },
{ "type": "Feature", "properties": { "seed_idx": 63, "delta_h": -15.700555555555555 }, "geometry": { "type": "Polygon", "coordinates": [ [ [ -0.655828520599205, 5.313912335861995 ], [ -0.655794302802257, 5.322951248238942 ], [ -0.66481213883743, 5.322985509797619 ], [ -0.664846225295445, 5.313946538919137 ], [ -0.655828520599205, 5.313912335861995 ] ] ] } },
{ "type": "Feature", "properties": { "seed_idx": 64, "delta_h": -15.700555555555555 }, "geometry": { "type": "Polygon", "coordinates": [ [ [ -0.662805345841421, 5.31337966722648 ], [ -0.662771233265811, 5.322418625048002 ], [ -0.671789106638706, 5.322452781086561 ], [ -0.671823087886112, 5.313413764937612 ], [ -0.662805345841421, 5.31337966722648 ] ] ] } },
{ "type": "Feature", "properties": { "seed_idx": 65, "delta_h": -15.700555555555555 }, "geometry": { "type": "Polygon", "coordinates": [ [ [ -0.657478952047506, 5.317057503143957 ], [ -0.657444737991771, 5.326096425327571 ], [ -0.666462630537883, 5.326130682898721 ], [ -0.666496713175284, 5.317091702254475 ], [ -0.657478952047506, 5.317057503143957 ] ] ] } },
{ "type": "Feature", "properties": { "seed_idx": 66, "delta_h": -15.700555555555555 }, "geometry": { "type": "Polygon", "coordinates": [ [ [ -0.65093074176586, 5.325102409937492 ], [ -0.650896379956559, 5.334141287168459 ], [ -0.659914347436469, 5.334175692365648 ], [ -0.659948577628378, 5.325136756509986 ], [ -0.65093074176586, 5.325102409937492 ] ] ] } },
{ "type": "Feature", "properties": { "seed_idx": 67, "delta_h": -15.700555555555555 }, "geometry": { "type": "Polygon", "coordinates": [ [ [ -0.654138410141973, 5.316078235937372 ], [ -0.654104153663265, 5.325117136690102 ], [ -0.663122010311613, 5.325151436893431 ], [ -0.66315613539777, 5.31611247759681 ], [ -0.654138410141973, 5.316078235937372 ] ] ] } },
{ "type": "Feature", "properties": { "seed_idx": 68, "delta_h": -15.700555555555555 }, "geometry": { "type": "Polygon", "coordinates": [ [ [ -0.653041722380219, 5.316245505445393 ], [ -0.653007448811817, 5.325284399012851 ], [ -0.662025300791699, 5.325318716348284 ], [ -0.662059442963772, 5.31627976420956 ], [ -0.653041722380219, 5.316245505445393 ] ] ] } },
{ "type": "Feature", "properties": { "seed_idx": 69, "delta_h": -15.700555555555555 }, "geometry": { "type": "Polygon", "coordinates": [ [ [ -0.65539527999857, 5.316089589733166 ], [ -0.65536104179031, 5.325128498657204 ], [ -0.664378906744148, 5.325162780530557 ], [ -0.664413013559101, 5.316123813093988 ], [ -0.65539527999857, 5.316089589733166 ] ] ] } },
{ "type": "Feature", "properties": { "seed_idx": 70, "delta_h": -15.700555555555555 }, "geometry": { "type": "Polygon", "coordinates": [ [ [ -0.652208774763252, 5.322719977118971 ], [ -0.652174447078577, 5.331758863370771 ], [ -0.661192388075095, 5.331793234512425 ], [ -0.661226584201576, 5.32275428966802 ], [ -0.652208774763252, 5.322719977118971 ] ] ] } },
{ "type": "Feature", "properties": { "seed_idx": 71, "delta_h": -15.700555555555555 }, "geometry": { "type": "Polygon", "coordinates": [ [ [ -0.64688549959324, 5.330521654953822 ], [ -0.646851043442424, 5.339560504221908 ], [ -0.655869063810648, 5.339595003655438 ], [ -0.655903388209845, 5.330556095661261 ], [ -0.64688549959324, 5.330521654953822 ] ] ] } },
{ "type": "Feature", "properties": { "seed_idx": 72, "delta_h": -15.700555555555555 }, "geometry": { "type": "Polygon", "coordinates": [ [ [ -0.650977712327594, 5.33107651763985 ], [ -0.650943312467239, 5.340115393427074 ], [ -0.659961367513916, 5.340149836349229 ], [ -0.659995635607206, 5.331110901937966 ], [ -0.650977712327594, 5.33107651763985 ] ] ] } },
{ "type": "Feature", "properties": { "seed_idx": 73, "delta_h": -15.700555555555555 }, "geometry": { "type": "Polygon", "coordinates": [ [ [ -0.649802915206093, 5.322738993079622 ], [ -0.649768552240712, 5.331777863653182 ], [ -0.658786477908146, 5.331812270187007 ], [ -0.658820709315763, 5.322773340960818 ], [ -0.649802915206093, 5.322738993079622 ] ] ] } },
{ "type": "Feature", "properties": { "seed_idx": 74, "delta_h": -15.700555555555555 }, "geometry": { "type": "Polygon", "coordinates": [ [ [ -0.650611695508016, 5.326786496940438 ], [ -0.65057731811262, 5.335825371599761 ], [ -0.659595308111632, 5.335859792306749 ], [ -0.659629553847569, 5.326820859014626 ], [ -0.650611695508016, 5.326786496940438 ] ] ] } },
{ "type": "Feature", "properties": { "seed_idx": 75, "delta_h": -15.700555555555555 }, "geometry": { "type": "Polygon", "coordinates": [ [ [ -0.647891102465154, 5.328391228704597 ], [ -0.647856674863506, 5.337430085157769 ], [ -0.656874670638572, 5.337464556110958 ], [ -0.656908966541589, 5.328425640956973 ], [ -0.647891102465154, 5.328391228704597 ] ] ] } },
{ "type": "Feature", "properties": { "seed_idx": 76, "delta_h": -15.700555555555555 }, "geometry": { "type": "Polygon", "coordinates": [ [ [ -0.64387197381767, 5.329891265909912 ], [ -0.643837477664868, 5.338930095684467 ], [ -0.652855469225959, 5.33896463529477 ], [ -0.652889833644072, 5.329925746718998 ], [ -0.64387197381767, 5.329891265909912 ] ] ] } }
]
}
