{
"type": "FeatureCollection",
"name": "predicted_seed_polygons",
"crs": { "type": "name", "properties": { "name": "urn:ogc:def:crs:OGC:1.3:CRS84" } },
"features": [
{ "type": "Feature", "properties": { "seed_idx": 0, "delta_h": -15.690861521388888, "mean_lon": -0.31389638930559161, "mean_lat": 5.5046834945678711, "dx_m": 1958.3462777440436, "dy_m": 1663.9994140929775, "n_particles": 20 }, "geometry": { "type": "Point", "coordinates": [ -0.313896389305593, 5.504683494567869 ] } },
{ "type": "Feature", "properties": { "seed_idx": 1, "delta_h": -15.690861521388888, "mean_lon": -0.31310273706912994, "mean_lat": 5.5040630102157593, "dx_m": 1907.6201595579041, "dy_m": 1335.6924311855109, "n_particles": 20 }, "geometry": { "type": "Point", "coordinates": [ -0.31310273706913, 5.504063010215759 ] } },
{ "type": "Feature", "properties": { "seed_idx": 2, "delta_h": -15.690861521388888, "mean_lon": -0.3140563890337944, "mean_lat": 5.5044779300689699, "dx_m": 1654.4208711646497, "dy_m": 1160.4044506766368, "n_particles": 20 }, "geometry": { "type": "Point", "coordinates": [ -0.314056389033794, 5.504477930068969 ] } },
{ "type": "Feature", "properties": { "seed_idx": 3, "delta_h": -15.690861521388888, "mean_lon": -0.30895602256059645, "mean_lat": 5.5007014036178585, "dx_m": 2196.3747061539907, "dy_m": 729.62159779528156, "n_particles": 20 }, "geometry": { "type": "Point", "coordinates": [ -0.308956022560597, 5.500701403617859 ] } },
{ "type": "Feature", "properties": { "seed_idx": 4, "delta_h": -15.690861521388888, "mean_lon": -0.3105592980980873, "mean_lat": 5.501634192466736, "dx_m": 1864.3671075062593, "dy_m": 762.12944839405827, "n_particles": 20 }, "geometry": { "type": "Point", "coordinates": [ -0.310559298098088, 5.501634192466735 ] } },
{ "type": "Feature", "properties": { "seed_idx": 5, "delta_h": -15.690861521388888, "mean_lon": -0.312758669257164, "mean_lat": 5.5046869277954098, "dx_m": 1474.7860846337862, "dy_m": 1009.3015022001928, "n_particles": 20 }, "geometry": { "type": "Point", "coordinates": [ -0.312758669257165, 5.50468692779541 ] } },
{ "type": "Feature", "properties": { "seed_idx": 6, "delta_h": -15.690861521388888, "mean_lon": -0.31364233791828156, "mean_lat": 5.5048537969589235, "dx_m": 1338.0786370649002, "dy_m": 1013.3078796669142, "n_particles": 20 }, "geometry": { "type": "Point", "coordinates": [ -0.313642337918281, 5.504853796958922 ] } },
{ "type": "Feature", "properties": { "seed_idx": 7, "delta_h": -15.690861521388888, "mean_lon": -0.31327266246080399, "mean_lat": 5.5047099351882931, "dx_m": 1234.499072271632, "dy_m": 1011.4996103727026, "n_particles": 20 }, "geometry": { "type": "Point", "coordinates": [ -0.313272662460804, 5.504709935188292 ] } },
{ "type": "Feature", "properties": { "seed_idx": 8, "delta_h": -15.690861521388888, "mean_lon": -0.31349024474620818, "mean_lat": 5.5045786142349247, "dx_m": 1209.557524336502, "dy_m": 1030.3757511867443, "n_particles": 20 }, "geometry": { "type": "Point", "coordinates": [ -0.313490244746209, 5.504578614234923 ] } },
{ "type": "Feature", "properties": { "seed_idx": 9, "delta_h": -15.690861521388888, "mean_lon": -0.31258917301893235, "mean_lat": 5.5048158407211307, "dx_m": 1155.6953005718533, "dy_m": 1127.8031152407639, "n_particles": 20 }, "geometry": { "type": "Point", "coordinates": [ -0.312589173018932, 5.504815840721131 ] } },
{ "type": "Feature", "properties": { "seed_idx": 10, "delta_h": -15.690861521388888, "mean_lon": -0.31267265528440474, "mean_lat": 5.5048390388488766, "dx_m": 1070.5323547094595, "dy_m": 1119.7867476163665, "n_particles": 20 }, "geometry": { "type": "Point", "coordinates": [ -0.312672655284405, 5.504839038848877 ] } },
{ "type": "Feature", "properties": { "seed_idx": 11, "delta_h": -15.690861521388888, "mean_lon": -0.31522535532712936, "mean_lat": 5.5080501317977903, "dx_m": 651.31123669329099, "dy_m": 1519.8882178879576, "n_particles": 20 }, "geometry": { "type": "Point", "coordinates": [ -0.31522535532713, 5.50805013179779 ] } },
{ "type": "Feature", "properties": { "seed_idx": 12, "delta_h": -15.690861521388888, "mean_lon": -0.31554341763257981, "mean_lat": 5.5085416316986082, "dx_m": 409.32285421027336, "dy_m": 1535.3005253942683, "n_particles": 20 }, "geometry": { "type": "Point", "coordinates": [ -0.315543417632581, 5.508541631698608 ] } },
{ "type": "Feature", "properties": { "seed_idx": 13, "delta_h": -15.690861521388888, "mean_lon": -0.31673486977815629, "mean_lat": 5.5099436759948732, "dx_m": 255.35816129774321, "dy_m": 1684.6606430319371, "n_particles": 20 }, "geometry": { "type": "Point", "coordinates": [ -0.316734869778155, 5.509943675994873 ] } },
{ "type": "Feature", "properties": { "seed_idx": 14, "delta_h": -15.690861521388888, "mean_lon": -0.31654818654060363, "mean_lat": 5.5096217632293705, "dx_m": 249.94803928665351, "dy_m": 1645.3695026381174, "n_particles": 20 }, "geometry": { "type": "Point", "coordinates": [ -0.316548186540604, 5.509621763229371 ] } },
{ "type": "Feature", "properties": { "seed_idx": 15, "delta_h": -15.690861521388888, "mean_lon": -0.315971677005291, "mean_lat": 5.5099987983703613, "dx_m": 283.76779293641448, "dy_m": 1682.8735541725764, "n_particles": 20 }, "geometry": { "type": "Point", "coordinates": [ -0.315971677005291, 5.50999879837036 ] } },
{ "type": "Feature", "properties": { "seed_idx": 16, "delta_h": -15.690861521388888, "mean_lon": -0.31615078449249268, "mean_lat": 5.5098885059356686, "dx_m": 204.17144858825486, "dy_m": 1651.3644116366049, "n_particles": 20 }, "geometry": { "type": "Point", "coordinates": [ -0.316150784492493, 5.509888505935669 ] } },
{ "type": "Feature", "properties": { "seed_idx": 17, "delta_h": -15.690861521388888, "mean_lon": -0.31680411100387573, "mean_lat": 5.5097569465637211, "dx_m": 347.77411942032631, "dy_m": 1346.6915792529471, "n_particles": 20 }, "geometry": { "type": "Point", "coordinates": [ -0.316804111003877, 5.509756946563721 ] } },
{ "type": "Feature", "properties": { "seed_idx": 18, "delta_h": -15.690861521388888, "mean_lon": -0.31545707732439043, "mean_lat": 5.5082722902297974, "dx_m": 289.84179149661213, "dy_m": 1126.391377240885, "n_particles": 20 }, "geometry": { "type": "Point", "coordinates": [ -0.315457077324391, 5.508272290229798 ] } },
{ "type": "Feature", "properties": { "seed_idx": 19, "delta_h": -15.690861521388888, "mean_lon": -0.31422802209854128, "mean_lat": 5.5071145057678219, "dx_m": 333.20498997450341, "dy_m": 1005.7514939096291, "n_particles": 20 }, "geometry": { "type": "Point", "coordinates": [ -0.314228022098541, 5.507114505767822 ] } },
{ "type": "Feature", "properties": { "seed_idx": 20, "delta_h": -15.690861521388888, "mean_lon": -0.31471496522426606, "mean_lat": 5.5075340032577511, "dx_m": 253.4295666073449, "dy_m": 973.84276791859884, "n_particles": 20 }, "geometry": { "type": "Point", "coordinates": [ -0.314714965224266, 5.507534003257752 ] } },
{ "type": "Feature", "properties": { "seed_idx": 21, "delta_h": -15.690861521388888, "mean_lon": -0.31413738429546356, "mean_lat": 5.5070486783981325, "dx_m": 171.37354533665348, "dy_m": 906.28629171533976, "n_particles": 20 }, "geometry": { "type": "Point", "coordinates": [ -0.314137384295464, 5.507048678398133 ] } },
{ "type": "Feature", "properties": { "seed_idx": 22, "delta_h": -15.690861521388888, "mean_lon": -0.31231099069118501, "mean_lat": 5.5050248146057132, "dx_m": 289.52239198144525, "dy_m": 589.94138955511153, "n_particles": 20 }, "geometry": { "type": "Point", "coordinates": [ -0.312310990691185, 5.505024814605711 ] } },
{ "type": "Feature", "properties": { "seed_idx": 23, "delta_h": -15.690861521388888, "mean_lon": -0.31287840902805331, "mean_lat": 5.505984592437744, "dx_m": 100.21007920324337, "dy_m": 685.82815744518302, "n_particles": 20 }, "geometry": { "type": "Point", "coordinates": [ -0.312878409028053, 5.505984592437743 ] } },
{ "type": "Feature", "properties": { "seed_idx": 24, "delta_h": -15.690861521388888, "mean_lon": -0.31276623308658602, "mean_lat": 5.5059862375259403, "dx_m": 101.64426759304479, "dy_m": 697.31186589749996, "n_particles": 20 }, "geometry": { "type": "Point", "coordinates": [ -0.312766233086586, 5.505986237525939 ] } },
{ "type": "Feature", "properties": { "seed_idx": 25, "delta_h": -15.690861521388888, "mean_lon": -0.31526067554950715, "mean_lat": 5.5079250335693359, "dx_m": -265.57634705759119, "dy_m": 875.59717420639936, "n_particles": 20 }, "geometry": { "type": "Point", "coordinates": [ -0.315260675549507, 5.507925033569335 ] } },
{ "type": "Feature", "properties": { "seed_idx": 26, "delta_h": -15.690861521388888, "mean_lon": -0.31620598733425143, "mean_lat": 5.5091622829437252, "dx_m": -384.54633162298705, "dy_m": 1017.4442614690633, "n_particles": 20 }, "geometry": { "type": "Point", "coordinates": [ -0.316205987334252, 5.509162282943725 ] } },
{ "type": "Feature", "properties": { "seed_idx": 27, "delta_h": -15.690861521388888, "mean_lon": -0.31470891833305359, "mean_lat": 5.5078373193740848, "dx_m": -231.42886972869746, "dy_m": 879.52557143953163, "n_particles": 20 }, "geometry": { "type": "Point", "coordinates": [ -0.314708918333054, 5.507837319374084 ] } },
{ "type": "Feature", "properties": { "seed_idx": 28, "delta_h": -15.690861521388888, "mean_lon": -0.31324628591537473, "mean_lat": 5.5063452482223507, "dx_m": -414.36989707057364, "dy_m": 497.52011116652284, "n_particles": 20 }, "geometry": { "type": "Point", "coordinates": [ -0.313246285915375, 5.50634524822235 ] } },
{ "type": "Feature", "properties": { "seed_idx": 29, "delta_h": -15.690861521388888, "mean_lon": -0.31247753202915191, "mean_lat": 5.5053561687469479, "dx_m": -421.90748995775357, "dy_m": 345.76581508596428, "n_particles": 20 }, "geometry": { "type": "Point", "coordinates": [ -0.312477532029153, 5.505356168746948 ] } },
{ "type": "Feature", "properties": { "seed_idx": 30, "delta_h": -15.690861521388888, "mean_lon": -0.31331230998039244, "mean_lat": 5.5050386905670168, "dx_m": -729.12229398649652, "dy_m": 338.39706660318188, "n_particles": 20 }, "geometry": { "type": "Point", "coordinates": [ -0.313312309980392, 5.505038690567016 ] } },
{ "type": "Feature", "properties": { "seed_idx": 31, "delta_h": -15.690861521388888, "mean_lon": -0.31271319836378098, "mean_lat": 5.5046347856521605, "dx_m": -792.23910121549852, "dy_m": 243.86134613188915, "n_particles": 20 }, "geometry": { "type": "Point", "coordinates": [ -0.31271319836378, 5.50463478565216 ] } },
{ "type": "Feature", "properties": { "seed_idx": 32, "delta_h": -15.690861521388888, "mean_lon": -0.31288830637931825, "mean_lat": 5.5045397043228146, "dx_m": -830.72528935421724, "dy_m": 262.31482393306214, "n_particles": 20 }, "geometry": { "type": "Point", "coordinates": [ -0.312888306379319, 5.504539704322815 ] } },
{ "type": "Feature", "properties": { "seed_idx": 33, "delta_h": -15.690861521388888, "mean_lon": -0.31347069144248962, "mean_lat": 5.5041794538497921, "dx_m": -915.66812885529362, "dy_m": 243.92761473008431, "n_particles": 20 }, "geometry": { "type": "Point", "coordinates": [ -0.31347069144249, 5.504179453849791 ] } },
{ "type": "Feature", "properties": { "seed_idx": 34, "delta_h": -15.690861521388888, "mean_lon": -0.31463740766048431, "mean_lat": 5.5051530838012699, "dx_m": -1071.8580767710228, "dy_m": 361.17096385394689, "n_particles": 20 }, "geometry": { "type": "Point", "coordinates": [ -0.314637407660484, 5.505153083801269 ] } },
{ "type": "Feature", "properties": { "seed_idx": 35, "delta_h": -15.690861521388888, "mean_lon": -0.31376629769802095, "mean_lat": 5.5049059152603146, "dx_m": -972.74947538040578, "dy_m": 289.63040247035678, "n_particles": 20 }, "geometry": { "type": "Point", "coordinates": [ -0.313766297698021, 5.504905915260315 ] } },
{ "type": "Feature", "properties": { "seed_idx": 36, "delta_h": -15.690861521388888, "mean_lon": -0.31338412165641782, "mean_lat": 5.504744601249695, "dx_m": -945.53903781494591, "dy_m": 252.7722671009833, "n_particles": 20 }, "geometry": { "type": "Point", "coordinates": [ -0.313384121656417, 5.504744601249695 ] } },
{ "type": "Feature", "properties": { "seed_idx": 37, "delta_h": -15.690861521388888, "mean_lon": -0.31291078329086303, "mean_lat": 5.5048002958297726, "dx_m": -879.8315970657859, "dy_m": 235.91240394895431, "n_particles": 20 }, "geometry": { "type": "Point", "coordinates": [ -0.312910783290863, 5.504800295829772 ] } },
{ "type": "Feature", "properties": { "seed_idx": 38, "delta_h": -15.690861521388888, "mean_lon": -0.31236227452754972, "mean_lat": 5.5050262928009035, "dx_m": -822.65824650228024, "dy_m": 397.45049423887394, "n_particles": 20 }, "geometry": { "type": "Point", "coordinates": [ -0.31236227452755, 5.505026292800903 ] } },
{ "type": "Feature", "properties": { "seed_idx": 39, "delta_h": -15.690861521388888, "mean_lon": -0.31260692030191423, "mean_lat": 5.505389618873596, "dx_m": -873.47139167331625, "dy_m": 468.03448977204971, "n_particles": 20 }, "geometry": { "type": "Point", "coordinates": [ -0.312606920301914, 5.505389618873596 ] } },
{ "type": "Feature", "properties": { "seed_idx": 40, "delta_h": -15.690861521388888, "mean_lon": -0.31354193389415741, "mean_lat": 5.5066828250885012, "dx_m": -1136.8432800960727, "dy_m": 741.8555439140182, "n_particles": 20 }, "geometry": { "type": "Point", "coordinates": [ -0.313541933894158, 5.5066828250885 ] } },
{ "type": "Feature", "properties": { "seed_idx": 41, "delta_h": -15.690861521388888, "mean_lon": -0.31477309018373489, "mean_lat": 5.5080591917037962, "dx_m": -1316.4960975610884, "dy_m": 915.2202568014618, "n_particles": 20 }, "geometry": { "type": "Point", "coordinates": [ -0.314773090183734, 5.508059191703795 ] } },
{ "type": "Feature", "properties": { "seed_idx": 42, "delta_h": -15.690861521388888, "mean_lon": -0.3155806615948677, "mean_lat": 5.5088109254837034, "dx_m": -1877.0951192710781, "dy_m": 444.95992964704055, "n_particles": 20 }, "geometry": { "type": "Point", "coordinates": [ -0.315580661594868, 5.508810925483703 ] } },
{ "type": "Feature", "properties": { "seed_idx": 43, "delta_h": -15.690861521388888, "mean_lon": -0.31513025164604186, "mean_lat": 5.5091792821884153, "dx_m": -1793.0078338494059, "dy_m": 645.69375495414715, "n_particles": 20 }, "geometry": { "type": "Point", "coordinates": [ -0.315130251646042, 5.509179282188414 ] } },
{ "type": "Feature", "properties": { "seed_idx": 44, "delta_h": -15.690861521388888, "mean_lon": -0.3156358987092972, "mean_lat": 5.5093242645263674, "dx_m": -1905.591330890893, "dy_m": 709.32572948758025, "n_particles": 20 }, "geometry": { "type": "Point", "coordinates": [ -0.315635898709298, 5.509324264526366 ] } },
{ "type": "Feature", "properties": { "seed_idx": 45, "delta_h": -15.690861521388888, "mean_lon": -0.31625314950942995, "mean_lat": 5.5096085071563721, "dx_m": -1882.6396696696756, "dy_m": 844.36533193464857, "n_particles": 20 }, "geometry": { "type": "Point", "coordinates": [ -0.316253149509429, 5.509608507156372 ] } },
{ "type": "Feature", "properties": { "seed_idx": 46, "delta_h": -15.690861521388888, "mean_lon": -0.31622299849987029, "mean_lat": 5.5094614744186403, "dx_m": -1861.9422722081654, "dy_m": 882.1136189440731, "n_particles": 20 }, "geometry": { "type": "Point", "coordinates": [ -0.31622299849987, 5.509461474418639 ] } },
{ "type": "Feature", "properties": { "seed_idx": 47, "delta_h": -15.690861521388888, "mean_lon": -0.31607340723276139, "mean_lat": 5.5099038839340206, "dx_m": -1797.333904205123, "dy_m": 1082.2098696547328, "n_particles": 20 }, "geometry": { "type": "Point", "coordinates": [ -0.316073407232761, 5.509903883934021 ] } },
{ "type": "Feature", "properties": { "seed_idx": 48, "delta_h": -15.690861521388888, "mean_lon": -0.31587920039892198, "mean_lat": 5.5099653244018558, "dx_m": -1829.3750934142154, "dy_m": 1142.060794801102, "n_particles": 20 }, "geometry": { "type": "Point", "coordinates": [ -0.315879200398923, 5.509965324401856 ] } },
{ "type": "Feature", "properties": { "seed_idx": 49, "delta_h": -15.690861521388888, "mean_lon": -0.31618633270263674, "mean_lat": 5.5100001096725464, "dx_m": -2001.4085860498017, "dy_m": 1295.97956102842, "n_particles": 20 }, "geometry": { "type": "Point", "coordinates": [ -0.316186332702637, 5.510000109672546 ] } },
{ "type": "Feature", "properties": { "seed_idx": 50, "delta_h": -15.690861521388888, "mean_lon": -0.31580022722482681, "mean_lat": 5.5099248409271242, "dx_m": -1944.0989052732475, "dy_m": 1319.9723884611158, "n_particles": 20 }, "geometry": { "type": "Point", "coordinates": [ -0.315800227224827, 5.509924840927123 ] } },
{ "type": "Feature", "properties": { "seed_idx": 51, "delta_h": -15.690861521388888, "mean_lon": -0.31549368500709535, "mean_lat": 5.5100738286972044, "dx_m": -1891.3156639732188, "dy_m": 1362.931907759863, "n_particles": 20 }, "geometry": { "type": "Point", "coordinates": [ -0.315493685007096, 5.510073828697203 ] } },
{ "type": "Feature", "properties": { "seed_idx": 52, "delta_h": -15.690861521388888, "mean_lon": -0.31438902616500852, "mean_lat": 5.5098241567611694, "dx_m": -1881.7528061573394, "dy_m": 1467.9719662929419, "n_particles": 20 }, "geometry": { "type": "Point", "coordinates": [ -0.314389026165009, 5.509824156761169 ] } },
{ "type": "Feature", "properties": { "seed_idx": 53, "delta_h": -15.690861521388888, "mean_lon": -0.31341276764869691, "mean_lat": 5.5093489408493044, "dx_m": -1803.952211309108, "dy_m": 1420.1056030741893, "n_particles": 20 }, "geometry": { "type": "Point", "coordinates": [ -0.313412767648697, 5.509348940849303 ] } },
{ "type": "Feature", "properties": { "seed_idx": 54, "delta_h": -15.690861521388888, "mean_lon": -0.31336387395858767, "mean_lat": 5.5095018148422241, "dx_m": -1821.9800477206009, "dy_m": 1438.398899251828, "n_particles": 20 }, "geometry": { "type": "Point", "coordinates": [ -0.313363873958588, 5.509501814842224 ] } },
{ "type": "Feature", "properties": { "seed_idx": 55, "delta_h": -15.690861521388888, "mean_lon": -0.31506532728672026, "mean_lat": 5.509909224510193, "dx_m": -1797.5820240629837, "dy_m": 1473.395150852506, "n_particles": 20 }, "geometry": { "type": "Point", "coordinates": [ -0.31506532728672, 5.509909224510193 ] } },
{ "type": "Feature", "properties": { "seed_idx": 56, "delta_h": -15.690861521388888, "mean_lon": -0.3158507004380226, "mean_lat": 5.5100876092910767, "dx_m": -2300.789362303447, "dy_m": 1450.0529943871079, "n_particles": 20 }, "geometry": { "type": "Point", "coordinates": [ -0.315850700438023, 5.510087609291076 ] } },
{ "type": "Feature", "properties": { "seed_idx": 57, "delta_h": -15.690861521388888, "mean_lon": -0.3157049432396889, "mean_lat": 5.5093018293380736, "dx_m": -2322.1273163144942, "dy_m": 1345.5101426558103, "n_particles": 20 }, "geometry": { "type": "Point", "coordinates": [ -0.315704943239689, 5.509301829338074 ] } },
{ "type": "Feature", "properties": { "seed_idx": 58, "delta_h": -15.690861521388888, "mean_lon": -0.31586557626724243, "mean_lat": 5.5089092254638672, "dx_m": -2387.831584429834, "dy_m": 1278.4473061761819, "n_particles": 20 }, "geometry": { "type": "Point", "coordinates": [ -0.315865576267242, 5.508909225463866 ] } },
{ "type": "Feature", "properties": { "seed_idx": 59, "delta_h": -15.690861521388888, "mean_lon": -0.31563276052474976, "mean_lat": 5.5085314035415651, "dx_m": -2418.6584526351653, "dy_m": 1208.8045847370522, "n_particles": 20 }, "geometry": { "type": "Point", "coordinates": [ -0.31563276052475, 5.508531403541564 ] } },
{ "type": "Feature", "properties": { "seed_idx": 60, "delta_h": -15.690861521388888, "mean_lon": -0.31466035544872284, "mean_lat": 5.5075516462326046, "dx_m": -2377.3132085722173, "dy_m": 1053.927667867858, "n_particles": 20 }, "geometry": { "type": "Point", "coordinates": [ -0.314660355448723, 5.507551646232606 ] } },
{ "type": "Feature", "properties": { "seed_idx": 61, "delta_h": -15.690861521388888, "mean_lon": -0.31355561614036559, "mean_lat": 5.5042623996734621, "dx_m": -2280.8242166033015, "dy_m": 668.50258000940084, "n_particles": 20 }, "geometry": { "type": "Point", "coordinates": [ -0.313555616140366, 5.504262399673462 ] } },
{ "type": "Feature", "properties": { "seed_idx": 62, "delta_h": -15.690861521388888, "mean_lon": -0.31286345422267914, "mean_lat": 5.5048033237457279, "dx_m": -2242.2409217490349, "dy_m": 712.50322576158214, "n_particles": 20 }, "geometry": { "type": "Point", "coordinates": [ -0.31286345422268, 5.504803323745728 ] } },
{ "type": "Feature", "properties": { "seed_idx": 63, "delta_h": -15.690861521388888, "mean_lon": -0.31280674040317535, "mean_lat": 5.5047416448593136, "dx_m": -2265.1363069639774, "dy_m": 707.03120852645952, "n_particles": 20 }, "geometry": { "type": "Point", "coordinates": [ -0.312806740403176, 5.504741644859313 ] } },
{ "type": "Feature", "properties": { "seed_idx": 64, "delta_h": -15.690861521388888, "mean_lon": -0.31330254077911379, "mean_lat": 5.5048272132873537, "dx_m": -2340.8264270699583, "dy_m": 765.71276793780271, "n_particles": 20 }, "geometry": { "type": "Point", "coordinates": [ -0.313302540779114, 5.504827213287353 ] } },
{ "type": "Feature", "properties": { "seed_idx": 65, "delta_h": -15.690861521388888, "mean_lon": -0.31229567229747773, "mean_lat": 5.5050573110580441, "dx_m": -2251.4773954749107, "dy_m": 852.79107941791881, "n_particles": 20 }, "geometry": { "type": "Point", "coordinates": [ -0.312295672297477, 5.505057311058044 ] } },
{ "type": "Feature", "properties": { "seed_idx": 66, "delta_h": -15.690861521388888, "mean_lon": -0.31227533519268036, "mean_lat": 5.5054435729980469, "dx_m": -2270.038948534755, "dy_m": 934.80321633419953, "n_particles": 20 }, "geometry": { "type": "Point", "coordinates": [ -0.312275335192681, 5.505443572998047 ] } },
{ "type": "Feature", "properties": { "seed_idx": 67, "delta_h": -15.690861521388888, "mean_lon": -0.31394800245761872, "mean_lat": 5.5071138381958011, "dx_m": -2503.2110910452902, "dy_m": 1147.7372302915901, "n_particles": 20 }, "geometry": { "type": "Point", "coordinates": [ -0.313948002457619, 5.5071138381958 ] } },
{ "type": "Feature", "properties": { "seed_idx": 68, "delta_h": -15.690861521388888, "mean_lon": -0.31656320542097094, "mean_lat": 5.5093450307846066, "dx_m": -2855.7520646782359, "dy_m": 1416.3773378566839, "n_particles": 20 }, "geometry": { "type": "Point", "coordinates": [ -0.316563205420971, 5.509345030784607 ] } },
{ "type": "Feature", "properties": { "seed_idx": 69, "delta_h": -15.690861521388888, "mean_lon": -0.31729609817266463, "mean_lat": 5.5097059011459351, "dx_m": -2962.269700827077, "dy_m": 1509.7581626569154, "n_particles": 20 }, "geometry": { "type": "Point", "coordinates": [ -0.317296098172664, 5.509705901145935 ] } },
{ "type": "Feature", "properties": { "seed_idx": 70, "delta_h": -15.690861521388888, "mean_lon": -0.31496678292751312, "mean_lat": 5.5098711252212524, "dx_m": -2727.6056268479442, "dy_m": 1566.9917912103701, "n_particles": 20 }, "geometry": { "type": "Point", "coordinates": [ -0.314966782927513, 5.509871125221253 ] } },
{ "type": "Feature", "properties": { "seed_idx": 71, "delta_h": -15.690861521388888, "mean_lon": -0.31202321350574491, "mean_lat": 5.5088606357574461, "dx_m": -2428.5321331666782, "dy_m": 1474.0044297710992, "n_particles": 20 }, "geometry": { "type": "Point", "coordinates": [ -0.312023213505745, 5.508860635757446 ] } },
{ "type": "Feature", "properties": { "seed_idx": 72, "delta_h": -15.690861521388888, "mean_lon": -0.3076841324567795, "mean_lat": 5.5078043699264523, "dx_m": -1971.7711247846019, "dy_m": 1376.6639906066703, "n_particles": 20 }, "geometry": { "type": "Point", "coordinates": [ -0.30768413245678, 5.507804369926451 ] } },
{ "type": "Feature", "properties": { "seed_idx": 73, "delta_h": -15.690861521388888, "mean_lon": -0.30753212869167329, "mean_lat": 5.5078711986541746, "dx_m": -2055.83769479685, "dy_m": 1409.9123737957561, "n_particles": 20 }, "geometry": { "type": "Point", "coordinates": [ -0.307532128691674, 5.507871198654175 ] } },
{ "type": "Feature", "properties": { "seed_idx": 74, "delta_h": -15.690861521388888, "mean_lon": -0.30793190002441406, "mean_lat": 5.5097950458526608, "dx_m": -1895.0426639661891, "dy_m": 1587.1046294936677, "n_particles": 20 }, "geometry": { "type": "Point", "coordinates": [ -0.307931900024414, 5.50979504585266 ] } },
{ "type": "Feature", "properties": { "seed_idx": 75, "delta_h": -15.690861521388888, "mean_lon": -0.31228522360324862, "mean_lat": 5.5049818515777584, "dx_m": -2334.5222083842382, "dy_m": 1064.1410023557255, "n_particles": 20 }, "geometry": { "type": "Point", "coordinates": [ -0.31228522360325, 5.504981851577758 ] } },
{ "type": "Feature", "properties": { "seed_idx": 76, "delta_h": -15.690861521388888, "mean_lon": -0.31224844902753829, "mean_lat": 5.5049975156784061, "dx_m": -2301.3560462641763, "dy_m": 1090.801445043413, "n_particles": 20 }, "geometry": { "type": "Point", "coordinates": [ -0.31224844902754, 5.504997515678405 ] } },
{ "type": "Feature", "properties": { "seed_idx": 77, "delta_h": -15.690861521388888, "mean_lon": -0.31192092299461366, "mean_lat": 5.5054084062576294, "dx_m": -2225.9237243863754, "dy_m": 1161.38937063911, "n_particles": 20 }, "geometry": { "type": "Point", "coordinates": [ -0.311920922994613, 5.505408406257629 ] } },
{ "type": "Feature", "properties": { "seed_idx": 78, "delta_h": -15.690861521388888, "mean_lon": -0.31250986605882647, "mean_lat": 5.5059454441070557, "dx_m": -2259.4268109400291, "dy_m": 1233.7865370643558, "n_particles": 20 }, "geometry": { "type": "Point", "coordinates": [ -0.312509866058826, 5.505945444107057 ] } },
{ "type": "Feature", "properties": { "seed_idx": 79, "delta_h": -15.690861521388888, "mean_lon": -0.31776988655328753, "mean_lat": 5.5096238136291502, "dx_m": -2816.8602767689154, "dy_m": 1658.7405065583298, "n_particles": 20 }, "geometry": { "type": "Point", "coordinates": [ -0.317769886553289, 5.509623813629149 ] } },
{ "type": "Feature", "properties": { "seed_idx": 80, "delta_h": -15.690861521388888, "mean_lon": -0.31812218725681307, "mean_lat": 5.5097966194152832, "dx_m": -2816.5993043816416, "dy_m": 1682.2383337800857, "n_particles": 20 }, "geometry": { "type": "Point", "coordinates": [ -0.318122187256814, 5.509796619415283 ] } },
{ "type": "Feature", "properties": { "seed_idx": 81, "delta_h": -15.690861521388888, "mean_lon": -0.31645808815956117, "mean_lat": 5.5088020324707028, "dx_m": -2595.090717778774, "dy_m": 1577.5449050328461, "n_particles": 20 }, "geometry": { "type": "Point", "coordinates": [ -0.316458088159562, 5.508802032470702 ] } },
{ "type": "Feature", "properties": { "seed_idx": 82, "delta_h": -15.690861521388888, "mean_lon": -0.31492272764444351, "mean_lat": 5.5077555894851686, "dx_m": -2376.1407317122212, "dy_m": 1465.6444641512353, "n_particles": 20 }, "geometry": { "type": "Point", "coordinates": [ -0.314922727644444, 5.507755589485168 ] } },
{ "type": "Feature", "properties": { "seed_idx": 83, "delta_h": -15.690861521388888, "mean_lon": -0.31285603642463683, "mean_lat": 5.5063984394073486, "dx_m": -2086.4020820209989, "dy_m": 1312.3921938887797, "n_particles": 20 }, "geometry": { "type": "Point", "coordinates": [ -0.312856036424637, 5.506398439407347 ] } },
{ "type": "Feature", "properties": { "seed_idx": 84, "delta_h": -15.690861521388888, "mean_lon": -0.31529909521341326, "mean_lat": 5.5079215288162233, "dx_m": -2366.7036212247331, "dy_m": 1453.4448382594856, "n_particles": 20 }, "geometry": { "type": "Point", "coordinates": [ -0.315299095213414, 5.507921528816222 ] } },
{ "type": "Feature", "properties": { "seed_idx": 85, "delta_h": -15.690861521388888, "mean_lon": -0.31606884300708771, "mean_lat": 5.5084137439727785, "dx_m": -2487.2862040860346, "dy_m": 1492.7964393323055, "n_particles": 20 }, "geometry": { "type": "Point", "coordinates": [ -0.316068843007088, 5.508413743972778 ] } },
{ "type": "Feature", "properties": { "seed_idx": 86, "delta_h": -15.690861521388888, "mean_lon": -0.31227616518735885, "mean_lat": 5.505032706260681, "dx_m": -2108.7636672544759, "dy_m": 1098.4829194602789, "n_particles": 20 }, "geometry": { "type": "Point", "coordinates": [ -0.312276165187359, 5.505032706260681 ] } },
{ "type": "Feature", "properties": { "seed_idx": 87, "delta_h": -15.690861521388888, "mean_lon": -0.31294429898262022, "mean_lat": 5.5047162055969237, "dx_m": -2261.5221500099869, "dy_m": 1055.4809596019331, "n_particles": 20 }, "geometry": { "type": "Point", "coordinates": [ -0.31294429898262, 5.504716205596924 ] } },
{ "type": "Feature", "properties": { "seed_idx": 88, "delta_h": -15.690861521388888, "mean_lon": -0.31673157811164854, "mean_lat": 5.5056823968887327, "dx_m": -2724.1576876533218, "dy_m": 1126.797738463385, "n_particles": 20 }, "geometry": { "type": "Point", "coordinates": [ -0.316731578111648, 5.505682396888732 ] } },
{ "type": "Feature", "properties": { "seed_idx": 89, "delta_h": -15.690861521388888, "mean_lon": -0.32410859912633894, "mean_lat": 5.5063423633575441, "dx_m": -3603.703827392892, "dy_m": 1169.6445103328442, "n_particles": 20 }, "geometry": { "type": "Point", "coordinates": [ -0.324108599126339, 5.506342363357543 ] } },
{ "type": "Feature", "properties": { "seed_idx": 90, "delta_h": -15.690861521388888, "mean_lon": -0.3248053714632988, "mean_lat": 5.5065921783447269, "dx_m": -3623.9410831031855, "dy_m": 1154.9349402366206, "n_particles": 20 }, "geometry": { "type": "Point", "coordinates": [ -0.3248053714633, 5.506592178344726 ] } },
{ "type": "Feature", "properties": { "seed_idx": 91, "delta_h": -15.690861521388888, "mean_lon": -0.32511880248785019, "mean_lat": 5.5071312427520756, "dx_m": -3584.5609515679535, "dy_m": 1232.2581886870321, "n_particles": 20 }, "geometry": { "type": "Point", "coordinates": [ -0.325118802487852, 5.507131242752075 ] } },
{ "type": "Feature", "properties": { "seed_idx": 92, "delta_h": -15.690861521388888, "mean_lon": -0.3219312235713005, "mean_lat": 5.5044896602630615, "dx_m": -3143.6649167143041, "dy_m": 949.2044971473515, "n_particles": 20 }, "geometry": { "type": "Point", "coordinates": [ -0.321931223571301, 5.50448966026306 ] } },
{ "type": "Feature", "properties": { "seed_idx": 93, "delta_h": -15.690861521388888, "mean_lon": -0.32310460209846498, "mean_lat": 5.5051242828369142, "dx_m": -3274.0898305281298, "dy_m": 1018.8479061196558, "n_particles": 20 }, "geometry": { "type": "Point", "coordinates": [ -0.323104602098465, 5.505124282836914 ] } },
{ "type": "Feature", "properties": { "seed_idx": 94, "delta_h": -15.690861521388888, "mean_lon": -0.32136968523263931, "mean_lat": 5.5030647039413454, "dx_m": -2978.494948016014, "dy_m": 799.54849641479086, "n_particles": 20 }, "geometry": { "type": "Point", "coordinates": [ -0.321369685232639, 5.503064703941344 ] } },
{ "type": "Feature", "properties": { "seed_idx": 95, "delta_h": -15.690861521388888, "mean_lon": -0.31730405241250992, "mean_lat": 5.4997293233871458, "dx_m": -2607.5963411470875, "dy_m": 386.92869310150854, "n_particles": 20 }, "geometry": { "type": "Point", "coordinates": [ -0.31730405241251, 5.499729323387147 ] } },
{ "type": "Feature", "properties": { "seed_idx": 96, "delta_h": -15.690861521388888, "mean_lon": -0.33273899704217913, "mean_lat": 5.5060664176940914, "dx_m": -4344.1079738010885, "dy_m": 1071.6757898463402, "n_particles": 20 }, "geometry": { "type": "Point", "coordinates": [ -0.33273899704218, 5.50606641769409 ] } },
{ "type": "Feature", "properties": { "seed_idx": 97, "delta_h": -15.690861521388888, "mean_lon": -0.33273175656795501, "mean_lat": 5.506198215484619, "dx_m": -4343.3703183156904, "dy_m": 1086.26395547844, "n_particles": 20 }, "geometry": { "type": "Point", "coordinates": [ -0.332731756567955, 5.506198215484619 ] } },
{ "type": "Feature", "properties": { "seed_idx": 98, "delta_h": -15.690861521388888, "mean_lon": -0.33276593685150146, "mean_lat": 5.5062338829040529, "dx_m": -4386.5234629201004, "dy_m": 1071.0687881559134, "n_particles": 20 }, "geometry": { "type": "Point", "coordinates": [ -0.332765936851503, 5.506233882904052 ] } },
{ "type": "Feature", "properties": { "seed_idx": 99, "delta_h": -15.690861521388888, "mean_lon": -0.3331995651125908, "mean_lat": 5.5051296710968014, "dx_m": -4590.3573841850739, "dy_m": 955.24258599872701, "n_particles": 20 }, "geometry": { "type": "Point", "coordinates": [ -0.33319956511259, 5.505129671096802 ] } },
{ "type": "Feature", "properties": { "seed_idx": 100, "delta_h": -15.690861521388888, "mean_lon": -0.33458372652530671, "mean_lat": 5.5042851924896237, "dx_m": -4631.9143640180118, "dy_m": 747.9313075725222, "n_particles": 20 }, "geometry": { "type": "Point", "coordinates": [ -0.334583726525307, 5.504285192489624 ] } },
{ "type": "Feature", "properties": { "seed_idx": 101, "delta_h": -15.690861521388888, "mean_lon": -0.33534039109945296, "mean_lat": 5.5042622566223143, "dx_m": -4683.6031363108195, "dy_m": 729.13244329649024, "n_particles": 20 }, "geometry": { "type": "Point", "coordinates": [ -0.335340391099453, 5.504262256622313 ] } },
{ "type": "Feature", "properties": { "seed_idx": 102, "delta_h": -15.690861521388888, "mean_lon": -0.33585229814052581, "mean_lat": 5.5041034936904909, "dx_m": -4709.8426126437262, "dy_m": 761.00214041420259, "n_particles": 20 }, "geometry": { "type": "Point", "coordinates": [ -0.335852298140526, 5.504103493690491 ] } },
{ "type": "Feature", "properties": { "seed_idx": 103, "delta_h": -15.690861521388888, "mean_lon": -0.33544969856739043, "mean_lat": 5.5041519880294798, "dx_m": -4665.224807103863, "dy_m": 766.56771289440803, "n_particles": 20 }, "geometry": { "type": "Point", "coordinates": [ -0.335449698567391, 5.504151988029479 ] } },
{ "type": "Feature", "properties": { "seed_idx": 104, "delta_h": -15.690861521388888, "mean_lon": -0.33559010177850723, "mean_lat": 5.5041513442993164, "dx_m": -4653.3156123565277, "dy_m": 826.30726312496699, "n_particles": 20 }, "geometry": { "type": "Point", "coordinates": [ -0.335590101778507, 5.504151344299316 ] } },
{ "type": "Feature", "properties": { "seed_idx": 105, "delta_h": -15.690861521388888, "mean_lon": -0.33691937476396561, "mean_lat": 5.5035086154937742, "dx_m": -4800.393037776812, "dy_m": 754.52618453500327, "n_particles": 20 }, "geometry": { "type": "Point", "coordinates": [ -0.336919374763966, 5.503508615493774 ] } },
{ "type": "Feature", "properties": { "seed_idx": 106, "delta_h": -15.690861521388888, "mean_lon": -0.33752463608980177, "mean_lat": 5.5035120487213138, "dx_m": -4752.5313021506881, "dy_m": 842.57474149414338, "n_particles": 20 }, "geometry": { "type": "Point", "coordinates": [ -0.337524636089802, 5.503512048721313 ] } },
{ "type": "Feature", "properties": { "seed_idx": 107, "delta_h": -15.690861521388888, "mean_lon": -0.33780192434787748, "mean_lat": 5.5031528711318973, "dx_m": -4752.4980068053119, "dy_m": 817.40470996208023, "n_particles": 20 }, "geometry": { "type": "Point", "coordinates": [ -0.337801924347877, 5.503152871131897 ] } },
{ "type": "Feature", "properties": { "seed_idx": 108, "delta_h": -15.690861521388888, "mean_lon": -0.33796787708997728, "mean_lat": 5.5032298326492306, "dx_m": -4744.8411635169759, "dy_m": 868.22343673871364, "n_particles": 20 }, "geometry": { "type": "Point", "coordinates": [ -0.337967877089978, 5.50322983264923 ] } },
{ "type": "Feature", "properties": { "seed_idx": 109, "delta_h": -15.690861521388888, "mean_lon": -0.33781671077013015, "mean_lat": 5.5031790971755985, "dx_m": -4779.1688637597254, "dy_m": 862.45261174882762, "n_particles": 20 }, "geometry": { "type": "Point", "coordinates": [ -0.337816710770131, 5.503179097175598 ] } },
{ "type": "Feature", "properties": { "seed_idx": 110, "delta_h": -15.690861521388888, "mean_lon": -0.33878639638423919, "mean_lat": 5.5031807899475096, "dx_m": -4886.6920382252429, "dy_m": 862.16055426420644, "n_particles": 20 }, "geometry": { "type": "Point", "coordinates": [ -0.33878639638424, 5.503180789947508 ] } },
{ "type": "Feature", "properties": { "seed_idx": 111, "delta_h": -15.690861521388888, "mean_lon": -0.33915708661079408, "mean_lat": 5.5031167745590208, "dx_m": -4914.5080827808706, "dy_m": 830.17671049328055, "n_particles": 20 }, "geometry": { "type": "Point", "coordinates": [ -0.339157086610794, 5.503116774559022 ] } },
{ "type": "Feature", "properties": { "seed_idx": 112, "delta_h": -15.690861521388888, "mean_lon": -0.34011493772268298, "mean_lat": 5.502157759666443, "dx_m": -4935.4107888287399, "dy_m": 856.59311320364941, "n_particles": 20 }, "geometry": { "type": "Point", "coordinates": [ -0.340114937722683, 5.502157759666443 ] } },
{ "type": "Feature", "properties": { "seed_idx": 113, "delta_h": -15.690861521388888, "mean_lon": -0.34116044789552691, "mean_lat": 5.5013400077819821, "dx_m": -5054.6713538261829, "dy_m": 783.78736541315448, "n_particles": 20 }, "geometry": { "type": "Point", "coordinates": [ -0.341160447895528, 5.501340007781981 ] } },
{ "type": "Feature", "properties": { "seed_idx": 114, "delta_h": -15.690861521388888, "mean_lon": -0.34148645550012591, "mean_lat": 5.5012788534164425, "dx_m": -5231.6218550411286, "dy_m": 754.36027397238649, "n_particles": 20 }, "geometry": { "type": "Point", "coordinates": [ -0.341486455500126, 5.501278853416442 ] } },
{ "type": "Feature", "properties": { "seed_idx": 115, "delta_h": -15.690861521388888, "mean_lon": -0.34549477845430376, "mean_lat": 5.5008399248123165, "dx_m": -5487.7049922766164, "dy_m": 595.35433268360794, "n_particles": 20 }, "geometry": { "type": "Point", "coordinates": [ -0.345494778454304, 5.500839924812317 ] } },
{ "type": "Feature", "properties": { "seed_idx": 116, "delta_h": -15.690861521388888, "mean_lon": -0.3472554713487625, "mean_lat": 5.4989330530166622, "dx_m": -5701.5899953098269, "dy_m": 355.69710453751031, "n_particles": 20 }, "geometry": { "type": "Point", "coordinates": [ -0.347255471348764, 5.498933053016663 ] } }
]
}
