{
"type": "FeatureCollection",
"name": "search_boxes_1km",
"crs": { "type": "name", "properties": { "name": "urn:ogc:def:crs:OGC:1.3:CRS84" } },
"features": [
{ "type": "Feature", "properties": { "seed_idx": 0, "delta_h": -15.690861521388888 }, "geometry": { "type": "Polygon", "coordinates": [ [ [ -0.309407656542323, 5.500144923254832 ], [ -0.309367002053113, 5.509181361933708 ], [ -0.318385190000211, 5.509222064666821 ], [ -0.318425708626727, 5.500185558829382 ], [ -0.309407656542323, 5.500144923254832 ] ] ] } },
{ "type": "Feature", "properties": { "seed_idx": 1, "delta_h": -15.690861521388888 }, "geometry": { "type": "Polygon", "coordinates": [ [ [ -0.308614015616153, 5.499524438053558 ], [ -0.308573353755798, 5.508560870997621 ], [ -0.317591526445503, 5.508601581177724 ], [ -0.317632052459067, 5.499565081055372 ], [ -0.308614015616153, 5.499524438053558 ] ] ] } },
{ "type": "Feature", "properties": { "seed_idx": 2, "delta_h": -15.690861521388888 }, "geometry": { "type": "Polygon", "coordinates": [ [ [ -0.309567655253003, 5.499939360095897 ], [ -0.309527004706994, 5.508975800030569 ], [ -0.318545190743391, 5.509016498827245 ], [ -0.318585705431786, 5.499979991738018 ], [ -0.309567655253003, 5.499939360095897 ] ] ] } },
{ "type": "Feature", "properties": { "seed_idx": 3, "delta_h": -15.690861521388888 }, "geometry": { "type": "Polygon", "coordinates": [ [ [ -0.304467360641014, 5.496162827479066 ], [ -0.304426661202539, 5.505199230466985 ], [ -0.313444752360531, 5.50523997862953 ], [ -0.313485316038303, 5.496203508360296 ], [ -0.304467360641014, 5.496162827479066 ] ] ] } },
{ "type": "Feature", "properties": { "seed_idx": 4, "delta_h": -15.690861521388888 }, "geometry": { "type": "Polygon", "coordinates": [ [ [ -0.30607061456238, 5.497095619156542 ], [ -0.306029932373849, 5.506132033843137 ], [ -0.315048049526194, 5.506172764623853 ], [ -0.315088595929931, 5.497136282695815 ], [ -0.30607061456238, 5.497095619156542 ] ] ] } },
{ "type": "Feature", "properties": { "seed_idx": 5, "delta_h": -15.690861521388888 }, "geometry": { "type": "Polygon", "coordinates": [ [ [ -0.308269949299267, 5.500148352108689 ], [ -0.308229277606388, 5.50918478229632 ], [ -0.317247457146198, 5.509225502282271 ], [ -0.317287992976805, 5.50018900490771 ], [ -0.308269949299267, 5.500148352108689 ] ] ] } },
{ "type": "Feature", "properties": { "seed_idx": 6, "delta_h": -15.690861521388888 }, "geometry": { "type": "Polygon", "coordinates": [ [ [ -0.309153607366898, 5.500315224069871 ], [ -0.309112947776236, 5.509351660801761 ], [ -0.31813113640309, 5.509392368635997 ], [ -0.318171660126903, 5.500355864739189 ], [ -0.309153607366898, 5.500315224069871 ] ] ] } },
{ "type": "Feature", "properties": { "seed_idx": 7, "delta_h": -15.690861521388888 }, "geometry": { "type": "Polygon", "coordinates": [ [ [ -0.308783936623778, 5.500171361390455 ], [ -0.308743272520554, 5.509207795407242 ], [ -0.31776145622937, 5.509248507779687 ], [ -0.317801984469517, 5.500212006588781 ], [ -0.308783936623778, 5.500171361390455 ] ] ] } },
{ "type": "Feature", "properties": { "seed_idx": 8, "delta_h": -15.690861521388888 }, "geometry": { "type": "Polygon", "coordinates": [ [ [ -0.309001516959138, 5.500040041735412 ], [ -0.308960857117108, 5.509076477415535 ], [ -0.317979040463223, 5.509117185526097 ], [ -0.318019564445368, 5.500080682677295 ], [ -0.309001516959138, 5.500040041735412 ] ] ] } },
{ "type": "Feature", "properties": { "seed_idx": 9, "delta_h": -15.690861521388888 }, "geometry": { "type": "Polygon", "coordinates": [ [ [ -0.308100454478801, 5.500277263928957 ], [ -0.308059779268357, 5.509313692812482 ], [ -0.317077959491777, 5.509354416314752 ], [ -0.317118498836794, 5.50031792024006 ], [ -0.308100454478801, 5.500277263928957 ] ] ] } },
{ "type": "Feature", "properties": { "seed_idx": 10, "delta_h": -15.690861521388888 }, "geometry": { "type": "Polygon", "coordinates": [ [ [ -0.308183935715044, 5.500300462294651 ], [ -0.308143261592651, 5.509336891794312 ], [ -0.317161442786786, 5.509377614203363 ], [ -0.317201981043135, 5.500341117514609 ], [ -0.308183935715044, 5.500300462294651 ] ] ] } },
{ "type": "Feature", "properties": { "seed_idx": 11, "delta_h": -15.690861521388888 }, "geometry": { "type": "Polygon", "coordinates": [ [ [ -0.310736594722426, 5.503511553689893 ], [ -0.310695935294567, 5.51254800126433 ], [ -0.31971418390566, 5.512588708653737 ], [ -0.319754707385867, 5.503552193953515 ], [ -0.310736594722426, 5.503511553689893 ] ] ] } },
{ "type": "Feature", "properties": { "seed_idx": 12, "delta_h": -15.690861521388888 }, "geometry": { "type": "Polygon", "coordinates": [ [ [ -0.311054651563244, 5.504003053076544 ], [ -0.311013993290674, 5.513039502874139 ], [ -0.320032251681974, 5.513080209061637 ], [ -0.320072773994433, 5.50404369214614 ], [ -0.311054651563244, 5.504003053076544 ] ] ] } },
{ "type": "Feature", "properties": { "seed_idx": 13, "delta_h": -15.690861521388888 }, "geometry": { "type": "Polygon", "coordinates": [ [ [ -0.312246084914763, 5.505405097001947 ], [ -0.312205434236953, 5.514441555257573 ], [ -0.321223722639439, 5.514482253705005 ], [ -0.321264237321469, 5.505445728361035 ], [ -0.312246084914763, 5.505405097001947 ] ] ] } },
{ "type": "Feature", "properties": { "seed_idx": 14, "delta_h": -15.690861521388888 }, "geometry": { "type": "Polygon", "coordinates": [ [ [ -0.312059405013805, 5.505083184655036 ], [ -0.31201875390433, 5.514119641616587 ], [ -0.321037036061217, 5.514160340525283 ], [ -0.321077551183063, 5.505123816470767 ], [ -0.312059405013805, 5.505083184655036 ] ] ] } },
{ "type": "Feature", "properties": { "seed_idx": 15, "delta_h": -15.690861521388888 }, "geometry": { "type": "Polygon", "coordinates": [ [ [ -0.311482900531971, 5.505460216248315 ], [ -0.311442237910509, 5.514496668798369 ], [ -0.320460521477021, 5.514537379218821 ], [ -0.320501048101662, 5.505500859561391 ], [ -0.311482900531971, 5.505460216248315 ] ] ] } },
{ "type": "Feature", "properties": { "seed_idx": 16, "delta_h": -15.690861521388888 }, "geometry": { "type": "Polygon", "coordinates": [ [ [ -0.311662006422885, 5.505349924891661 ], [ -0.311621347327236, 5.514386378810291 ], [ -0.320639630559169, 5.514427085704543 ], [ -0.32068015366068, 5.505390564683013 ], [ -0.311662006422885, 5.505349924891661 ] ] ] } },
{ "type": "Feature", "properties": { "seed_idx": 17, "delta_h": -15.690861521388888 }, "geometry": { "type": "Polygon", "coordinates": [ [ [ -0.312315326075339, 5.505218368496221 ], [ -0.312274677830057, 5.514254827324355 ], [ -0.321292963927978, 5.514295523348738 ], [ -0.32133347618213, 5.505258997434007 ], [ -0.312315326075339, 5.505218368496221 ] ] ] } },
{ "type": "Feature", "properties": { "seed_idx": 18, "delta_h": -15.690861521388888 }, "geometry": { "type": "Polygon", "coordinates": [ [ [ -0.310968313258559, 5.503733712227304 ], [ -0.310927655681707, 5.512770161462521 ], [ -0.319945909366884, 5.512810866976036 ], [ -0.319986430990412, 5.503774350620791 ], [ -0.310968313258559, 5.503733712227304 ] ] ] } },
{ "type": "Feature", "properties": { "seed_idx": 19, "delta_h": -15.690861521388888 }, "geometry": { "type": "Polygon", "coordinates": [ [ [ -0.309739276310459, 5.502575927136136 ], [ -0.309698608766437, 5.511612367554642 ], [ -0.318716835848504, 5.511653083165941 ], [ -0.318757367468765, 5.502616575596885 ], [ -0.309739276310459, 5.502575927136136 ] ] ] } },
{ "type": "Feature", "properties": { "seed_idx": 20, "delta_h": -15.690861521388888 }, "geometry": { "type": "Polygon", "coordinates": [ [ [ -0.31022621234504, 5.502995425013148 ], [ -0.310185549040268, 5.512031868937131 ], [ -0.319203786070739, 5.512072580260049 ], [ -0.31924431344102, 5.503036069197611 ], [ -0.31022621234504, 5.502995425013148 ] ] ] } },
{ "type": "Feature", "properties": { "seed_idx": 21, "delta_h": -15.690861521388888 }, "geometry": { "type": "Polygon", "coordinates": [ [ [ -0.3096486397804, 5.502510099651186 ], [ -0.309607971356357, 5.51154653941342 ], [ -0.318626196771564, 5.511587255913063 ], [ -0.318666729273535, 5.502550748998029 ], [ -0.3096486397804, 5.502510099651186 ] ] ] } },
{ "type": "Feature", "properties": { "seed_idx": 22, "delta_h": -15.690861521388888 }, "geometry": { "type": "Polygon", "coordinates": [ [ [ -0.307822274488033, 5.500486236008395 ], [ -0.30778159352354, 5.50952266275219 ], [ -0.316799774829607, 5.509563392006639 ], [ -0.31684031992356, 5.500526898064722 ], [ -0.307822274488033, 5.500486236008395 ] ] ] } },
{ "type": "Feature", "properties": { "seed_idx": 23, "delta_h": -15.690861521388888 }, "geometry": { "type": "Polygon", "coordinates": [ [ [ -0.308389682766145, 5.501446012622062 ], [ -0.308349003234915, 5.510482443311389 ], [ -0.317367203237384, 5.510523171043885 ], [ -0.31740774687377, 5.50148667317048 ], [ -0.308389682766145, 5.501446012622062 ] ] ] } },
{ "type": "Feature", "properties": { "seed_idx": 24, "delta_h": -15.690861521388888 }, "geometry": { "type": "Polygon", "coordinates": [ [ [ -0.308277508082541, 5.501447657274282 ], [ -0.308236826844962, 5.510484087125847 ], [ -0.317255026038049, 5.510524816569446 ], [ -0.317295571380791, 5.50148831953101 ], [ -0.308277508082541, 5.501447657274282 ] ] ] } },
{ "type": "Feature", "properties": { "seed_idx": 25, "delta_h": -15.690861521388888 }, "geometry": { "type": "Polygon", "coordinates": [ [ [ -0.310771915025315, 5.503386456038964 ], [ -0.310731257060187, 5.512422903914602 ], [ -0.319749504045966, 5.512463609848099 ], [ -0.31979002606656, 5.503427094847574 ], [ -0.310771915025315, 5.503386456038964 ] ] ] } },
{ "type": "Feature", "properties": { "seed_idx": 26, "delta_h": -15.690861521388888 }, "geometry": { "type": "Polygon", "coordinates": [ [ [ -0.311717211422962, 5.504623704676114 ], [ -0.311676558553433, 5.513660159225815 ], [ -0.320694831233523, 5.513700859940093 ], [ -0.320735348127089, 5.504664338288941 ], [ -0.311717211422962, 5.504623704676114 ] ] ] } },
{ "type": "Feature", "properties": { "seed_idx": 27, "delta_h": -15.690861521388888 }, "geometry": { "type": "Polygon", "coordinates": [ [ [ -0.310220164362073, 5.503298740034671 ], [ -0.310179498712748, 5.51233518382188 ], [ -0.319197740275079, 5.512375897469356 ], [ -0.319238269982315, 5.503339386543509 ], [ -0.310220164362073, 5.503298740034671 ] ] ] } },
{ "type": "Feature", "properties": { "seed_idx": 28, "delta_h": -15.690861521388888 }, "geometry": { "type": "Polygon", "coordinates": [ [ [ -0.308757554130191, 5.501806668542564 ], [ -0.308716877474161, 5.510843101868461 ], [ -0.317735085652583, 5.510883826685713 ], [ -0.317775626404566, 5.501847326184874 ], [ -0.308757554130191, 5.501806668542564 ] ] ] } },
{ "type": "Feature", "properties": { "seed_idx": 29, "delta_h": -15.690861521388888 }, "geometry": { "type": "Polygon", "coordinates": [ [ [ -0.307988812684367, 5.500817589616254 ], [ -0.307948131771087, 5.509854017503188 ], [ -0.316966319313398, 5.509894746677079 ], [ -0.317006864347759, 5.50085825159614 ], [ -0.307988812684367, 5.500817589616254 ] ] ] } },
{ "type": "Feature", "properties": { "seed_idx": 30, "delta_h": -15.690861521388888 }, "geometry": { "type": "Polygon", "coordinates": [ [ [ -0.308823582441394, 5.500500115759041 ], [ -0.308782916493374, 5.50953654997239 ], [ -0.317801105455058, 5.509577264165976 ], [ -0.317841635531743, 5.500540762779464 ], [ -0.308823582441394, 5.500500115759041 ] ] ] } },
{ "type": "Feature", "properties": { "seed_idx": 31, "delta_h": -15.690861521388888 }, "geometry": { "type": "Polygon", "coordinates": [ [ [ -0.308224479117265, 5.500096209975521 ], [ -0.308183807125457, 5.509132639839505 ], [ -0.317201985540769, 5.509173360129836 ], [ -0.317242521671631, 5.500136863077794 ], [ -0.308224479117265, 5.500096209975521 ] ] ] } },
{ "type": "Feature", "properties": { "seed_idx": 32, "delta_h": -15.690861521388888 }, "geometry": { "type": "Polygon", "coordinates": [ [ [ -0.308399585522729, 5.500001129653488 ], [ -0.308358916881598, 5.509037560853186 ], [ -0.31737709516523, 5.509078277791581 ], [ -0.317417627947721, 5.500041779408201 ], [ -0.308399585522729, 5.500001129653488 ] ] ] } },
{ "type": "Feature", "properties": { "seed_idx": 33, "delta_h": -15.690861521388888 }, "geometry": { "type": "Polygon", "coordinates": [ [ [ -0.30898196539962, 5.499640882686244 ], [ -0.308941308228887, 5.508677318341027 ], [ -0.317959485410296, 5.508718023807763 ], [ -0.318000006731155, 5.499681520983851 ], [ -0.30898196539962, 5.499640882686244 ] ] ] } },
{ "type": "Feature", "properties": { "seed_idx": 34, "delta_h": -15.690861521388888 }, "geometry": { "type": "Polygon", "coordinates": [ [ [ -0.310148664755362, 5.500614513670844 ], [ -0.310108017966173, 5.509650957735764 ], [ -0.319126218503003, 5.50969165270537 ], [ -0.319166729417401, 5.500655141500309 ], [ -0.310148664755362, 5.500614513670844 ] ] ] } },
{ "type": "Feature", "properties": { "seed_idx": 35, "delta_h": -15.690861521388888 }, "geometry": { "type": "Polygon", "coordinates": [ [ [ -0.309277565551006, 5.500367342662365 ], [ -0.309236907444745, 5.509403780303429 ], [ -0.318255097779139, 5.509444486644407 ], [ -0.318295620017192, 5.500407981841512 ], [ -0.309277565551006, 5.500367342662365 ] ] ] } },
{ "type": "Feature", "properties": { "seed_idx": 36, "delta_h": -15.690861521388888 }, "geometry": { "type": "Polygon", "coordinates": [ [ [ -0.308895394431237, 5.500206027756611 ], [ -0.308854731753271, 5.509242462594687 ], [ -0.317872916813596, 5.509283173534723 ], [ -0.317913443627564, 5.500246671525303 ], [ -0.308895394431237, 5.500206027756611 ] ] ] } },
{ "type": "Feature", "properties": { "seed_idx": 37, "delta_h": -15.690861521388888 }, "geometry": { "type": "Polygon", "coordinates": [ [ [ -0.308422061186239, 5.500261720325276 ], [ -0.308381390947374, 5.509298151614019 ], [ -0.317399573328078, 5.509338870131785 ], [ -0.317440107701761, 5.500302371659894 ], [ -0.308422061186239, 5.500261720325276 ] ] ] } },
{ "type": "Feature", "properties": { "seed_idx": 38, "delta_h": -15.690861521388888 }, "geometry": { "type": "Polygon", "coordinates": [ [ [ -0.307873557740856, 5.500487714394914 ], [ -0.307832877539743, 5.509524141521107 ], [ -0.316851059249544, 5.509564870009853 ], [ -0.316891603580058, 5.500528375686815 ], [ -0.307873557740856, 5.500487714394914 ] ] ] } },
{ "type": "Feature", "properties": { "seed_idx": 39, "delta_h": -15.690861521388888 }, "geometry": { "type": "Polygon", "coordinates": [ [ [ -0.308118199371364, 5.500851040120627 ], [ -0.308077520163246, 5.509887468963291 ], [ -0.317095709172372, 5.509928196424172 ], [ -0.317136252500676, 5.500891700390724 ], [ -0.308118199371364, 5.500851040120627 ] ] ] } },
{ "type": "Feature", "properties": { "seed_idx": 40, "delta_h": -15.690861521388888 }, "geometry": { "type": "Polygon", "coordinates": [ [ [ -0.30905319748749, 5.50214424534962 ], [ -0.30901252278794, 5.511180680779722 ], [ -0.318030738257145, 5.51122140360513 ], [ -0.318071277044057, 5.50218490100742 ], [ -0.30905319748749, 5.50214424534962 ] ] ] } },
{ "type": "Feature", "properties": { "seed_idx": 41, "delta_h": -15.690861521388888 }, "geometry": { "type": "Polygon", "coordinates": [ [ [ -0.310284334641035, 5.503520611826956 ], [ -0.310243668313027, 5.512557056025736 ], [ -0.319261913700272, 5.51259777033429 ], [ -0.319302444080602, 5.503561258998452 ], [ -0.310284334641035, 5.503520611826956 ] ] ] } },
{ "type": "Feature", "properties": { "seed_idx": 42, "delta_h": -15.690861521388888 }, "geometry": { "type": "Polygon", "coordinates": [ [ [ -0.31109189407534, 5.504272346053668 ], [ -0.311051234365678, 5.513308796047558 ], [ -0.320069497097835, 5.513349503652541 ], [ -0.32011002084062, 5.504312986541647 ], [ -0.31109189407534, 5.504272346053668 ] ] ] } },
{ "type": "Feature", "properties": { "seed_idx": 43, "delta_h": -15.690861521388888 }, "geometry": { "type": "Polygon", "coordinates": [ [ [ -0.310641487793025, 5.504640699726728 ], [ -0.310600818541647, 5.513677146250625 ], [ -0.319619083487014, 5.513717863392221 ], [ -0.319659616762483, 5.504681349740056 ], [ -0.310641487793025, 5.504640699726728 ] ] ] } },
{ "type": "Feature", "properties": { "seed_idx": 44, "delta_h": -15.690861521388888 }, "geometry": { "type": "Polygon", "coordinates": [ [ [ -0.311147128602611, 5.504785683495661 ], [ -0.311106465915511, 5.513822133746222 ], [ -0.320124736805868, 5.513862844291945 ], [ -0.320165263513202, 5.504826326925706 ], [ -0.311147128602611, 5.504785683495661 ] ] ] } },
{ "type": "Feature", "properties": { "seed_idx": 45, "delta_h": -15.690861521388888 }, "geometry": { "type": "Polygon", "coordinates": [ [ [ -0.311764371358284, 5.505069927494532 ], [ -0.311723715888505, 5.514106382260898 ], [ -0.320741995654157, 5.514147085543565 ], [ -0.320782515136771, 5.505110563676879 ], [ -0.311764371358284, 5.505069927494532 ] ] ] } },
{ "type": "Feature", "properties": { "seed_idx": 46, "delta_h": -15.690861521388888 }, "geometry": { "type": "Polygon", "coordinates": [ [ [ -0.31173422125146, 5.504922895160028 ], [ -0.311693566417662, 5.513959349746091 ], [ -0.320711843740015, 5.514000052403906 ], [ -0.320752362590345, 5.504963530716789 ], [ -0.31173422125146, 5.504922895160028 ] ] ] } },
{ "type": "Feature", "properties": { "seed_idx": 47, "delta_h": -15.690861521388888 }, "geometry": { "type": "Polygon", "coordinates": [ [ [ -0.311584629976328, 5.505365302538229 ], [ -0.311543969597086, 5.514401755875383 ], [ -0.320562252486439, 5.514442464055552 ], [ -0.320602776871193, 5.50540594361357 ], [ -0.311584629976328, 5.505365302538229 ] ] ] } },
{ "type": "Feature", "properties": { "seed_idx": 48, "delta_h": -15.690861521388888 }, "geometry": { "type": "Polygon", "coordinates": [ [ [ -0.311390425096037, 5.505426742042491 ], [ -0.311349761325491, 5.514463193913229 ], [ -0.320368043699779, 5.514503905489007 ], [ -0.320408571474384, 5.50546738650859 ], [ -0.311390425096037, 5.505426742042491 ] ] ] } },
{ "type": "Feature", "properties": { "seed_idx": 49, "delta_h": -15.690861521388888 }, "geometry": { "type": "Polygon", "coordinates": [ [ [ -0.311697553805043, 5.505461528371158 ], [ -0.311656894418033, 5.51449798252104 ], [ -0.320675179598706, 5.514538689697656 ], [ -0.320715702988767, 5.50550216844575 ], [ -0.311697553805043, 5.505461528371158 ] ] ] } },
{ "type": "Feature", "properties": { "seed_idx": 50, "delta_h": -15.690861521388888 }, "geometry": { "type": "Polygon", "coordinates": [ [ [ -0.31131145296702, 5.505386258407124 ], [ -0.31127078830354, 5.514422709701315 ], [ -0.320289069480079, 5.514463422176154 ], [ -0.320329598148669, 5.505426903770319 ], [ -0.31131145296702, 5.505386258407124 ] ] ] } },
{ "type": "Feature", "properties": { "seed_idx": 51, "delta_h": -15.690861521388888 }, "geometry": { "type": "Polygon", "coordinates": [ [ [ -0.311004913633916, 5.505535244472665 ], [ -0.310964243231138, 5.51457169343622 ], [ -0.319982524379518, 5.51461241165367 ], [ -0.320023058783809, 5.505575895570816 ], [ -0.311004913633916, 5.505535244472665 ] ] ] } },
{ "type": "Feature", "properties": { "seed_idx": 52, "delta_h": -15.690861521388888 }, "geometry": { "type": "Polygon", "coordinates": [ [ [ -0.309900268199037, 5.505285569173354 ], [ -0.30985958295578, 5.514322009973853 ], [ -0.318877852126849, 5.514362743096321 ], [ -0.318918401378368, 5.505326235149008 ], [ -0.309900268199037, 5.505285569173354 ] ] ] } },
{ "type": "Feature", "properties": { "seed_idx": 53, "delta_h": -15.690861521388888 }, "geometry": { "type": "Polygon", "coordinates": [ [ [ -0.308924022505871, 5.504810351190978 ], [ -0.308883326040374, 5.513846784851404 ], [ -0.31790158078122, 5.513887529270184 ], [ -0.317942141267323, 5.504851028438654 ], [ -0.308924022505871, 5.504810351190978 ] ] ] } },
{ "type": "Feature", "properties": { "seed_idx": 54, "delta_h": -15.690861521388888 }, "geometry": { "type": "Polygon", "coordinates": [ [ [ -0.308875128782272, 5.504963224455781 ], [ -0.308834430441703, 5.51399965770513 ], [ -0.317852687126507, 5.514040403990871 ], [ -0.317893249483873, 5.505003903569188 ], [ -0.308875128782272, 5.504963224455781 ] ] ] } },
{ "type": "Feature", "properties": { "seed_idx": 55, "delta_h": -15.690861521388888 }, "geometry": { "type": "Polygon", "coordinates": [ [ [ -0.310576561371875, 5.505370639220624 ], [ -0.310535885717672, 5.514407085039656 ], [ -0.319554161198652, 5.514447808538091 ], [ -0.319594700858684, 5.505411295589098 ], [ -0.310576561371875, 5.505370639220624 ] ] ] } },
{ "type": "Feature", "properties": { "seed_idx": 56, "delta_h": -15.690861521388888 }, "geometry": { "type": "Polygon", "coordinates": [ [ [ -0.311361924988138, 5.505549026390325 ], [ -0.31132125987884, 5.514585478011609 ], [ -0.320339543887404, 5.514626190919198 ], [ -0.32038007299771, 5.505589672187512 ], [ -0.311361924988138, 5.505549026390325 ] ] ] } },
{ "type": "Feature", "properties": { "seed_idx": 57, "delta_h": -15.690861521388888 }, "geometry": { "type": "Polygon", "coordinates": [ [ [ -0.311216172440744, 5.504763248651949 ], [ -0.311175510963617, 5.513799699424088 ], [ -0.320193782028252, 5.513840408758346 ], [ -0.320234307526145, 5.504803890872253 ], [ -0.311216172440744, 5.504763248651949 ] ] ] } },
{ "type": "Feature", "properties": { "seed_idx": 58, "delta_h": -15.690861521388888 }, "geometry": { "type": "Polygon", "coordinates": [ [ [ -0.311376805160724, 5.504370646781508 ], [ -0.311336149026252, 5.513407098869959 ], [ -0.320354415358495, 5.513447802880838 ], [ -0.320394935523499, 5.504411283682478 ], [ -0.311376805160724, 5.504370646781508 ] ] ] } },
{ "type": "Feature", "properties": { "seed_idx": 59, "delta_h": -15.690861521388888 }, "geometry": { "type": "Polygon", "coordinates": [ [ [ -0.311143993487743, 5.503992825298882 ], [ -0.311103336641046, 5.513029275765724 ], [ -0.320121595541707, 5.513069980524159 ], [ -0.320162116428508, 5.504033462941642 ], [ -0.311143993487743, 5.503992825298882 ] ] ] } },
{ "type": "Feature", "properties": { "seed_idx": 60, "delta_h": -15.690861521388888 }, "geometry": { "type": "Polygon", "coordinates": [ [ [ -0.310171603117425, 5.503013067716 ], [ -0.310130938856618, 5.512049511227334 ], [ -0.319149175747475, 5.512090223507475 ], [ -0.319189704073373, 5.503053712856325 ], [ -0.310171603117425, 5.503013067716 ] ] ] } },
{ "type": "Feature", "properties": { "seed_idx": 61, "delta_h": -15.690861521388888 }, "geometry": { "type": "Polygon", "coordinates": [ [ [ -0.309066888824087, 5.49972382854226 ], [ -0.309026232319068, 5.508760264805696 ], [ -0.31804441138264, 5.5088009695975 ], [ -0.31808493203567, 5.499764466167047 ], [ -0.309066888824087, 5.49972382854226 ] ] ] } },
{ "type": "Feature", "properties": { "seed_idx": 62, "delta_h": -15.690861521388888 }, "geometry": { "type": "Polygon", "coordinates": [ [ [ -0.308374732639781, 5.500264748049108 ], [ -0.308334061663783, 5.509301178983686 ], [ -0.317352243738198, 5.509341898240439 ], [ -0.317392778848959, 5.500305400121531 ], [ -0.308374732639781, 5.500264748049108 ] ] ] } },
{ "type": "Feature", "properties": { "seed_idx": 63, "delta_h": -15.690861521388888 }, "geometry": { "type": "Polygon", "coordinates": [ [ [ -0.308318019694761, 5.50020306916338 ], [ -0.308277348320943, 5.509239499693286 ], [ -0.317295529043424, 5.509280219354435 ], [ -0.317336064553576, 5.500243721638793 ], [ -0.308318019694761, 5.50020306916338 ] ] ] } },
{ "type": "Feature", "properties": { "seed_idx": 64, "delta_h": -15.690861521388888 }, "geometry": { "type": "Polygon", "coordinates": [ [ [ -0.308813814157674, 5.500288639189484 ], [ -0.308773149633921, 5.509325073393814 ], [ -0.317791335333569, 5.509365786177667 ], [ -0.317831863991292, 5.500329284799951 ], [ -0.308813814157674, 5.500288639189484 ] ] ] } },
{ "type": "Feature", "properties": { "seed_idx": 65, "delta_h": -15.690861521388888 }, "geometry": { "type": "Polygon", "coordinates": [ [ [ -0.307806956142903, 5.5005187322871 ], [ -0.30776627470549, 5.50955515890672 ], [ -0.316784456387725, 5.509595888632585 ], [ -0.31682500195379, 5.500559394814456 ], [ -0.307806956142903, 5.5005187322871 ] ] ] } },
{ "type": "Feature", "properties": { "seed_idx": 66, "delta_h": -15.690861521388888 }, "geometry": { "type": "Polygon", "coordinates": [ [ [ -0.307786617792794, 5.500904992783205 ], [ -0.307745933176352, 5.509941419134313 ], [ -0.316764120533077, 5.509982152014308 ], [ -0.316804669268501, 5.500945658464145 ], [ -0.307786617792794, 5.500904992783205 ] ] ] } },
{ "type": "Feature", "properties": { "seed_idx": 67, "delta_h": -15.690861521388888 }, "geometry": { "type": "Polygon", "coordinates": [ [ [ -0.309459259827667, 5.502575258491769 ], [ -0.309418588058779, 5.511611696821427 ], [ -0.31843681304938, 5.511652416669779 ], [ -0.318477348894649, 5.50261591118259 ], [ -0.309459259827667, 5.502575258491769 ] ] ] } },
{ "type": "Feature", "properties": { "seed_idx": 68, "delta_h": -15.690861521388888 }, "geometry": { "type": "Polygon", "coordinates": [ [ [ -0.312074424784557, 5.504806453244971 ], [ -0.312033775956375, 5.513842910402128 ], [ -0.321052054047737, 5.513883607047373 ], [ -0.321092566895217, 5.504847082797653 ], [ -0.312074424784557, 5.504806453244971 ] ] ] } },
{ "type": "Feature", "properties": { "seed_idx": 69, "delta_h": -15.690861521388888 }, "geometry": { "type": "Polygon", "coordinates": [ [ [ -0.312807307895589, 5.505167325150635 ], [ -0.31276666746444, 5.514203787660563 ], [ -0.321784956444775, 5.514244475852916 ], [ -0.321825460885853, 5.505207946268658 ], [ -0.312807307895589, 5.505167325150635 ] ] ] } },
{ "type": "Feature", "properties": { "seed_idx": 70, "delta_h": -15.690861521388888 }, "geometry": { "type": "Polygon", "coordinates": [ [ [ -0.310478018269256, 5.505332539687553 ], [ -0.310437341408731, 5.514368984783182 ], [ -0.319455615582357, 5.514409709494755 ], [ -0.319496156449709, 5.505373197266711 ], [ -0.310478018269256, 5.505332539687553 ] ] ] } },
{ "type": "Feature", "properties": { "seed_idx": 71, "delta_h": -15.690861521388888 }, "geometry": { "type": "Polygon", "coordinates": [ [ [ -0.307534485895354, 5.504322042491363 ], [ -0.307493772062496, 5.513358465927556 ], [ -0.316512009099402, 5.513399227806561 ], [ -0.316552586965725, 5.504362737164678 ], [ -0.307534485895354, 5.504322042491363 ] ] ] } },
{ "type": "Feature", "properties": { "seed_idx": 72, "delta_h": -15.690861521388888 }, "geometry": { "type": "Polygon", "coordinates": [ [ [ -0.30319545780974, 5.503265763764132 ], [ -0.303154686279398, 5.512302155097565 ], [ -0.312172875072882, 5.512342974932794 ], [ -0.312213510665098, 5.503306516285612 ], [ -0.30319545780974, 5.503265763764132 ] ] ] } },
{ "type": "Feature", "properties": { "seed_idx": 73, "delta_h": -15.690861521388888 }, "geometry": { "type": "Polygon", "coordinates": [ [ [ -0.30304345550418, 5.503332591672938 ], [ -0.303002681179708, 5.512368981849439 ], [ -0.312020869849034, 5.512409804480916 ], [ -0.312061508233773, 5.503373346986867 ], [ -0.30304345550418, 5.503332591672938 ] ] ] } },
{ "type": "Feature", "properties": { "seed_idx": 74, "delta_h": -15.690861521388888 }, "geometry": { "type": "Polygon", "coordinates": [ [ [ -0.30344321498607, 5.505256433588017 ], [ -0.303402432373664, 5.514292826172439 ], [ -0.312420653056822, 5.514333656945672 ], [ -0.312461299681104, 5.505297197053472 ], [ -0.30344321498607, 5.505256433588017 ] ] ] } },
{ "type": "Feature", "properties": { "seed_idx": 75, "delta_h": -15.690861521388888 }, "geometry": { "type": "Polygon", "coordinates": [ [ [ -0.307796507854448, 5.50044327303362 ], [ -0.30775582682032, 5.509479699598033 ], [ -0.316774007286777, 5.509520428926105 ], [ -0.316814552451454, 5.50048393516293 ], [ -0.307796507854448, 5.50044327303362 ] ] ] } },
{ "type": "Feature", "properties": { "seed_idx": 76, "delta_h": -15.690861521388888 }, "geometry": { "type": "Polygon", "coordinates": [ [ [ -0.307759733633351, 5.500458936937933 ], [ -0.307719051927475, 5.509495363223074 ], [ -0.316737232356642, 5.509536093223445 ], [ -0.31677777819269, 5.500499599738624 ], [ -0.307759733633351, 5.500458936937933 ] ] ] } },
{ "type": "Feature", "properties": { "seed_idx": 77, "delta_h": -15.690861521388888 }, "geometry": { "type": "Polygon", "coordinates": [ [ [ -0.30743220972303, 5.500869824808735 ], [ -0.307391520016176, 5.509906248524468 ], [ -0.316409704206187, 5.509946986512603 ], [ -0.316450258033061, 5.500910495588983 ], [ -0.30743220972303, 5.500869824808735 ] ] ] } },
{ "type": "Feature", "properties": { "seed_idx": 78, "delta_h": -15.690861521388888 }, "geometry": { "type": "Polygon", "coordinates": [ [ [ -0.308021144099701, 5.501406863016629 ], [ -0.307980459293665, 5.510443290966897 ], [ -0.3169986559648, 5.510484023992801 ], [ -0.317039204877137, 5.501447528849274 ], [ -0.308021144099701, 5.501406863016629 ] ] ] } },
{ "type": "Feature", "properties": { "seed_idx": 79, "delta_h": -15.690861521388888 }, "geometry": { "type": "Polygon", "coordinates": [ [ [ -0.313281091252053, 5.505085239745847 ], [ -0.313240458590209, 5.514121705810705 ], [ -0.322258749848637, 5.514162386218716 ], [ -0.322299246522256, 5.505125853091348 ], [ -0.313281091252053, 5.505085239745847 ] ] ] } },
{ "type": "Feature", "properties": { "seed_idx": 80, "delta_h": -15.690861521388888 }, "geometry": { "type": "Polygon", "coordinates": [ [ [ -0.313633387323982, 5.505258046277513 ], [ -0.31359275870418, 5.514294514914649 ], [ -0.322611055186001, 5.514335191253815 ], [ -0.322651547813091, 5.505298655562933 ], [ -0.313633387323982, 5.505258046277513 ] ] ] } },
{ "type": "Feature", "properties": { "seed_idx": 81, "delta_h": -15.690861521388888 }, "geometry": { "type": "Polygon", "coordinates": [ [ [ -0.31196931078651, 5.504263456444 ], [ -0.311928664400931, 5.513299912981803 ], [ -0.320946933516139, 5.513340607225277 ], [ -0.320987443934671, 5.504304083592344 ], [ -0.31196931078651, 5.504263456444 ] ] ] } },
{ "type": "Feature", "properties": { "seed_idx": 82, "delta_h": -15.690861521388888 }, "geometry": { "type": "Polygon", "coordinates": [ [ [ -0.310433971576593, 5.503217011255499 ], [ -0.310393309764473, 5.512253456662075 ], [ -0.319411551682363, 5.512294166468533 ], [ -0.319452077554346, 5.503257653928661 ], [ -0.310433971576593, 5.503217011255499 ] ] ] } },
{ "type": "Feature", "properties": { "seed_idx": 83, "delta_h": -15.690861521388888 }, "geometry": { "type": "Polygon", "coordinates": [ [ [ -0.308367308834195, 5.501859858042709 ], [ -0.308326625888695, 5.510896288440009 ], [ -0.317344831967683, 5.510937019560112 ], [ -0.317385379007978, 5.501900521978135 ], [ -0.308367308834195, 5.501859858042709 ] ] ] } },
{ "type": "Feature", "properties": { "seed_idx": 84, "delta_h": -15.690861521388888 }, "geometry": { "type": "Polygon", "coordinates": [ [ [ -0.310810334269692, 5.50338295144579 ], [ -0.310769676911027, 5.512419399608985 ], [ -0.319787924129368, 5.512460104934589 ], [ -0.31982844554357, 5.503423589647465 ], [ -0.310810334269692, 5.50338295144579 ] ] ] } },
{ "type": "Feature", "properties": { "seed_idx": 85, "delta_h": -15.690861521388888 }, "geometry": { "type": "Polygon", "coordinates": [ [ [ -0.311580071506295, 5.503875167821143 ], [ -0.311539422122144, 5.512911621574756 ], [ -0.320557682486452, 5.512952318859607 ], [ -0.320598195913461, 5.5039157980012 ], [ -0.311580071506295, 5.503875167821143 ] ] ] } },
{ "type": "Feature", "properties": { "seed_idx": 86, "delta_h": -15.690861521388888 }, "geometry": { "type": "Polygon", "coordinates": [ [ [ -0.307787449346523, 5.500494127501987 ], [ -0.3077467677975, 5.509530553983411 ], [ -0.316764948963556, 5.509571283823374 ], [ -0.316805494641857, 5.500534790142957 ], [ -0.307787449346523, 5.500494127501987 ] ] ] } },
{ "type": "Feature", "properties": { "seed_idx": 87, "delta_h": -15.690861521388888 }, "geometry": { "type": "Polygon", "coordinates": [ [ [ -0.308455576821377, 5.500177630518197 ], [ -0.308414907713642, 5.509214062082488 ], [ -0.317433089075408, 5.509254779473279 ], [ -0.317473622320053, 5.500218280726685 ], [ -0.308455576821377, 5.500177630518197 ] ] ] } },
{ "type": "Feature", "properties": { "seed_idx": 88, "delta_h": -15.690861521388888 }, "geometry": { "type": "Polygon", "coordinates": [ [ [ -0.312242809593383, 5.501143832926102 ], [ -0.312202190497262, 5.510180292445124 ], [ -0.321220414574409, 5.510220959595478 ], [ -0.321260897781539, 5.501184432988466 ], [ -0.312242809593383, 5.501143832926102 ] ] ] } },
{ "type": "Feature", "properties": { "seed_idx": 89, "delta_h": -15.690861521388888 }, "geometry": { "type": "Polygon", "coordinates": [ [ [ -0.319619745023555, 5.501803825435099 ], [ -0.319579232446721, 5.510840339660541 ], [ -0.328597521183527, 5.510880899927571 ], [ -0.32863789785155, 5.501844318797977 ], [ -0.319619745023555, 5.501803825435099 ] ] ] } },
{ "type": "Feature", "properties": { "seed_idx": 90, "delta_h": -15.690861521388888 }, "geometry": { "type": "Polygon", "coordinates": [ [ [ -0.320316508560806, 5.502053642226659 ], [ -0.320276004658845, 5.511090161554772 ], [ -0.329294302323485, 5.511130713100078 ], [ -0.329334670310065, 5.50209412688516 ], [ -0.320316508560806, 5.502053642226659 ] ] ] } },
{ "type": "Feature", "properties": { "seed_idx": 91, "delta_h": -15.690861521388888 }, "geometry": { "type": "Polygon", "coordinates": [ [ [ -0.320629933989605, 5.502592705944665 ], [ -0.320589430832775, 5.511629227438741 ], [ -0.329607738950612, 5.511669778189445 ], [ -0.329648106178412, 5.502633189816321 ], [ -0.320629933989605, 5.502592705944665 ] ] ] } },
{ "type": "Feature", "properties": { "seed_idx": 92, "delta_h": -15.690861521388888 }, "geometry": { "type": "Polygon", "coordinates": [ [ [ -0.317442401074133, 5.499951120486419 ], [ -0.317401869337334, 5.508987619081461 ], [ -0.326420113999176, 5.509028198726232 ], [ -0.32646050987456, 5.499991633172945 ], [ -0.317442401074133, 5.499951120486419 ] ] ] } },
{ "type": "Feature", "properties": { "seed_idx": 93, "delta_h": -15.690861521388888 }, "geometry": { "type": "Polygon", "coordinates": [ [ [ -0.318615763964526, 5.500585745338376 ], [ -0.318575245244188, 5.509622252468136 ], [ -0.327593508171325, 5.509662819003287 ], [ -0.327633891013823, 5.50062624494447 ], [ -0.318615763964526, 5.500585745338376 ] ] ] } },
{ "type": "Feature", "properties": { "seed_idx": 94, "delta_h": -15.690861521388888 }, "geometry": { "type": "Polygon", "coordinates": [ [ [ -0.316880874510218, 5.49852616702709 ], [ -0.316840344854195, 5.50756266187499 ], [ -0.325858563867788, 5.507603239558143 ], [ -0.325898957698357, 5.498566677738143 ], [ -0.316880874510218, 5.49852616702709 ] ] ] } },
{ "type": "Feature", "properties": { "seed_idx": 95, "delta_h": -15.690861521388888 }, "geometry": { "type": "Polygon", "coordinates": [ [ [ -0.31281530019182, 5.495190782634464 ], [ -0.3127747339204, 5.504227248217314 ], [ -0.321792872503235, 5.50426786291431 ], [ -0.321833303034589, 5.495231330258351 ], [ -0.31281530019182, 5.495190782634464 ] ] ] } },
{ "type": "Feature", "properties": { "seed_idx": 96, "delta_h": -15.690861521388888 }, "geometry": { "type": "Polygon", "coordinates": [ [ [ -0.328250046923396, 5.501527914026007 ], [ -0.328209666731992, 5.510564492377911 ], [ -0.337228015113826, 5.510604919903431 ], [ -0.337268259399506, 5.501568274862561 ], [ -0.328250046923396, 5.501527914026007 ] ] ] } },
{ "type": "Feature", "properties": { "seed_idx": 97, "delta_h": -15.690861521388888 }, "geometry": { "type": "Polygon", "coordinates": [ [ [ -0.328242806023558, 5.501659711326185 ], [ -0.328202424750294, 5.510696289584621 ], [ -0.337220775066865, 5.510736718183569 ], [ -0.337261020431105, 5.50170007323597 ], [ -0.328242806023558, 5.501659711326185 ] ] ] } },
{ "type": "Feature", "properties": { "seed_idx": 98, "delta_h": -15.690861521388888 }, "geometry": { "type": "Polygon", "coordinates": [ [ [ -0.32827698578563, 5.501695378752518 ], [ -0.328236604765416, 5.510731957253408 ], [ -0.337254955872342, 5.510772385595453 ], [ -0.337295200982622, 5.50173574040625 ], [ -0.32827698578563, 5.501695378752518 ] ] ] } },
{ "type": "Feature", "properties": { "seed_idx": 99, "delta_h": -15.690861521388888 }, "geometry": { "type": "Polygon", "coordinates": [ [ [ -0.328710613419719, 5.500591172493595 ], [ -0.328670247095021, 5.509627754540427 ], [ -0.337688584746689, 5.509668168241402 ], [ -0.337728815188933, 5.500631519517182 ], [ -0.328710613419719, 5.500591172493595 ] ] ] } },
{ "type": "Feature", "properties": { "seed_idx": 100, "delta_h": -15.690861521388888 }, "geometry": { "type": "Polygon", "coordinates": [ [ [ -0.3300947625248, 5.499746702193741 ], [ -0.330054423328142, 5.508783294746066 ], [ -0.339072758456766, 5.508823681314894 ], [ -0.339112961791521, 5.49978702211977 ], [ -0.3300947625248, 5.499746702193741 ] ] ] } },
{ "type": "Feature", "properties": { "seed_idx": 101, "delta_h": -15.690861521388888 }, "geometry": { "type": "Polygon", "coordinates": [ [ [ -0.330851418684957, 5.49972376932992 ], [ -0.330811091081426, 5.508760367490402 ], [ -0.339829431444781, 5.508800742434766 ], [ -0.339869623186649, 5.499764077650354 ], [ -0.330851418684957, 5.49972376932992 ] ] ] } },
{ "type": "Feature", "properties": { "seed_idx": 102, "delta_h": -15.690861521388888 }, "geometry": { "type": "Polygon", "coordinates": [ [ [ -0.331363320585464, 5.499565008932421 ], [ -0.331323001880736, 5.508601610929362 ], [ -0.340341343624544, 5.50864197696321 ], [ -0.340381526471361, 5.499605308355119 ], [ -0.331363320585464, 5.499565008932421 ] ] ] } },
{ "type": "Feature", "properties": { "seed_idx": 103, "delta_h": -15.690861521388888 }, "geometry": { "type": "Polygon", "coordinates": [ [ [ -0.330960725349047, 5.499613501545868 ], [ -0.330920400208641, 5.508650100548678 ], [ -0.339938739715211, 5.508690473032475 ], [ -0.339978928996669, 5.499653807408473 ], [ -0.330960725349047, 5.499613501545868 ] ] ] } },
{ "type": "Feature", "properties": { "seed_idx": 104, "delta_h": -15.690861521388888 }, "geometry": { "type": "Polygon", "coordinates": [ [ [ -0.331101126985135, 5.49961285836044 ], [ -0.331060803969219, 5.508649458402567 ], [ -0.340079144501375, 5.50868982875582 ], [ -0.340119331658298, 5.499653162096003 ], [ -0.331101126985135, 5.49961285836044 ] ] ] } },
{ "type": "Feature", "properties": { "seed_idx": 105, "delta_h": -15.690861521388888 }, "geometry": { "type": "Polygon", "coordinates": [ [ [ -0.332430387511056, 5.498970136943459 ], [ -0.332390089299013, 5.508006747014925 ], [ -0.341408429938613, 5.508047092549129 ], [ -0.341448592307181, 5.499010415893177 ], [ -0.332430387511056, 5.498970136943459 ] ] ] } },
{ "type": "Feature", "properties": { "seed_idx": 106, "delta_h": -15.690861521388888 }, "geometry": { "type": "Polygon", "coordinates": [ [ [ -0.333035642025203, 5.498973572498445 ], [ -0.332995352924774, 5.508010187045548 ], [ -0.342013698076315, 5.50805052344162 ], [ -0.342053851332918, 5.49901384232512 ], [ -0.333035642025203, 5.498973572498445 ] ] ] } },
{ "type": "Feature", "properties": { "seed_idx": 107, "delta_h": -15.690861521388888 }, "geometry": { "type": "Polygon", "coordinates": [ [ [ -0.333312928551717, 5.49861439723862 ], [ -0.333272646282425, 5.507651013944752 ], [ -0.342290988061512, 5.507691343521409 ], [ -0.342331134495856, 5.498654660252826 ], [ -0.333312928551717, 5.49861439723862 ] ] ] } },
{ "type": "Feature", "properties": { "seed_idx": 108, "delta_h": -15.690861521388888 }, "geometry": { "type": "Polygon", "coordinates": [ [ [ -0.333478879133713, 5.498691359128011 ], [ -0.333438598802682, 5.507727977038027 ], [ -0.342456942964719, 5.507768304664121 ], [ -0.342497087458799, 5.498731620195784 ], [ -0.333478879133713, 5.498691359128011 ] ] ] } },
{ "type": "Feature", "properties": { "seed_idx": 109, "delta_h": -15.690861521388888 }, "geometry": { "type": "Polygon", "coordinates": [ [ [ -0.333327714706938, 5.49864062324765 ], [ -0.333287432467697, 5.507677240055203 ], [ -0.34230577475113, 5.50771756959943 ], [ -0.342345921154759, 5.498680886229794 ], [ -0.333327714706938, 5.49864062324765 ] ] ] } },
{ "type": "Feature", "properties": { "seed_idx": 110, "delta_h": -15.690861521388888 }, "geometry": { "type": "Polygon", "coordinates": [ [ [ -0.33429738942462, 5.498642319762707 ], [ -0.334257121810224, 5.507678943738898 ], [ -0.343275471261901, 5.50771925861604 ], [ -0.343315603040214, 5.498682568101942 ], [ -0.33429738942462, 5.498642319762707 ] ] ] } },
{ "type": "Feature", "properties": { "seed_idx": 111, "delta_h": -15.690861521388888 }, "geometry": { "type": "Polygon", "coordinates": [ [ [ -0.334668075735103, 5.498578306031781 ], [ -0.334627814187459, 5.50761493276723 ], [ -0.343646165403806, 5.507655241565748 ], [ -0.343686291116808, 5.49861854830164 ], [ -0.334668075735103, 5.498578306031781 ] ] ] } },
{ "type": "Feature", "properties": { "seed_idx": 112, "delta_h": -15.690861521388888 }, "geometry": { "type": "Polygon", "coordinates": [ [ [ -0.33562591978625, 5.497619298199128 ], [ -0.335585679753872, 5.506655932302283 ], [ -0.344604023564633, 5.506696219607304 ], [ -0.34464412778598, 5.497659518999465 ], [ -0.33562591978625, 5.497619298199128 ] ] ] } },
{ "type": "Feature", "properties": { "seed_idx": 113, "delta_h": -15.690861521388888 }, "geometry": { "type": "Polygon", "coordinates": [ [ [ -0.336671421372906, 5.496801553218413 ], [ -0.336631203134392, 5.505838195291441 ], [ -0.345649542313648, 5.505878460811156 ], [ -0.345689624761162, 5.496841752259595 ], [ -0.336671421372906, 5.496801553218413 ] ] ] } },
{ "type": "Feature", "properties": { "seed_idx": 114, "delta_h": -15.690861521388888 }, "geometry": { "type": "Polygon", "coordinates": [ [ [ -0.336997425554103, 5.496740400327681 ], [ -0.336957212684759, 5.505777044826707 ], [ -0.345975553340955, 5.505817304967112 ], [ -0.346015630420688, 5.496780593997688 ], [ -0.336997425554103, 5.496740400327681 ] ] ] } },
{ "type": "Feature", "properties": { "seed_idx": 115, "delta_h": -15.690861521388888 }, "geometry": { "type": "Polygon", "coordinates": [ [ [ -0.341005705225813, 5.496301488771628 ], [ -0.340965556064177, 5.50533816298015 ], [ -0.349983919572984, 5.505378359267492 ], [ -0.350023932954242, 5.496341618688548 ], [ -0.341005705225813, 5.496301488771628 ] ] ] } },
{ "type": "Feature", "properties": { "seed_idx": 116, "delta_h": -15.690861521388888 }, "geometry": { "type": "Polygon", "coordinates": [ [ [ -0.342766385729849, 5.494394630449742 ], [ -0.34272627712819, 5.503431318211702 ], [ -0.35174462483436, 5.50347147398805 ], [ -0.351784597702656, 5.494434719899756 ], [ -0.342766385729849, 5.494394630449742 ] ] ] } }
]
}
