{
"type": "FeatureCollection",
"name": "predicted_seed_points",
"crs": { "type": "name", "properties": { "name": "urn:ogc:def:crs:OGC:1.3:CRS84" } },
"features": [
{ "type": "Feature", "properties": { "seed_idx": 0, "source_id": 0, "delta_h": -3.8180555555555555, "mean_lon": 31.294404792785645, "mean_lat": -29.754773521423338, "dx_m": 2645.3158720747451, "dy_m": 3612.3518290407956, "n_particles": 20 }, "geometry": { "type": "Point", "coordinates": [ 31.294404792785649, -29.754773521423335 ] } },
{ "type": "Feature", "properties": { "seed_idx": 1, "source_id": 1, "delta_h": -3.8180555555555555, "mean_lon": 31.309784698486329, "mean_lat": -29.74179639816284, "dx_m": 4953.2452491851291, "dy_m": 7914.9493985893205, "n_particles": 20 }, "geometry": { "type": "Point", "coordinates": [ 31.309784698486332, -29.741796398162844 ] } },
{ "type": "Feature", "properties": { "seed_idx": 2, "source_id": 2, "delta_h": -3.8180555555555555, "mean_lon": 31.276227188110351, "mean_lat": -29.76996831893921, "dx_m": 2342.9345342136221, "dy_m": 6370.9048693561926, "n_particles": 20 }, "geometry": { "type": "Point", "coordinates": [ 31.276227188110351, -29.769968318939217 ] } },
{ "type": "Feature", "properties": { "seed_idx": 3, "source_id": 3, "delta_h": -3.8180555555555555, "mean_lon": 31.302357959747315, "mean_lat": -29.745155429840089, "dx_m": 4085.3026000480168, "dy_m": 6725.3072718614712, "n_particles": 20 }, "geometry": { "type": "Point", "coordinates": [ 31.302357959747319, -29.745155429840086 ] } },
{ "type": "Feature", "properties": { "seed_idx": 4, "source_id": 4, "delta_h": -3.8180555555555555, "mean_lon": 31.251542377471925, "mean_lat": -29.812892150878906, "dx_m": -1187.4600616676034, "dy_m": -2956.9206785932183, "n_particles": 20 }, "geometry": { "type": "Point", "coordinates": [ 31.251542377471925, -29.812892150878913 ] } },
{ "type": "Feature", "properties": { "seed_idx": 5, "source_id": 5, "delta_h": -3.8180555555555555, "mean_lon": 31.266557025909425, "mean_lat": -29.779342937469483, "dx_m": 966.04131952777971, "dy_m": 3994.2097222879529, "n_particles": 20 }, "geometry": { "type": "Point", "coordinates": [ 31.266557025909421, -29.779342937469483 ] } },
{ "type": "Feature", "properties": { "seed_idx": 6, "source_id": 6, "delta_h": -3.8180555555555555, "mean_lon": 31.276321983337404, "mean_lat": -29.769888210296632, "dx_m": -1907.9070564088179, "dy_m": -1425.7480137124658, "n_particles": 20 }, "geometry": { "type": "Point", "coordinates": [ 31.276321983337404, -29.769888210296628 ] } },
{ "type": "Feature", "properties": { "seed_idx": 7, "source_id": 7, "delta_h": -3.8180555555555555, "mean_lon": 31.267699909210204, "mean_lat": -29.776576042175293, "dx_m": 273.84239843551768, "dy_m": 1951.6190622951835, "n_particles": 20 }, "geometry": { "type": "Point", "coordinates": [ 31.267699909210204, -29.776576042175297 ] } },
{ "type": "Feature", "properties": { "seed_idx": 8, "source_id": 8, "delta_h": -3.8180555555555555, "mean_lon": 31.247940540313721, "mean_lat": -29.818860435485838, "dx_m": -519.48995995015139, "dy_m": 416.95979325845838, "n_particles": 20 }, "geometry": { "type": "Point", "coordinates": [ 31.247940540313724, -29.818860435485838 ] } },
{ "type": "Feature", "properties": { "seed_idx": 9, "source_id": 9, "delta_h": -3.8180555555555555, "mean_lon": 31.265734672546387, "mean_lat": -29.780118846893309, "dx_m": 1010.8378901580581, "dy_m": 4295.4297981429845, "n_particles": 20 }, "geometry": { "type": "Point", "coordinates": [ 31.265734672546387, -29.780118846893313 ] } },
{ "type": "Feature", "properties": { "seed_idx": 10, "source_id": 10, "delta_h": -3.8180555555555555, "mean_lon": 31.274432277679445, "mean_lat": -29.770655059814452, "dx_m": -2239.6916406217497, "dy_m": -1680.6451025530696, "n_particles": 20 }, "geometry": { "type": "Point", "coordinates": [ 31.274432277679448, -29.770655059814452 ] } },
{ "type": "Feature", "properties": { "seed_idx": 11, "source_id": 11, "delta_h": -3.8180555555555555, "mean_lon": 31.296192646026611, "mean_lat": -29.752227973937988, "dx_m": 2443.4916892589536, "dy_m": 3344.5582222249359, "n_particles": 20 }, "geometry": { "type": "Point", "coordinates": [ 31.296192646026615, -29.75222797393798 ] } },
{ "type": "Feature", "properties": { "seed_idx": 12, "source_id": 12, "delta_h": -3.8180555555555555, "mean_lon": 31.26494207382202, "mean_lat": -29.784417438507081, "dx_m": -81.177344758994877, "dy_m": 860.55197786912322, "n_particles": 20 }, "geometry": { "type": "Point", "coordinates": [ 31.264942073822017, -29.784417438507077 ] } },
{ "type": "Feature", "properties": { "seed_idx": 13, "source_id": 13, "delta_h": -3.8180555555555555, "mean_lon": 31.249197483062744, "mean_lat": -29.816704559326173, "dx_m": -971.81833800388267, "dy_m": -1394.855481586419, "n_particles": 20 }, "geometry": { "type": "Point", "coordinates": [ 31.249197483062741, -29.816704559326169 ] } },
{ "type": "Feature", "properties": { "seed_idx": 14, "source_id": 14, "delta_h": -3.8180555555555555, "mean_lon": 31.253989791870119, "mean_lat": -29.806691360473632, "dx_m": -908.5682536418899, "dy_m": -2145.3698477223516, "n_particles": 20 }, "geometry": { "type": "Point", "coordinates": [ 31.253989791870122, -29.806691360473629 ] } },
{ "type": "Feature", "properties": { "seed_idx": 15, "source_id": 15, "delta_h": -3.8180555555555555, "mean_lon": 31.268475246429443, "mean_lat": -29.779320240020752, "dx_m": 1488.788110123598, "dy_m": 4985.9785379972309, "n_particles": 20 }, "geometry": { "type": "Point", "coordinates": [ 31.268475246429443, -29.779320240020752 ] } },
{ "type": "Feature", "properties": { "seed_idx": 16, "source_id": 16, "delta_h": -3.8180555555555555, "mean_lon": 31.265305900573729, "mean_lat": -29.778674888610841, "dx_m": -284.36882966820849, "dy_m": 1012.9110041856766, "n_particles": 20 }, "geometry": { "type": "Point", "coordinates": [ 31.265305900573733, -29.778674888610837 ] } },
{ "type": "Feature", "properties": { "seed_idx": 17, "source_id": 17, "delta_h": -3.8180555555555555, "mean_lon": 31.248899078369142, "mean_lat": -29.816856861114502, "dx_m": -582.60256185510661, "dy_m": 168.72584541793913, "n_particles": 20 }, "geometry": { "type": "Point", "coordinates": [ 31.248899078369142, -29.816856861114495 ] } },
{ "type": "Feature", "properties": { "seed_idx": 18, "source_id": 18, "delta_h": -3.8180555555555555, "mean_lon": 31.265466117858885, "mean_lat": -29.780796527862549, "dx_m": -73.353439370985143, "dy_m": 1052.8598453383893, "n_particles": 20 }, "geometry": { "type": "Point", "coordinates": [ 31.265466117858889, -29.780796527862542 ] } },
{ "type": "Feature", "properties": { "seed_idx": 19, "source_id": 19, "delta_h": -3.8180555555555555, "mean_lon": 31.246663665771486, "mean_lat": -29.823482418060301, "dx_m": -1641.7297034178628, "dy_m": -3726.8212809022516, "n_particles": 20 }, "geometry": { "type": "Point", "coordinates": [ 31.246663665771486, -29.823482418060298 ] } },
{ "type": "Feature", "properties": { "seed_idx": 20, "source_id": 20, "delta_h": -3.8180555555555555, "mean_lon": 31.263854122161867, "mean_lat": -29.785775756835939, "dx_m": -999.94571534160059, "dy_m": -657.42042180057615, "n_particles": 20 }, "geometry": { "type": "Point", "coordinates": [ 31.263854122161867, -29.785775756835935 ] } },
{ "type": "Feature", "properties": { "seed_idx": 21, "source_id": 21, "delta_h": -3.8180555555555555, "mean_lon": 31.299385643005373, "mean_lat": -29.747305107116699, "dx_m": 1066.5266994369449, "dy_m": 2406.9692464638501, "n_particles": 20 }, "geometry": { "type": "Point", "coordinates": [ 31.299385643005373, -29.747305107116691 ] } },
{ "type": "Feature", "properties": { "seed_idx": 22, "source_id": 22, "delta_h": -3.8180555555555555, "mean_lon": 31.255309295654296, "mean_lat": -29.805274105072023, "dx_m": -2401.1939587676316, "dy_m": -3630.4021190796047, "n_particles": 20 }, "geometry": { "type": "Point", "coordinates": [ 31.255309295654296, -29.805274105072023 ] } },
{ "type": "Feature", "properties": { "seed_idx": 23, "source_id": 23, "delta_h": -3.8180555555555555, "mean_lon": 31.250501251220705, "mean_lat": -29.813396549224855, "dx_m": -2.4069283326389268, "dy_m": 2157.1067279335111, "n_particles": 20 }, "geometry": { "type": "Point", "coordinates": [ 31.250501251220705, -29.813396549224858 ] } },
{ "type": "Feature", "properties": { "seed_idx": 24, "source_id": 24, "delta_h": -3.8180555555555555, "mean_lon": 31.264651584625245, "mean_lat": -29.780592060089113, "dx_m": -243.20843624888221, "dy_m": 632.47955841291696, "n_particles": 20 }, "geometry": { "type": "Point", "coordinates": [ 31.264651584625245, -29.780592060089116 ] } },
{ "type": "Feature", "properties": { "seed_idx": 25, "source_id": 25, "delta_h": -3.8180555555555555, "mean_lon": 31.301084804534913, "mean_lat": -29.746176052093507, "dx_m": 4235.180721645942, "dy_m": 7766.1530114989728, "n_particles": 20 }, "geometry": { "type": "Point", "coordinates": [ 31.301084804534913, -29.74617605209351 ] } },
{ "type": "Feature", "properties": { "seed_idx": 26, "source_id": 26, "delta_h": -3.8180555555555555, "mean_lon": 31.274172687530516, "mean_lat": -29.771324539184569, "dx_m": 1250.6996414602036, "dy_m": 3336.3434009607881, "n_particles": 20 }, "geometry": { "type": "Point", "coordinates": [ 31.274172687530516, -29.771324539184569 ] } },
{ "type": "Feature", "properties": { "seed_idx": 27, "source_id": 27, "delta_h": -3.8180555555555555, "mean_lon": 31.294381713867189, "mean_lat": -29.755375194549561, "dx_m": 2653.7469255870674, "dy_m": 3576.9607219090685, "n_particles": 20 }, "geometry": { "type": "Point", "coordinates": [ 31.294381713867192, -29.755375194549561 ] } },
{ "type": "Feature", "properties": { "seed_idx": 28, "source_id": 28, "delta_h": -3.8180555555555555, "mean_lon": 31.265135097503663, "mean_lat": -29.780052566528319, "dx_m": -1306.0023155099479, "dy_m": -442.39655403513461, "n_particles": 20 }, "geometry": { "type": "Point", "coordinates": [ 31.265135097503663, -29.780052566528315 ] } },
{ "type": "Feature", "properties": { "seed_idx": 29, "source_id": 29, "delta_h": -3.8180555555555555, "mean_lon": 31.254542064666747, "mean_lat": -29.806132125854493, "dx_m": -785.56543439743109, "dy_m": -1731.5230353875086, "n_particles": 20 }, "geometry": { "type": "Point", "coordinates": [ 31.254542064666751, -29.806132125854493 ] } },
{ "type": "Feature", "properties": { "seed_idx": 30, "source_id": 30, "delta_h": -3.8180555555555555, "mean_lon": 31.263419437408448, "mean_lat": -29.781342411041258, "dx_m": 573.35299896541983, "dy_m": 3599.3356196451932, "n_particles": 20 }, "geometry": { "type": "Point", "coordinates": [ 31.263419437408452, -29.781342411041262 ] } },
{ "type": "Feature", "properties": { "seed_idx": 31, "source_id": 31, "delta_h": -3.8180555555555555, "mean_lon": 31.280553340911865, "mean_lat": -29.766117095947266, "dx_m": 1506.8868591897772, "dy_m": 2606.0337159214541, "n_particles": 20 }, "geometry": { "type": "Point", "coordinates": [ 31.280553340911869, -29.766117095947273 ] } },
{ "type": "Feature", "properties": { "seed_idx": 32, "source_id": 32, "delta_h": -3.8180555555555555, "mean_lon": 31.267185497283936, "mean_lat": -29.777851581573486, "dx_m": -2324.9027251072112, "dy_m": -1350.8032156126574, "n_particles": 20 }, "geometry": { "type": "Point", "coordinates": [ 31.26718549728394, -29.777851581573483 ] } },
{ "type": "Feature", "properties": { "seed_idx": 33, "source_id": 33, "delta_h": -3.8180555555555555, "mean_lon": 31.259830665588378, "mean_lat": -29.792736530303955, "dx_m": -1234.3942732446594, "dy_m": -1300.4891421832144, "n_particles": 20 }, "geometry": { "type": "Point", "coordinates": [ 31.259830665588378, -29.792736530303941 ] } },
{ "type": "Feature", "properties": { "seed_idx": 34, "source_id": 34, "delta_h": -3.8180555555555555, "mean_lon": 31.253514862060548, "mean_lat": -29.808223533630372, "dx_m": -4127.5058069133083, "dy_m": -5727.6384850470349, "n_particles": 20 }, "geometry": { "type": "Point", "coordinates": [ 31.253514862060548, -29.808223533630379 ] } },
{ "type": "Feature", "properties": { "seed_idx": 35, "source_id": 35, "delta_h": -3.8180555555555555, "mean_lon": 31.268018054962159, "mean_lat": -29.77674045562744, "dx_m": 354.946046000754, "dy_m": 1461.4997998829931, "n_particles": 20 }, "geometry": { "type": "Point", "coordinates": [ 31.268018054962162, -29.776740455627436 ] } },
{ "type": "Feature", "properties": { "seed_idx": 36, "source_id": 36, "delta_h": -3.8180555555555555, "mean_lon": 31.245722389221193, "mean_lat": -29.826703453063963, "dx_m": -759.92145246599102, "dy_m": -711.59530302789062, "n_particles": 20 }, "geometry": { "type": "Point", "coordinates": [ 31.245722389221196, -29.82670345306396 ] } },
{ "type": "Feature", "properties": { "seed_idx": 37, "source_id": 37, "delta_h": -3.8180555555555555, "mean_lon": 31.283075428009035, "mean_lat": -29.762511348724367, "dx_m": 2373.2950852711801, "dy_m": 5621.7061006743461, "n_particles": 20 }, "geometry": { "type": "Point", "coordinates": [ 31.283075428009035, -29.76251134872436 ] } },
{ "type": "Feature", "properties": { "seed_idx": 38, "source_id": 38, "delta_h": -3.8180555555555555, "mean_lon": 31.290501594543457, "mean_lat": -29.758452129364013, "dx_m": -486.94652423920343, "dy_m": -29.962974652647972, "n_particles": 20 }, "geometry": { "type": "Point", "coordinates": [ 31.290501594543457, -29.758452129364024 ] } },
{ "type": "Feature", "properties": { "seed_idx": 39, "source_id": 39, "delta_h": -3.8180555555555555, "mean_lon": 31.275638771057128, "mean_lat": -29.770179653167723, "dx_m": 1071.3214834788814, "dy_m": 2736.2434805799276, "n_particles": 20 }, "geometry": { "type": "Point", "coordinates": [ 31.275638771057132, -29.770179653167716 ] } },
{ "type": "Feature", "properties": { "seed_idx": 40, "source_id": 40, "delta_h": -3.8180555555555555, "mean_lon": 31.264810466766356, "mean_lat": -29.780769252777098, "dx_m": 1266.3865931899636, "dy_m": 5447.8951391298324, "n_particles": 20 }, "geometry": { "type": "Point", "coordinates": [ 31.264810466766356, -29.780769252777102 ] } },
{ "type": "Feature", "properties": { "seed_idx": 41, "source_id": 41, "delta_h": -3.8180555555555555, "mean_lon": 31.26657590866089, "mean_lat": -29.780958080291747, "dx_m": 138.07979074097238, "dy_m": 1010.9004266997799, "n_particles": 20 }, "geometry": { "type": "Point", "coordinates": [ 31.266575908660894, -29.78095808029175 ] } },
{ "type": "Feature", "properties": { "seed_idx": 42, "source_id": 42, "delta_h": -3.8180555555555555, "mean_lon": 31.252161216735839, "mean_lat": -29.81114387512207, "dx_m": -52.519810708006844, "dy_m": 1374.3184626670554, "n_particles": 20 }, "geometry": { "type": "Point", "coordinates": [ 31.252161216735836, -29.811143875122063 ] } },
{ "type": "Feature", "properties": { "seed_idx": 43, "source_id": 43, "delta_h": -3.8180555555555555, "mean_lon": 31.268799304962158, "mean_lat": -29.778382396697999, "dx_m": 397.10205060488079, "dy_m": 1090.3783021615818, "n_particles": 20 }, "geometry": { "type": "Point", "coordinates": [ 31.268799304962158, -29.778382396698003 ] } },
{ "type": "Feature", "properties": { "seed_idx": 44, "source_id": 44, "delta_h": -3.8180555555555555, "mean_lon": 31.248755645751952, "mean_lat": -29.817325878143311, "dx_m": -1810.9173461516039, "dy_m": -3199.1380718704313, "n_particles": 20 }, "geometry": { "type": "Point", "coordinates": [ 31.248755645751952, -29.817325878143315 ] } },
{ "type": "Feature", "properties": { "seed_idx": 45, "source_id": 45, "delta_h": -3.8180555555555555, "mean_lon": 31.264598655700684, "mean_lat": -29.778001689910887, "dx_m": 720.51257240341511, "dy_m": 4020.6687384452671, "n_particles": 20 }, "geometry": { "type": "Point", "coordinates": [ 31.264598655700688, -29.778001689910884 ] } },
{ "type": "Feature", "properties": { "seed_idx": 46, "source_id": 46, "delta_h": -3.8180555555555555, "mean_lon": 31.258330440521242, "mean_lat": -29.795850086212159, "dx_m": 506.89824810292339, "dy_m": 3079.1994907036424, "n_particles": 20 }, "geometry": { "type": "Point", "coordinates": [ 31.258330440521238, -29.795850086212159 ] } },
{ "type": "Feature", "properties": { "seed_idx": 47, "source_id": 47, "delta_h": -3.8180555555555555, "mean_lon": 31.26575059890747, "mean_lat": -29.783036041259766, "dx_m": 70.079571904207114, "dy_m": 1163.7926633050665, "n_particles": 20 }, "geometry": { "type": "Point", "coordinates": [ 31.26575059890747, -29.783036041259763 ] } },
{ "type": "Feature", "properties": { "seed_idx": 48, "source_id": 48, "delta_h": -3.8180555555555555, "mean_lon": 31.271649456024171, "mean_lat": -29.7723388671875, "dx_m": -2042.4243198533659, "dy_m": -1072.4534023404121, "n_particles": 20 }, "geometry": { "type": "Point", "coordinates": [ 31.271649456024171, -29.772338867187504 ] } },
{ "type": "Feature", "properties": { "seed_idx": 49, "source_id": 49, "delta_h": -3.8180555555555555, "mean_lon": 31.302033615112304, "mean_lat": -29.744804573059081, "dx_m": 2750.8136093694484, "dy_m": 4002.031085183844, "n_particles": 20 }, "geometry": { "type": "Point", "coordinates": [ 31.302033615112308, -29.744804573059081 ] } },
{ "type": "Feature", "properties": { "seed_idx": 50, "source_id": 50, "delta_h": -3.8180555555555555, "mean_lon": 31.251855564117431, "mean_lat": -29.811391735076903, "dx_m": -1256.2029876768356, "dy_m": -2459.9747887216508, "n_particles": 20 }, "geometry": { "type": "Point", "coordinates": [ 31.251855564117431, -29.811391735076899 ] } },
{ "type": "Feature", "properties": { "seed_idx": 51, "source_id": 51, "delta_h": -3.8180555555555555, "mean_lon": 31.249930000305177, "mean_lat": -29.815797328948975, "dx_m": -190.74598069896456, "dy_m": 1069.4870294965804, "n_particles": 20 }, "geometry": { "type": "Point", "coordinates": [ 31.249930000305181, -29.815797328948964 ] } },
{ "type": "Feature", "properties": { "seed_idx": 52, "source_id": 52, "delta_h": -3.8180555555555555, "mean_lon": 31.264442443847656, "mean_lat": -29.785119247436523, "dx_m": -233.64620342454873, "dy_m": 96.27207104768604, "n_particles": 20 }, "geometry": { "type": "Point", "coordinates": [ 31.264442443847656, -29.785119247436523 ] } },
{ "type": "Feature", "properties": { "seed_idx": 53, "source_id": 53, "delta_h": -3.8180555555555555, "mean_lon": 31.300249767303466, "mean_lat": -29.746336936950684, "dx_m": 2405.108429294196, "dy_m": 3742.7537684552372, "n_particles": 20 }, "geometry": { "type": "Point", "coordinates": [ 31.300249767303466, -29.746336936950676 ] } },
{ "type": "Feature", "properties": { "seed_idx": 54, "source_id": 54, "delta_h": -3.8180555555555555, "mean_lon": 31.253422737121582, "mean_lat": -29.807685565948486, "dx_m": -1166.9596233681077, "dy_m": -2116.7116474006325, "n_particles": 20 }, "geometry": { "type": "Point", "coordinates": [ 31.253422737121586, -29.807685565948482 ] } },
{ "type": "Feature", "properties": { "seed_idx": 55, "source_id": 55, "delta_h": -3.8180555555555555, "mean_lon": 31.265275287628175, "mean_lat": -29.776881980895997, "dx_m": 970.86275534139713, "dy_m": 4803.8876762203872, "n_particles": 20 }, "geometry": { "type": "Point", "coordinates": [ 31.265275287628178, -29.776881980895997 ] } },
{ "type": "Feature", "properties": { "seed_idx": 56, "source_id": 56, "delta_h": -3.8180555555555555, "mean_lon": 31.257599639892579, "mean_lat": -29.797107315063478, "dx_m": -3866.4502349945251, "dy_m": -4601.0931060500443, "n_particles": 20 }, "geometry": { "type": "Point", "coordinates": [ 31.257599639892575, -29.797107315063471 ] } },
{ "type": "Feature", "properties": { "seed_idx": 57, "source_id": 57, "delta_h": -3.8180555555555555, "mean_lon": 31.24728708267212, "mean_lat": -29.82047805786133, "dx_m": -2575.4661752763204, "dy_m": -4540.0764713231474, "n_particles": 20 }, "geometry": { "type": "Point", "coordinates": [ 31.24728708267212, -29.820478057861322 ] } },
{ "type": "Feature", "properties": { "seed_idx": 58, "source_id": 58, "delta_h": -3.8180555555555555, "mean_lon": 31.255154895782471, "mean_lat": -29.804839801788329, "dx_m": -4788.6423052280443, "dy_m": -5846.296185082756, "n_particles": 20 }, "geometry": { "type": "Point", "coordinates": [ 31.255154895782471, -29.804839801788329 ] } },
{ "type": "Feature", "properties": { "seed_idx": 59, "source_id": 59, "delta_h": -3.8180555555555555, "mean_lon": 31.267432403564452, "mean_lat": -29.777477455139159, "dx_m": -2297.055795962282, "dy_m": -1377.3894742568955, "n_particles": 20 }, "geometry": { "type": "Point", "coordinates": [ 31.267432403564452, -29.777477455139159 ] } }
]
}
