{
"type": "FeatureCollection",
"name": "search_boxes_1km",
"crs": { "type": "name", "properties": { "name": "urn:ogc:def:crs:OGC:1.3:CRS84" } },
"features": [
{ "type": "Feature", "properties": { "seed_idx": 0, "delta_h": -3.8180555555555555 }, "geometry": { "type": "Polygon", "coordinates": [ [ [ 31.299497823607524, -29.759350553350238 ], [ 31.299650142391489, -29.750329596366889 ], [ 31.289312224454608, -29.7501963086549 ], [ 31.289158980688971, -29.759217217165553 ], [ 31.299497823607524, -29.759350553350238 ] ] ] } },
{ "type": "Feature", "properties": { "seed_idx": 1, "delta_h": -3.8180555555555555 }, "geometry": { "type": "Polygon", "coordinates": [ [ [ 31.31487783313559, -29.746372847979082 ], [ 31.315028695444777, -29.737351801463475 ], [ 31.304692026040318, -29.737219767387852 ], [ 31.304540239324641, -29.746240765873253 ], [ 31.31487783313559, -29.746372847979082 ] ] ] } },
{ "type": "Feature", "properties": { "seed_idx": 2, "delta_h": -3.8180555555555555 }, "geometry": { "type": "Polygon", "coordinates": [ [ [ 31.281320088451057, -29.774546038848744 ], [ 31.281474129638948, -29.765525188335719 ], [ 31.271134750597071, -29.765390418327897 ], [ 31.270979783754324, -29.774411219845192 ], [ 31.281320088451057, -29.774546038848744 ] ] ] } },
{ "type": "Feature", "properties": { "seed_idx": 3, "delta_h": -3.8180555555555555 }, "geometry": { "type": "Polygon", "coordinates": [ [ [ 31.307450904120504, -29.749732156865775 ], [ 31.307602451741936, -29.740711149537603 ], [ 31.297265477648526, -29.740578521935451 ], [ 31.297113005478312, -29.749599481021097 ], [ 31.307450904120504, -29.749732156865775 ] ] ] } },
{ "type": "Feature", "properties": { "seed_idx": 4, "delta_h": -3.8180555555555555 }, "geometry": { "type": "Polygon", "coordinates": [ [ [ 31.256636175151375, -29.81747083629438 ], [ 31.256792699404162, -29.808450162259827 ], [ 31.246449043597384, -29.808313284773678 ], [ 31.246291591734781, -29.817333909091516 ], [ 31.256636175151375, -29.81747083629438 ] ] ] } },
{ "type": "Feature", "properties": { "seed_idx": 5, "delta_h": -3.8180555555555555 }, "geometry": { "type": "Polygon", "coordinates": [ [ [ 31.271649918747514, -29.783921025219673 ], [ 31.271804885130326, -29.774900233482462 ], [ 31.261464596107945, -29.774764669081559 ], [ 31.261308703651913, -29.783785411544148 ], [ 31.271649918747514, -29.783921025219673 ] ] ] } },
{ "type": "Feature", "properties": { "seed_idx": 6, "delta_h": -3.8180555555555555 }, "geometry": { "type": "Polygon", "coordinates": [ [ [ 31.281414884319116, -29.77446592661671 ], [ 31.281568916514125, -29.765445075544896 ], [ 31.271229545181345, -29.765310313274057 ], [ 31.271074587335029, -29.774331115352879 ], [ 31.281414884319116, -29.77446592661671 ] ] ] } },
{ "type": "Feature", "properties": { "seed_idx": 7, "delta_h": -3.8180555555555555 }, "geometry": { "type": "Polygon", "coordinates": [ [ [ 31.272792722915096, -29.781154084174837 ], [ 31.272947569536967, -29.772133283214149 ], [ 31.262607558478514, -29.771997819543696 ], [ 31.262451785910251, -29.781018571263495 ], [ 31.272792722915096, -29.781154084174837 ] ] ] } },
{ "type": "Feature", "properties": { "seed_idx": 8, "delta_h": -3.8180555555555555 }, "geometry": { "type": "Polygon", "coordinates": [ [ [ 31.253034454666164, -29.823439261504372 ], [ 31.253191340022166, -29.814418612962235 ], [ 31.242847089902043, -29.814281428781641 ], [ 31.242689276664525, -29.823302027501963 ], [ 31.253034454666164, -29.823439261504372 ] ] ] } },
{ "type": "Feature", "properties": { "seed_idx": 9, "delta_h": -3.8180555555555555 }, "geometry": { "type": "Polygon", "coordinates": [ [ [ 31.270827563706444, -29.784696965899297 ], [ 31.270982608665204, -29.775676179143304 ], [ 31.260642244440241, -29.775540547255218 ], [ 31.260486273373672, -29.784561284712865 ], [ 31.270827563706444, -29.784696965899297 ] ] ] } },
{ "type": "Feature", "properties": { "seed_idx": 10, "delta_h": -3.8180555555555555 }, "geometry": { "type": "Polygon", "coordinates": [ [ [ 31.279525125834937, -29.775232846559188 ], [ 31.279679332136581, -29.766212005499149 ], [ 31.269339892365647, -29.766077092388215 ], [ 31.269184760380622, -29.775097884401262 ], [ 31.279525125834937, -29.775232846559188 ] ] ] } },
{ "type": "Feature", "properties": { "seed_idx": 11, "delta_h": -3.8180555555555555 }, "geometry": { "type": "Polygon", "coordinates": [ [ [ 31.301285638934178, -29.756804936803352 ], [ 31.301437781955112, -29.747783967964324 ], [ 31.291100115552293, -29.747650830225744 ], [ 31.290947047664872, -29.756671750643989 ], [ 31.301285638934178, -29.756804936803352 ] ] ] } },
{ "type": "Feature", "properties": { "seed_idx": 12, "delta_h": -3.8180555555555555 }, "geometry": { "type": "Polygon", "coordinates": [ [ [ 31.270035134693291, -29.788995592513647 ], [ 31.270190277645849, -29.779974815405467 ], [ 31.259849476104147, -29.779839103845497 ], [ 31.259693406844782, -29.78885983163083 ], [ 31.270035134693291, -29.788995592513647 ] ] ] } },
{ "type": "Feature", "properties": { "seed_idx": 13, "delta_h": -3.8180555555555555 }, "geometry": { "type": "Polygon", "coordinates": [ [ [ 31.254291353168732, -29.821283336172847 ], [ 31.254448112028687, -29.812262678630542 ], [ 31.244104076848394, -29.812125601792996 ], [ 31.243946390205156, -29.821146209550182 ], [ 31.254291353168732, -29.821283336172847 ] ] ] } },
{ "type": "Feature", "properties": { "seed_idx": 14, "delta_h": -3.8180555555555555 }, "geometry": { "type": "Polygon", "coordinates": [ [ [ 31.259083406653595, -29.811269947397079 ], [ 31.259239672091866, -29.802249253132736 ], [ 31.248896640749166, -29.802112592874753 ], [ 31.248739447985859, -29.811133237494808 ], [ 31.259083406653595, -29.811269947397079 ] ] ] } },
{ "type": "Feature", "properties": { "seed_idx": 15, "delta_h": -3.8180555555555555 }, "geometry": { "type": "Polygon", "coordinates": [ [ [ 31.273568229401953, -29.783898257312426 ], [ 31.27372302369518, -29.774877456401736 ], [ 31.263382726494893, -29.774742042063966 ], [ 31.263227006125742, -29.783762793754502 ], [ 31.273568229401953, -29.783898257312426 ] ] ] } },
{ "type": "Feature", "properties": { "seed_idx": 16, "delta_h": -3.8180555555555555 }, "geometry": { "type": "Polygon", "coordinates": [ [ [ 31.270398701677021, -29.783253021376279 ], [ 31.270553776023309, -29.774232234696086 ], [ 31.260213562490247, -29.774096575230967 ], [ 31.26005756210435, -29.783117312601348 ], [ 31.270398701677021, -29.783253021376279 ] ] ] } },
{ "type": "Feature", "properties": { "seed_idx": 17, "delta_h": -3.8180555555555555 }, "geometry": { "type": "Polygon", "coordinates": [ [ [ 31.253992941611578, -29.821435649134433 ], [ 31.254149728224593, -29.812414993237514 ], [ 31.243805679021609, -29.812277892411117 ], [ 31.243647964618784, -29.821298498514381 ], [ 31.253992941611578, -29.821435649134433 ] ] ] } },
{ "type": "Feature", "properties": { "seed_idx": 18, "delta_h": -3.8180555555555555 }, "geometry": { "type": "Polygon", "coordinates": [ [ [ 31.270559028941651, -29.785374657658121 ], [ 31.270714102220452, -29.776353873108185 ], [ 31.260373669845574, -29.776218217433311 ], [ 31.260217670427878, -29.785238952676966 ], [ 31.270559028941651, -29.785374657658121 ] ] ] } },
{ "type": "Feature", "properties": { "seed_idx": 19, "delta_h": -3.8180555555555555 }, "geometry": { "type": "Polygon", "coordinates": [ [ [ 31.251757742578391, -29.828061297422956 ], [ 31.251914771873714, -29.819040661349252 ], [ 31.241570053012069, -29.818903357993442 ], [ 31.241412095621769, -29.827923944206873 ], [ 31.251757742578391, -29.828061297422956 ] ] ] } },
{ "type": "Feature", "properties": { "seed_idx": 20, "delta_h": -3.8180555555555555 }, "geometry": { "type": "Polygon", "coordinates": [ [ [ 31.268947196822296, -29.790353952655039 ], [ 31.269102445837586, -29.781333182595066 ], [ 31.258761510685471, -29.781197380366592 ], [ 31.258605335302121, -29.790218101072195 ], [ 31.268947196822296, -29.790353952655039 ] ] ] } },
{ "type": "Feature", "properties": { "seed_idx": 21, "delta_h": -3.8180555555555555 }, "geometry": { "type": "Polygon", "coordinates": [ [ [ 31.304478550021585, -29.751881946155333 ], [ 31.304630376911696, -29.742860955651487 ], [ 31.294293198310768, -29.742728087224599 ], [ 31.29414044677743, -29.75174902940056 ], [ 31.304478550021585, -29.751881946155333 ] ] ] } },
{ "type": "Feature", "properties": { "seed_idx": 22, "delta_h": -3.8180555555555555 }, "geometry": { "type": "Polygon", "coordinates": [ [ [ 31.260402904841683, -29.809852641569922 ], [ 31.260559042933625, -29.800831939035088 ], [ 31.250216150097632, -29.80069538789105 ], [ 31.250059084744244, -29.809716040819733 ], [ 31.260402904841683, -29.809852641569922 ] ] ] } },
{ "type": "Feature", "properties": { "seed_idx": 23, "delta_h": -3.8180555555555555 }, "geometry": { "type": "Polygon", "coordinates": [ [ [ 31.255595023657431, -29.817975273583336 ], [ 31.255751644551665, -29.808954605246917 ], [ 31.245407942599641, -29.808817644187549 ], [ 31.245250394074077, -29.817838262777443 ], [ 31.255595023657431, -29.817975273583336 ] ] ] } },
{ "type": "Feature", "properties": { "seed_idx": 24, "delta_h": -3.8180555555555555 }, "geometry": { "type": "Polygon", "coordinates": [ [ [ 31.269744447099121, -29.785170219508046 ], [ 31.269899592114378, -29.776149438566826 ], [ 31.259559185215252, -29.776013720049843 ], [ 31.259403114072231, -29.785034451661765 ], [ 31.269744447099121, -29.785170219508046 ] ] ] } },
{ "type": "Feature", "properties": { "seed_idx": 25, "delta_h": -3.8180555555555555 }, "geometry": { "type": "Polygon", "coordinates": [ [ [ 31.306177737724418, -29.75075282723115 ], [ 31.30632940557371, -29.741731827242599 ], [ 31.295992333642346, -29.74159909608704 ], [ 31.295839741199178, -29.750620047796456 ], [ 31.306177737724418, -29.75075282723115 ] ] ] } },
{ "type": "Feature", "properties": { "seed_idx": 26, "delta_h": -3.8180555555555555 }, "geometry": { "type": "Polygon", "coordinates": [ [ [ 31.279265555642098, -29.77590233637207 ], [ 31.279419789378082, -29.766881497457717 ], [ 31.269080282275986, -29.766746561313933 ], [ 31.268925122825898, -29.775767351173627 ], [ 31.279265555642098, -29.77590233637207 ] ] ] } },
{ "type": "Feature", "properties": { "seed_idx": 27, "delta_h": -3.8180555555555555 }, "geometry": { "type": "Polygon", "coordinates": [ [ [ 31.299474772615802, -29.759952228129638 ], [ 31.299627097171633, -29.750931272075142 ], [ 31.289289117623419, -29.750797980123462 ], [ 31.289135868057915, -29.759818887704355 ], [ 31.299474772615802, -29.759952228129638 ] ] ] } },
{ "type": "Feature", "properties": { "seed_idx": 28, "delta_h": -3.8180555555555555 }, "geometry": { "type": "Polygon", "coordinates": [ [ [ 31.2702279569477, -29.784630707455509 ], [ 31.270383055238096, -29.775609923470181 ], [ 31.260042701111402, -29.77547424497817 ], [ 31.259886676717468, -29.784494979648169 ], [ 31.2702279569477, -29.784630707455509 ] ] ] } },
{ "type": "Feature", "properties": { "seed_idx": 29, "delta_h": -3.8180555555555555 }, "geometry": { "type": "Polygon", "coordinates": [ [ [ 31.259635678748158, -29.810710691719294 ], [ 31.259791891098672, -29.801689994039137 ], [ 31.249448914235352, -29.801553379310782 ], [ 31.249291774584822, -29.810574027362595 ], [ 31.259635678748158, -29.810710691719294 ] ] ] } },
{ "type": "Feature", "properties": { "seed_idx": 30, "delta_h": -3.8180555555555555 }, "geometry": { "type": "Polygon", "coordinates": [ [ [ 31.268512277473018, -29.785920616725917 ], [ 31.26866753764951, -29.776899842692931 ], [ 31.258327060424065, -29.776764024747976 ], [ 31.258170874087213, -29.785784749416315 ], [ 31.268512277473018, -29.785920616725917 ] ] ] } },
{ "type": "Feature", "properties": { "seed_idx": 31, "delta_h": -3.8180555555555555 }, "geometry": { "type": "Polygon", "coordinates": [ [ [ 31.285646261057813, -29.770694651786162 ], [ 31.285799890682988, -29.761673775530245 ], [ 31.275460883507762, -29.761539359375192 ], [ 31.275306328398909, -29.77056018675999 ], [ 31.285646261057813, -29.770694651786162 ] ] ] } },
{ "type": "Feature", "properties": { "seed_idx": 32, "delta_h": -3.8180555555555555 }, "geometry": { "type": "Polygon", "coordinates": [ [ [ 31.272278348060986, -29.782429644206069 ], [ 31.272433248773105, -29.773408847437537 ], [ 31.26209310950933, -29.773273338306048 ], [ 31.261937282792331, -29.782294085818499 ], [ 31.272278348060986, -29.782429644206069 ] ] ] } },
{ "type": "Feature", "properties": { "seed_idx": 33, "delta_h": -3.8180555555555555 }, "geometry": { "type": "Polygon", "coordinates": [ [ [ 31.264923884733072, -29.797314883440716 ], [ 31.265079538265773, -29.788294142119291 ], [ 31.25473790978619, -29.7881579965192 ], [ 31.254581329568484, -29.797178688368749 ], [ 31.264923884733072, -29.797314883440716 ] ] ] } },
{ "type": "Feature", "properties": { "seed_idx": 34, "delta_h": -3.8180555555555555 }, "geometry": { "type": "Polygon", "coordinates": [ [ [ 31.25860852821679, -29.812802140120233 ], [ 31.258764845946175, -29.803781450229174 ], [ 31.24842165960213, -29.803644746459668 ], [ 31.248264414477095, -29.812665386692238 ], [ 31.25860852821679, -29.812802140120233 ] ] ] } },
{ "type": "Feature", "properties": { "seed_idx": 35, "delta_h": -3.8180555555555555 }, "geometry": { "type": "Polygon", "coordinates": [ [ [ 31.273110891727786, -29.781318486172317 ], [ 31.273265710863143, -29.77229768391992 ], [ 31.262925681173879, -29.772162244444608 ], [ 31.262769936083842, -29.781182997465073 ], [ 31.273110891727786, -29.781318486172317 ] ] ] } },
{ "type": "Feature", "properties": { "seed_idx": 36, "delta_h": -3.8180555555555555 }, "geometry": { "type": "Polygon", "coordinates": [ [ [ 31.250816576807267, -29.831282371497895 ], [ 31.250973711058876, -29.822261744364585 ], [ 31.240628665756951, -29.822124353913658 ], [ 31.240470603261688, -29.831144931158434 ], [ 31.250816576807267, -29.831282371497895 ] ] ] } },
{ "type": "Feature", "properties": { "seed_idx": 37, "delta_h": -3.8180555555555555 }, "geometry": { "type": "Polygon", "coordinates": [ [ [ 31.288168294050095, -29.767088807078625 ], [ 31.28832167536077, -29.758067913983172 ], [ 31.277983024628206, -29.757933709629466 ], [ 31.277828717997064, -29.766954553927075 ], [ 31.288168294050095, -29.767088807078625 ] ] ] } },
{ "type": "Feature", "properties": { "seed_idx": 38, "delta_h": -3.8180555555555555 }, "geometry": { "type": "Polygon", "coordinates": [ [ [ 31.295594617488899, -29.763029309561567 ], [ 31.295747308514422, -29.754008375930052 ], [ 31.285409034170819, -29.753874768351633 ], [ 31.285255417999689, -29.762895653397972 ], [ 31.295594617488899, -29.763029309561567 ] ] ] } },
{ "type": "Feature", "properties": { "seed_idx": 39, "delta_h": -3.8180555555555555 }, "geometry": { "type": "Polygon", "coordinates": [ [ [ 31.280731653625566, -29.774757394968919 ], [ 31.280885748855024, -29.765736547535024 ], [ 31.27054635132048, -29.765601730671484 ], [ 31.270391330427451, -29.774622529092852 ], [ 31.280731653625566, -29.774757394968919 ] ] ] } },
{ "type": "Feature", "properties": { "seed_idx": 40, "delta_h": -3.8180555555555555 }, "geometry": { "type": "Polygon", "coordinates": [ [ [ 31.269903345346574, -29.785347406606387 ], [ 31.270058477229778, -29.776326625148474 ], [ 31.259718051254307, -29.776190918323788 ], [ 31.259561993234762, -29.785211650456834 ], [ 31.269903345346574, -29.785347406606387 ] ] ] } },
{ "type": "Feature", "properties": { "seed_idx": 41, "delta_h": -3.8180555555555555 }, "geometry": { "type": "Polygon", "coordinates": [ [ [ 31.271668880325237, -29.78553616956329 ], [ 31.27182385512922, -29.776515379939784 ], [ 31.261483400070855, -29.776379810369317 ], [ 31.261327499118263, -29.785400550717988 ], [ 31.271668880325237, -29.78553616956329 ] ] ] } },
{ "type": "Feature", "properties": { "seed_idx": 42, "delta_h": -3.8180555555555555 }, "geometry": { "type": "Polygon", "coordinates": [ [ [ 31.257254959453743, -29.815722535380715 ], [ 31.257411417113705, -29.806701855983036 ], [ 31.247067937782617, -29.806565034178725 ], [ 31.246910552593285, -29.815585663878075 ], [ 31.257254959453743, -29.815722535380715 ] ] ] } },
{ "type": "Feature", "properties": { "seed_idx": 43, "delta_h": -3.8180555555555555 }, "geometry": { "type": "Polygon", "coordinates": [ [ [ 31.273892258095895, -29.782960400807895 ], [ 31.274047017475869, -29.773939597074094 ], [ 31.263706814844827, -29.773804211925832 ], [ 31.263551129432052, -29.78282496644913 ], [ 31.273892258095895, -29.782960400807895 ] ] ] } },
{ "type": "Feature", "properties": { "seed_idx": 44, "delta_h": -3.8180555555555555 }, "geometry": { "type": "Polygon", "coordinates": [ [ [ 31.253849524816637, -29.821904672084422 ], [ 31.254006327275601, -29.812884017518915 ], [ 31.243662230592985, -29.812746903517105 ], [ 31.243504500322583, -29.821767508284651 ], [ 31.253849524816637, -29.821904672084422 ] ] ] } },
{ "type": "Feature", "properties": { "seed_idx": 45, "delta_h": -3.8180555555555555 }, "geometry": { "type": "Polygon", "coordinates": [ [ [ 31.269691390690554, -29.782579847715038 ], [ 31.269846524211705, -29.773559063492161 ], [ 31.259506383714228, -29.773423351507827 ], [ 31.259350324186261, -29.78244408640111 ], [ 31.269691390690554, -29.782579847715038 ] ] ] } },
{ "type": "Feature", "properties": { "seed_idx": 46, "delta_h": -3.8180555555555555 }, "geometry": { "type": "Polygon", "coordinates": [ [ [ 31.26342373854802, -29.800428498733847 ], [ 31.26357954622706, -29.791407768847055 ], [ 31.253237605908151, -29.791271493039179 ], [ 31.253080871401725, -29.800292173410043 ], [ 31.26342373854802, -29.800428498733847 ] ] ] } },
{ "type": "Feature", "properties": { "seed_idx": 47, "delta_h": -3.8180555555555555 }, "geometry": { "type": "Polygon", "coordinates": [ [ [ 31.270843631581325, -29.787614163683664 ], [ 31.270998693388741, -29.778593380832131 ], [ 31.260658029355579, -29.778457738180272 ], [ 31.260502041304225, -29.787478471732555 ], [ 31.270843631581325, -29.787614163683664 ] ] ] } },
{ "type": "Feature", "properties": { "seed_idx": 48, "delta_h": -3.8180555555555555 }, "geometry": { "type": "Polygon", "coordinates": [ [ [ 31.276742253118453, -29.776916758395412 ], [ 31.276896719293891, -29.767895932853389 ], [ 31.266557121808141, -29.767760795324602 ], [ 31.266401729876215, -29.776781571739853 ], [ 31.276742253118453, -29.776916758395412 ] ] ] } },
{ "type": "Feature", "properties": { "seed_idx": 49, "delta_h": -3.8180555555555555 }, "geometry": { "type": "Polygon", "coordinates": [ [ [ 31.307126527177818, -29.749381311528907 ], [ 31.307278101683128, -29.740360305237189 ], [ 31.296941165312703, -29.740227653717749 ], [ 31.296788666275582, -29.749248611757892 ], [ 31.307126527177818, -29.749381311528907 ] ] ] } },
{ "type": "Feature", "properties": { "seed_idx": 50, "delta_h": -3.8180555555555555 }, "geometry": { "type": "Polygon", "coordinates": [ [ [ 31.256949304245097, -29.815970406906391 ], [ 31.257105790904767, -29.806949729316951 ], [ 31.246762287759946, -29.806812882565122 ], [ 31.246604873559917, -29.815833510447451 ], [ 31.256949304245097, -29.815970406906391 ] ] ] } },
{ "type": "Feature", "properties": { "seed_idx": 51, "delta_h": -3.8180555555555555 }, "geometry": { "type": "Polygon", "coordinates": [ [ [ 31.255023861492418, -29.820376077626502 ], [ 31.255180548851747, -29.81135541531793 ], [ 31.244836602989114, -29.811218399581662 ], [ 31.244678987887443, -29.820239012126347 ], [ 31.255023861492418, -29.820376077626502 ] ] ] } },
{ "type": "Feature", "properties": { "seed_idx": 52, "delta_h": -3.8180555555555555 }, "geometry": { "type": "Polygon", "coordinates": [ [ [ 31.269535514816592, -29.789697420751974 ], [ 31.269690706965129, -29.780676646986667 ], [ 31.259349836048013, -29.780540893467634 ], [ 31.259193717560894, -29.789561617895586 ], [ 31.269535514816592, -29.789697420751974 ] ] ] } },
{ "type": "Feature", "properties": { "seed_idx": 53, "delta_h": -3.8180555555555555 }, "geometry": { "type": "Polygon", "coordinates": [ [ [ 31.30534266863167, -29.750913742966905 ], [ 31.305494412221019, -29.741892747101311 ], [ 31.295157328275149, -29.741759950076322 ], [ 31.295004660086025, -29.750780897639011 ], [ 31.30534266863167, -29.750913742966905 ] ] ] } },
{ "type": "Feature", "properties": { "seed_idx": 54, "delta_h": -3.8180555555555555 }, "geometry": { "type": "Polygon", "coordinates": [ [ [ 31.258516372908478, -29.81226417507655 ], [ 31.258672695509251, -29.803243484893699 ], [ 31.248329565019862, -29.803106776145182 ], [ 31.248172315048745, -29.812127416667177 ], [ 31.258516372908478, -29.81226417507655 ] ] ] } },
{ "type": "Feature", "properties": { "seed_idx": 55, "delta_h": -3.8180555555555555 }, "geometry": { "type": "Polygon", "coordinates": [ [ [ 31.270368000785471, -29.781460112324012 ], [ 31.27052306664093, -29.772439323343708 ], [ 31.260183037448844, -29.772303668868286 ], [ 31.260027045637468, -29.78132440853873 ], [ 31.270368000785471, -29.781460112324012 ] ] ] } },
{ "type": "Feature", "properties": { "seed_idx": 56, "delta_h": -3.8180555555555555 }, "geometry": { "type": "Polygon", "coordinates": [ [ [ 31.262692963820442, -29.801685756157575 ], [ 31.26284884496728, -29.792665031489076 ], [ 31.252506779407039, -29.792528693318562 ], [ 31.252349971375555, -29.801549368449788 ], [ 31.262692963820442, -29.801685756157575 ] ] ] } },
{ "type": "Feature", "properties": { "seed_idx": 57, "delta_h": -3.8180555555555555 }, "geometry": { "type": "Polygon", "coordinates": [ [ [ 31.252381044031168, -29.825056910136766 ], [ 31.252537998306025, -29.816036266953791 ], [ 31.24219358529098, -29.815899024896709 ], [ 31.242035703060306, -29.824919618238521 ], [ 31.252381044031168, -29.825056910136766 ] ] ] } },
{ "type": "Feature", "properties": { "seed_idx": 58, "delta_h": -3.8180555555555555 }, "geometry": { "type": "Polygon", "coordinates": [ [ [ 31.260248476643596, -29.809418343356118 ], [ 31.260404625851354, -29.800397640969528 ], [ 31.250061778541774, -29.800261079543152 ], [ 31.249904702093158, -29.809281732319413 ], [ 31.260248476643596, -29.809418343356118 ] ] ] } },
{ "type": "Feature", "properties": { "seed_idx": 59, "delta_h": -3.8180555555555555 }, "geometry": { "type": "Polygon", "coordinates": [ [ [ 31.272525248034377, -29.78205550819446 ], [ 31.272680124273915, -29.773034709738557 ], [ 31.26234002208848, -29.772899221448455 ], [ 31.262184219861034, -29.781919970655466 ], [ 31.272525248034377, -29.78205550819446 ] ] ] } }
]
}
