{
"type": "FeatureCollection",
"name": "drift_vectors",
"crs": { "type": "name", "properties": { "name": "urn:ogc:def:crs:OGC:1.3:CRS84" } },
"features": [
{ "type": "Feature", "properties": { "seed_idx": 0, "delta_h": 8.3091384786111107, "dx_m": 7216.9171923044378, "dy_m": 3136.8156385503194, "uo_ms": 0.10650959797203541, "vo_ms": 0.018311105668544769, "vsdx_ms": 0.025, "vsdy_ms": 0.025, "u10_ms": 3.6584930419921875, "v10_ms": 2.0517959594726562, "u_total_ms": 0.24126438923180102, "v_total_ms": 0.10486498445272446, "speed_ms": 0.26306875617538494, "wind_source": "era5" }, "geometry": { "type": "LineString", "coordinates": [ [ -0.331624120690846, 5.489725970877636 ], [ -0.266414003237151, 5.517776285701996 ] ] } },
{ "type": "Feature", "properties": { "seed_idx": 1, "delta_h": 8.3091384786111107, "dx_m": 7216.9171923044378, "dy_m": 3136.8156385503194, "uo_ms": 0.10650959797203541, "vo_ms": 0.018311105668544769, "vsdx_ms": 0.025, "vsdy_ms": 0.025, "u10_ms": 3.6584930419921875, "v10_ms": 2.0517959594726562, "u_total_ms": 0.24126438923180102, "v_total_ms": 0.10486498445272446, "speed_ms": 0.26306875617538494, "wind_source": "era5" }, "geometry": { "type": "LineString", "coordinates": [ [ -0.330359793236617, 5.492070244699019 ], [ -0.265149374331174, 5.520120264217947 ] ] } },
{ "type": "Feature", "properties": { "seed_idx": 2, "delta_h": 8.3091384786111107, "dx_m": 7216.9171923044378, "dy_m": 3136.8156385503194, "uo_ms": 0.10650959797203541, "vo_ms": 0.018311105668544769, "vsdx_ms": 0.025, "vsdy_ms": 0.025, "u10_ms": 3.6584930419921875, "v10_ms": 2.0517959594726562, "u_total_ms": 0.24126438923180102, "v_total_ms": 0.10486498445272446, "speed_ms": 0.26306875617538494, "wind_source": "era5" }, "geometry": { "type": "LineString", "coordinates": [ [ -0.329023030355323, 5.494058926423903 ], [ -0.263812357368723, 5.522108660248946 ] ] } },
{ "type": "Feature", "properties": { "seed_idx": 3, "delta_h": 8.3091384786111107, "dx_m": 7216.9171923044378, "dy_m": 3136.8156385503194, "uo_ms": 0.10650959797203541, "vo_ms": 0.018311105668544769, "vsdx_ms": 0.025, "vsdy_ms": 0.025, "u10_ms": 3.6584930419921875, "v10_ms": 2.0517959594726562, "u_total_ms": 0.24126438923180102, "v_total_ms": 0.10486498445272446, "speed_ms": 0.26306875617538494, "wind_source": "era5" }, "geometry": { "type": "LineString", "coordinates": [ [ -0.328792553996479, 5.49419721223921 ], [ -0.263581864248232, 5.522246907934489 ] ] } },
{ "type": "Feature", "properties": { "seed_idx": 4, "delta_h": 8.3091384786111107, "dx_m": 7216.9171923044378, "dy_m": 3136.8156385503194, "uo_ms": 0.10650959797203541, "vo_ms": 0.018311105668544769, "vsdx_ms": 0.025, "vsdy_ms": 0.025, "u10_ms": 3.6584930419921875, "v10_ms": 2.0517959594726562, "u_total_ms": 0.24126438923180102, "v_total_ms": 0.10486498445272446, "speed_ms": 0.26306875617538494, "wind_source": "era5" }, "geometry": { "type": "LineString", "coordinates": [ [ -0.327403110804591, 5.4948227909275 ], [ -0.262192347532341, 5.522872268054533 ] ] } },
{ "type": "Feature", "properties": { "seed_idx": 5, "delta_h": 8.3091384786111107, "dx_m": 7216.9171923044378, "dy_m": 3136.8156385503194, "uo_ms": 0.10650959797203541, "vo_ms": 0.018311105668544769, "vsdx_ms": 0.025, "vsdy_ms": 0.025, "u10_ms": 3.6584930419921875, "v10_ms": 2.0517959594726562, "u_total_ms": 0.24126438923180102, "v_total_ms": 0.10486498445272446, "speed_ms": 0.26306875617538494, "wind_source": "era5" }, "geometry": { "type": "LineString", "coordinates": [ [ -0.326099273117418, 5.495626165664041 ], [ -0.260888412247105, 5.523675425851474 ] ] } },
{ "type": "Feature", "properties": { "seed_idx": 6, "delta_h": 8.3091384786111107, "dx_m": 7216.9171923044378, "dy_m": 3136.8156385503194, "uo_ms": 0.10650959797203541, "vo_ms": 0.018311105668544769, "vsdx_ms": 0.025, "vsdy_ms": 0.025, "u10_ms": 3.6584930419921875, "v10_ms": 2.0517959594726562, "u_total_ms": 0.24126438923180102, "v_total_ms": 0.10486498445272446, "speed_ms": 0.26306875617538494, "wind_source": "era5" }, "geometry": { "type": "LineString", "coordinates": [ [ -0.32575026605974, 5.4957512814017 ], [ -0.260539390962242, 5.523800488412011 ] ] } },
{ "type": "Feature", "properties": { "seed_idx": 7, "delta_h": 8.3091384786111107, "dx_m": 7216.9171923044378, "dy_m": 3136.8156385503194, "uo_ms": 0.10650959797203541, "vo_ms": 0.018311105668544769, "vsdx_ms": 0.025, "vsdy_ms": 0.025, "u10_ms": 3.6584930419921875, "v10_ms": 2.0517959594726562, "u_total_ms": 0.24126438923180102, "v_total_ms": 0.10486498445272446, "speed_ms": 0.26306875617538494, "wind_source": "era5" }, "geometry": { "type": "LineString", "coordinates": [ [ -0.324446428372566, 5.495619580625218 ], [ -0.259235579403731, 5.523668621622806 ] ] } },
{ "type": "Feature", "properties": { "seed_idx": 8, "delta_h": 8.3091384786111107, "dx_m": 7216.9171923044378, "dy_m": 3136.8156385503194, "uo_ms": 0.10650959797203541, "vo_ms": 0.018311105668544769, "vsdx_ms": 0.025, "vsdy_ms": 0.025, "u10_ms": 3.6584930419921875, "v10_ms": 2.0517959594726562, "u_total_ms": 0.24126438923180102, "v_total_ms": 0.10486498445272446, "speed_ms": 0.26306875617538494, "wind_source": "era5" }, "geometry": { "type": "LineString", "coordinates": [ [ -0.324439843333742, 5.495316668839308 ], [ -0.259229034483642, 5.523365725481892 ] ] } },
{ "type": "Feature", "properties": { "seed_idx": 9, "delta_h": 8.3091384786111107, "dx_m": 7216.9171923044378, "dy_m": 3136.8156385503194, "uo_ms": 0.10650959797203541, "vo_ms": 0.018311105668544769, "vsdx_ms": 0.025, "vsdy_ms": 0.025, "u10_ms": 3.6584930419921875, "v10_ms": 2.0517959594726562, "u_total_ms": 0.24126438923180102, "v_total_ms": 0.10486498445272446, "speed_ms": 0.26306875617538494, "wind_source": "era5" }, "geometry": { "type": "LineString", "coordinates": [ [ -0.323056985180678, 5.494671335034545 ], [ -0.257846270982881, 5.522720243192925 ] ] } },
{ "type": "Feature", "properties": { "seed_idx": 10, "delta_h": 8.3091384786111107, "dx_m": 7216.9171923044378, "dy_m": 3136.8156385503194, "uo_ms": 0.10650959797203541, "vo_ms": 0.018311105668544769, "vsdx_ms": 0.025, "vsdy_ms": 0.025, "u10_ms": 3.6584930419921875, "v10_ms": 2.0517959594726562, "u_total_ms": 0.24126438923180102, "v_total_ms": 0.10486498445272446, "speed_ms": 0.26306875617538494, "wind_source": "era5" }, "geometry": { "type": "LineString", "coordinates": [ [ -0.322372141142971, 5.494763525578083 ], [ -0.257161419359239, 5.522812337734315 ] ] } },
{ "type": "Feature", "properties": { "seed_idx": 11, "delta_h": 8.3091384786111107, "dx_m": 7216.9171923044378, "dy_m": 3136.8156385503194, "uo_ms": 0.10650959797203541, "vo_ms": 0.018311105668544769, "vsdx_ms": 0.025, "vsdy_ms": 0.025, "u10_ms": 3.6584930419921875, "v10_ms": 2.0517959594726562, "u_total_ms": 0.24126438923180102, "v_total_ms": 0.10486498445272446, "speed_ms": 0.26306875617538494, "wind_source": "era5" }, "geometry": { "type": "LineString", "coordinates": [ [ -0.321160493999335, 5.49434208309334 ], [ -0.255949836155589, 5.522390757300712 ] ] } },
{ "type": "Feature", "properties": { "seed_idx": 12, "delta_h": 8.3091384786111107, "dx_m": 7216.9171923044378, "dy_m": 3136.8156385503194, "uo_ms": 0.10650959797203541, "vo_ms": 0.018311105668544769, "vsdx_ms": 0.025, "vsdy_ms": 0.025, "u10_ms": 3.6584930419921875, "v10_ms": 2.0517959594726562, "u_total_ms": 0.24126438923180102, "v_total_ms": 0.10486498445272446, "speed_ms": 0.26306875617538494, "wind_source": "era5" }, "geometry": { "type": "LineString", "coordinates": [ [ -0.319296928012111, 5.494684505112193 ], [ -0.254086237503045, 5.522732913037485 ] ] } },
{ "type": "Feature", "properties": { "seed_idx": 13, "delta_h": 8.3091384786111107, "dx_m": 7216.9171923044378, "dy_m": 3136.8156385503194, "uo_ms": 0.10650959797203541, "vo_ms": 0.018311105668544769, "vsdx_ms": 0.025, "vsdy_ms": 0.025, "u10_ms": 3.6584930419921875, "v10_ms": 2.0517959594726562, "u_total_ms": 0.24126438923180102, "v_total_ms": 0.10486498445272446, "speed_ms": 0.26306875617538494, "wind_source": "era5" }, "geometry": { "type": "LineString", "coordinates": [ [ -0.319105961886212, 5.494730600383962 ], [ -0.253895266576565, 5.52277898041789 ] ] } },
{ "type": "Feature", "properties": { "seed_idx": 14, "delta_h": 8.3091384786111107, "dx_m": 7216.9171923044378, "dy_m": 3136.8156385503194, "uo_ms": 0.10650959797203541, "vo_ms": 0.018311105668544769, "vsdx_ms": 0.025, "vsdy_ms": 0.025, "u10_ms": 3.6584930419921875, "v10_ms": 2.0517959594726562, "u_total_ms": 0.24126438923180102, "v_total_ms": 0.10486498445272446, "speed_ms": 0.26306875617538494, "wind_source": "era5" }, "geometry": { "type": "LineString", "coordinates": [ [ -0.318868900488544, 5.494763525578083 ], [ -0.253658202435504, 5.522811872315053 ] ] } },
{ "type": "Feature", "properties": { "seed_idx": 15, "delta_h": 8.3091384786111107, "dx_m": 7216.9171923044378, "dy_m": 3136.8156385503194, "uo_ms": 0.10650959797203541, "vo_ms": 0.018311105668544769, "vsdx_ms": 0.025, "vsdy_ms": 0.025, "u10_ms": 3.6584930419921875, "v10_ms": 2.0517959594726562, "u_total_ms": 0.24126438923180102, "v_total_ms": 0.10486498445272446, "speed_ms": 0.26306875617538494, "wind_source": "era5" }, "geometry": { "type": "LineString", "coordinates": [ [ -0.318598913896756, 5.494803035811027 ], [ -0.253388212454209, 5.522851344515531 ] ] } },
{ "type": "Feature", "properties": { "seed_idx": 16, "delta_h": 8.3091384786111107, "dx_m": 7216.9171923044378, "dy_m": 3136.8156385503194, "uo_ms": 0.10650959797203541, "vo_ms": 0.018311105668544769, "vsdx_ms": 0.025, "vsdy_ms": 0.025, "u10_ms": 3.6584930419921875, "v10_ms": 2.0517959594726562, "u_total_ms": 0.24126438923180102, "v_total_ms": 0.10486498445272446, "speed_ms": 0.26306875617538494, "wind_source": "era5" }, "geometry": { "type": "LineString", "coordinates": [ [ -0.318058940713179, 5.494974246820454 ], [ -0.252848220294667, 5.523022474417507 ] ] } },
{ "type": "Feature", "properties": { "seed_idx": 17, "delta_h": 8.3091384786111107, "dx_m": 7216.9171923044378, "dy_m": 3136.8156385503194, "uo_ms": 0.10650959797203541, "vo_ms": 0.018311105668544769, "vsdx_ms": 0.025, "vsdy_ms": 0.025, "u10_ms": 3.6584930419921875, "v10_ms": 2.0517959594726562, "u_total_ms": 0.24126438923180102, "v_total_ms": 0.10486498445272446, "speed_ms": 0.26306875617538494, "wind_source": "era5" }, "geometry": { "type": "LineString", "coordinates": [ [ -0.319994942127467, 5.497601677311276 ], [ -0.254783860788746, 5.525650018626461 ] ] } },
{ "type": "Feature", "properties": { "seed_idx": 18, "delta_h": 8.3091384786111107, "dx_m": 7216.9171923044378, "dy_m": 3136.8156385503194, "uo_ms": 0.10650959797203541, "vo_ms": 0.018311105668544769, "vsdx_ms": 0.025, "vsdy_ms": 0.025, "u10_ms": 3.6584930419921875, "v10_ms": 2.0517959594726562, "u_total_ms": 0.24126438923180102, "v_total_ms": 0.10486498445272446, "speed_ms": 0.26306875617538494, "wind_source": "era5" }, "geometry": { "type": "LineString", "coordinates": [ [ -0.31811655980289, 5.498105432781318 ], [ -0.252905424503895, 5.526153496879266 ] ] } },
{ "type": "Feature", "properties": { "seed_idx": 19, "delta_h": 8.3091384786111107, "dx_m": 7216.9171923044378, "dy_m": 3136.8156385503194, "uo_ms": 0.10650959797203541, "vo_ms": 0.018311105668544769, "vsdx_ms": 0.025, "vsdy_ms": 0.025, "u10_ms": 3.6584930419921875, "v10_ms": 2.0517959594726562, "u_total_ms": 0.24126438923180102, "v_total_ms": 0.10486498445272446, "speed_ms": 0.26306875617538494, "wind_source": "era5" }, "geometry": { "type": "LineString", "coordinates": [ [ -0.317273674833403, 5.498039582393077 ], [ -0.252062553988614, 5.526087538034155 ] ] } },
{ "type": "Feature", "properties": { "seed_idx": 20, "delta_h": 8.3091384786111107, "dx_m": 7216.9171923044378, "dy_m": 3136.8156385503194, "uo_ms": 0.10650959797203541, "vo_ms": 0.018311105668544769, "vsdx_ms": 0.025, "vsdy_ms": 0.025, "u10_ms": 3.6584930419921875, "v10_ms": 2.0517959594726562, "u_total_ms": 0.24126438923180102, "v_total_ms": 0.10486498445272446, "speed_ms": 0.26306875617538494, "wind_source": "era5" }, "geometry": { "type": "LineString", "coordinates": [ [ -0.317039905955147, 5.498744181547258 ], [ -0.251828693400192, 5.526792067579532 ] ] } },
{ "type": "Feature", "properties": { "seed_idx": 21, "delta_h": 8.3091384786111107, "dx_m": 7216.9171923044378, "dy_m": 3136.8156385503194, "uo_ms": 0.10650959797203541, "vo_ms": 0.018311105668544769, "vsdx_ms": 0.025, "vsdy_ms": 0.025, "u10_ms": 3.6584930419921875, "v10_ms": 2.0517959594726562, "u_total_ms": 0.24126438923180102, "v_total_ms": 0.10486498445272446, "speed_ms": 0.26306875617538494, "wind_source": "era5" }, "geometry": { "type": "LineString", "coordinates": [ [ -0.315719605670913, 5.498866004765507 ], [ -0.250508385992252, 5.526913708573824 ] ] } },
{ "type": "Feature", "properties": { "seed_idx": 22, "delta_h": 8.3091384786111107, "dx_m": 7216.9171923044378, "dy_m": 3136.8156385503194, "uo_ms": 0.10650959797203541, "vo_ms": 0.018311105668544769, "vsdx_ms": 0.025, "vsdy_ms": 0.025, "u10_ms": 3.6584930419921875, "v10_ms": 2.0517959594726562, "u_total_ms": 0.24126438923180102, "v_total_ms": 0.10486498445272446, "speed_ms": 0.26306875617538494, "wind_source": "era5" }, "geometry": { "type": "LineString", "coordinates": [ [ -0.31494586360908, 5.49970559721558 ], [ -0.249734538016944, 5.527753152185056 ] ] } },
{ "type": "Feature", "properties": { "seed_idx": 23, "delta_h": 8.3091384786111107, "dx_m": 7216.9171923044378, "dy_m": 3136.8156385503194, "uo_ms": 0.10650959797203541, "vo_ms": 0.018311105668544769, "vsdx_ms": 0.025, "vsdy_ms": 0.025, "u10_ms": 3.6584930419921875, "v10_ms": 2.0517959594726562, "u_total_ms": 0.24126438923180102, "v_total_ms": 0.10486498445272446, "speed_ms": 0.26306875617538494, "wind_source": "era5" }, "geometry": { "type": "LineString", "coordinates": [ [ -0.313809944411921, 5.499791202720293 ], [ -0.248598615267514, 5.527838601919858 ] ] } },
{ "type": "Feature", "properties": { "seed_idx": 24, "delta_h": 8.3091384786111107, "dx_m": 7216.9171923044378, "dy_m": 3136.8156385503194, "uo_ms": 0.10650959797203541, "vo_ms": 0.018311105668544769, "vsdx_ms": 0.025, "vsdy_ms": 0.025, "u10_ms": 3.6584930419921875, "v10_ms": 2.0517959594726562, "u_total_ms": 0.24126438923180102, "v_total_ms": 0.10486498445272446, "speed_ms": 0.26306875617538494, "wind_source": "era5" }, "geometry": { "type": "LineString", "coordinates": [ [ -0.313711168829559, 5.49968913461852 ], [ -0.248499853885132, 5.52773652626783 ] ] } },
{ "type": "Feature", "properties": { "seed_idx": 25, "delta_h": 8.3091384786111107, "dx_m": 6469.0947292294377, "dy_m": 2388.9931754753193, "uo_ms": 0.10650959797203541, "vo_ms": 0.018311105668544769, "vsdx_ms": 0.0, "vsdy_ms": 0.0, "u10_ms": 3.6584930419921875, "v10_ms": 2.0517959594726562, "u_total_ms": 0.21626438923180102, "v_total_ms": 0.079864984452724455, "speed_ms": 0.23054002210340369, "wind_source": "era5" }, "geometry": { "type": "LineString", "coordinates": [ [ -0.312901209054194, 5.500001923962665 ], [ -0.254464857877196, 5.521323109087343 ] ] } },
{ "type": "Feature", "properties": { "seed_idx": 26, "delta_h": 8.3091384786111107, "dx_m": 7216.9171923044378, "dy_m": 3136.8156385503194, "uo_ms": 0.10650959797203541, "vo_ms": 0.018311105668544769, "vsdx_ms": 0.025, "vsdy_ms": 0.025, "u10_ms": 3.6584930419921875, "v10_ms": 2.0517959594726562, "u_total_ms": 0.24126438923180102, "v_total_ms": 0.10486498445272446, "speed_ms": 0.26306875617538494, "wind_source": "era5" }, "geometry": { "type": "LineString", "coordinates": [ [ -0.312779385835948, 5.499952536171484 ], [ -0.247568042404522, 5.527999789454149 ] ] } },
{ "type": "Feature", "properties": { "seed_idx": 27, "delta_h": 8.3091384786111107, "dx_m": 7216.9171923044378, "dy_m": 3136.8156385503194, "uo_ms": 0.10650959797203541, "vo_ms": 0.018311105668544769, "vsdx_ms": 0.025, "vsdy_ms": 0.025, "u10_ms": 3.6584930419921875, "v10_ms": 2.0517959594726562, "u_total_ms": 0.24126438923180102, "v_total_ms": 0.10486498445272446, "speed_ms": 0.26306875617538494, "wind_source": "era5" }, "geometry": { "type": "LineString", "coordinates": [ [ -0.312657562617702, 5.499880100744419 ], [ -0.247446229622207, 5.52792734178889 ] ] } },
{ "type": "Feature", "properties": { "seed_idx": 28, "delta_h": 8.3091384786111107, "dx_m": 6469.0947292294377, "dy_m": 2388.9931754753193, "uo_ms": 0.10650959797203541, "vo_ms": 0.018311105668544769, "vsdx_ms": 0.0, "vsdy_ms": 0.0, "u10_ms": 3.6584930419921875, "v10_ms": 2.0517959594726562, "u_total_ms": 0.21626438923180102, "v_total_ms": 0.079864984452724455, "speed_ms": 0.23054002210340369, "wind_source": "era5" }, "geometry": { "type": "LineString", "coordinates": [ [ -0.309529669176249, 5.501832564755771 ], [ -0.25109314881547, 5.523153269216976 ] ] } },
{ "type": "Feature", "properties": { "seed_idx": 29, "delta_h": 8.3091384786111107, "dx_m": 6469.0947292294377, "dy_m": 2388.9931754753193, "uo_ms": 0.10650959797203541, "vo_ms": 0.018311105668544769, "vsdx_ms": 0.0, "vsdy_ms": 0.0, "u10_ms": 3.6584930419921875, "v10_ms": 2.0517959594726562, "u_total_ms": 0.21626438923180102, "v_total_ms": 0.079864984452724455, "speed_ms": 0.23054002210340369, "wind_source": "era5" }, "geometry": { "type": "LineString", "coordinates": [ [ -0.308686784206763, 5.50221449700757 ], [ -0.250250230311709, 5.523535084965933 ] ] } },
{ "type": "Feature", "properties": { "seed_idx": 30, "delta_h": 8.3091384786111107, "dx_m": 6469.0947292294377, "dy_m": 2388.9931754753193, "uo_ms": 0.10650959797203541, "vo_ms": 0.018311105668544769, "vsdx_ms": 0.0, "vsdy_ms": 0.0, "u10_ms": 3.6584930419921875, "v10_ms": 2.0517959594726562, "u_total_ms": 0.21626438923180102, "v_total_ms": 0.079864984452724455, "speed_ms": 0.23054002210340369, "wind_source": "era5" }, "geometry": { "type": "LineString", "coordinates": [ [ -0.306750782792475, 5.501951095454605 ], [ -0.248314283740356, 5.523271471663215 ] ] } },
{ "type": "Feature", "properties": { "seed_idx": 31, "delta_h": 8.3091384786111107, "dx_m": 6469.0947292294377, "dy_m": 2388.9931754753193, "uo_ms": 0.10650959797203541, "vo_ms": 0.018311105668544769, "vsdx_ms": 0.0, "vsdy_ms": 0.0, "u10_ms": 3.6584930419921875, "v10_ms": 2.0517959594726562, "u_total_ms": 0.21626438923180102, "v_total_ms": 0.079864984452724455, "speed_ms": 0.23054002210340369, "wind_source": "era5" }, "geometry": { "type": "LineString", "coordinates": [ [ -0.305578645881783, 5.502398878094644 ], [ -0.247142109878144, 5.523719096323544 ] ] } },
{ "type": "Feature", "properties": { "seed_idx": 32, "delta_h": 8.3091384786111107, "dx_m": 6469.0947292294377, "dy_m": 2388.9931754753193, "uo_ms": 0.10650959797203541, "vo_ms": 0.018311105668544769, "vsdx_ms": 0.0, "vsdy_ms": 0.0, "u10_ms": 3.6584930419921875, "v10_ms": 2.0517959594726562, "u_total_ms": 0.21626438923180102, "v_total_ms": 0.079864984452724455, "speed_ms": 0.23054002210340369, "wind_source": "era5" }, "geometry": { "type": "LineString", "coordinates": [ [ -0.305407434872356, 5.502135476541681 ], [ -0.246970931479996, 5.523455687815333 ] ] } },
{ "type": "Feature", "properties": { "seed_idx": 33, "delta_h": 8.3091384786111107, "dx_m": 6469.0947292294377, "dy_m": 2388.9931754753193, "uo_ms": 0.10650959797203541, "vo_ms": 0.018311105668544769, "vsdx_ms": 0.0, "vsdy_ms": 0.0, "u10_ms": 3.6584930419921875, "v10_ms": 2.0517959594726562, "u_total_ms": 0.21626438923180102, "v_total_ms": 0.079864984452724455, "speed_ms": 0.23054002210340369, "wind_source": "era5" }, "geometry": { "type": "LineString", "coordinates": [ [ -0.305223053785281, 5.501937925376957 ], [ -0.246786575559282, 5.523258124939219 ] ] } },
{ "type": "Feature", "properties": { "seed_idx": 34, "delta_h": 8.3091384786111107, "dx_m": 6469.0947292294377, "dy_m": 2388.9931754753193, "uo_ms": 0.10650959797203541, "vo_ms": 0.018311105668544769, "vsdx_ms": 0.0, "vsdy_ms": 0.0, "u10_ms": 3.6584930419921875, "v10_ms": 2.0517959594726562, "u_total_ms": 0.21626438923180102, "v_total_ms": 0.079864984452724455, "speed_ms": 0.23054002210340369, "wind_source": "era5" }, "geometry": { "type": "LineString", "coordinates": [ [ -0.304985992387613, 5.501845734833419 ], [ -0.24654952781685, 5.523165911404667 ] ] } },
{ "type": "Feature", "properties": { "seed_idx": 35, "delta_h": 8.3091384786111107, "dx_m": 6469.0947292294377, "dy_m": 2388.9931754753193, "uo_ms": 0.10650959797203541, "vo_ms": 0.018311105668544769, "vsdx_ms": 0.0, "vsdy_ms": 0.0, "u10_ms": 3.6584930419921875, "v10_ms": 2.0517959594726562, "u_total_ms": 0.21626438923180102, "v_total_ms": 0.079864984452724455, "speed_ms": 0.23054002210340369, "wind_source": "era5" }, "geometry": { "type": "LineString", "coordinates": [ [ -0.305005747504085, 5.502249068461395 ], [ -0.246569236062065, 5.523569227545405 ] ] } },
{ "type": "Feature", "properties": { "seed_idx": 36, "delta_h": 8.3091384786111107, "dx_m": 6469.0947292294377, "dy_m": 2388.9931754753193, "uo_ms": 0.10650959797203541, "vo_ms": 0.018311105668544769, "vsdx_ms": 0.0, "vsdy_ms": 0.0, "u10_ms": 3.6584930419921875, "v10_ms": 2.0517959594726562, "u_total_ms": 0.21626438923180102, "v_total_ms": 0.079864984452724455, "speed_ms": 0.23054002210340369, "wind_source": "era5" }, "geometry": { "type": "LineString", "coordinates": [ [ -0.304867461688779, 5.50242192573053 ], [ -0.246430932014822, 5.523742060287336 ] ] } },
{ "type": "Feature", "properties": { "seed_idx": 37, "delta_h": 8.3091384786111107, "dx_m": 6469.0947292294377, "dy_m": 2388.9931754753193, "uo_ms": 0.10650959797203541, "vo_ms": 0.018311105668544769, "vsdx_ms": 0.0, "vsdy_ms": 0.0, "u10_ms": 3.6584930419921875, "v10_ms": 2.0517959594726562, "u_total_ms": 0.21626438923180102, "v_total_ms": 0.079864984452724455, "speed_ms": 0.23054002210340369, "wind_source": "era5" }, "geometry": { "type": "LineString", "coordinates": [ [ -0.304985992387613, 5.5026326469729 ], [ -0.24654943685497, 5.523952784952878 ] ] } },
{ "type": "Feature", "properties": { "seed_idx": 38, "delta_h": 8.3091384786111107, "dx_m": 6469.0947292294377, "dy_m": 2388.9931754753193, "uo_ms": 0.10650959797203541, "vo_ms": 0.018311105668544769, "vsdx_ms": 0.0, "vsdy_ms": 0.0, "u10_ms": 3.6584930419921875, "v10_ms": 2.0517959594726562, "u_total_ms": 0.21626438923180102, "v_total_ms": 0.079864984452724455, "speed_ms": 0.23054002210340369, "wind_source": "era5" }, "geometry": { "type": "LineString", "coordinates": [ [ -0.304959652232317, 5.501401244712792 ], [ -0.246523239370155, 5.522721440025762 ] ] } },
{ "type": "Feature", "properties": { "seed_idx": 39, "delta_h": 8.3091384786111107, "dx_m": 6469.0947292294377, "dy_m": 2388.9931754753193, "uo_ms": 0.10650959797203541, "vo_ms": 0.018311105668544769, "vsdx_ms": 0.0, "vsdy_ms": 0.0, "u10_ms": 3.6584930419921875, "v10_ms": 2.0517959594726562, "u_total_ms": 0.21626438923180102, "v_total_ms": 0.079864984452724455, "speed_ms": 0.23054002210340369, "wind_source": "era5" }, "geometry": { "type": "LineString", "coordinates": [ [ -0.304748930989945, 5.501124673082179 ], [ -0.246312552760833, 5.522444857506159 ] ] } },
{ "type": "Feature", "properties": { "seed_idx": 40, "delta_h": 8.3091384786111107, "dx_m": 7216.9171923044378, "dy_m": 3136.8156385503194, "uo_ms": 0.10650959797203541, "vo_ms": 0.018311105668544769, "vsdx_ms": 0.025, "vsdy_ms": 0.025, "u10_ms": 3.6584930419921875, "v10_ms": 2.0517959594726562, "u_total_ms": 0.24126438923180102, "v_total_ms": 0.10486498445272446, "speed_ms": 0.26306875617538494, "wind_source": "era5" }, "geometry": { "type": "LineString", "coordinates": [ [ -0.303319977565113, 5.499932781055016 ], [ -0.238108702787454, 5.527978776710986 ] ] } },
{ "type": "Feature", "properties": { "seed_idx": 41, "delta_h": 8.3091384786111107, "dx_m": 7216.9171923044378, "dy_m": 3136.8156385503194, "uo_ms": 0.10650959797203541, "vo_ms": 0.018311105668544769, "vsdx_ms": 0.025, "vsdy_ms": 0.025, "u10_ms": 3.6584930419921875, "v10_ms": 2.0517959594726562, "u_total_ms": 0.24126438923180102, "v_total_ms": 0.10486498445272446, "speed_ms": 0.26306875617538494, "wind_source": "era5" }, "geometry": { "type": "LineString", "coordinates": [ [ -0.302938045313315, 5.499735229890292 ], [ -0.237726799428927, 5.527781185566375 ] ] } },
{ "type": "Feature", "properties": { "seed_idx": 42, "delta_h": 8.3091384786111107, "dx_m": 6469.0947292294377, "dy_m": 2388.9931754753193, "uo_ms": 0.10650959797203541, "vo_ms": 0.018311105668544769, "vsdx_ms": 0.0, "vsdy_ms": 0.0, "u10_ms": 3.6584930419921875, "v10_ms": 2.0517959594726562, "u_total_ms": 0.21626438923180102, "v_total_ms": 0.079864984452724455, "speed_ms": 0.23054002210340369, "wind_source": "era5" }, "geometry": { "type": "LineString", "coordinates": [ [ -0.298670940155291, 5.504713519241327 ], [ -0.240234224185361, 5.526032821832932 ] ] } },
{ "type": "Feature", "properties": { "seed_idx": 43, "delta_h": 8.3091384786111107, "dx_m": 6469.0947292294377, "dy_m": 2388.9931754753193, "uo_ms": 0.10650959797203541, "vo_ms": 0.018311105668544769, "vsdx_ms": 0.0, "vsdy_ms": 0.0, "u10_ms": 3.6584930419921875, "v10_ms": 2.0517959594726562, "u_total_ms": 0.21626438923180102, "v_total_ms": 0.079864984452724455, "speed_ms": 0.23054002210340369, "wind_source": "era5" }, "geometry": { "type": "LineString", "coordinates": [ [ -0.298987022018849, 5.503271395738847 ], [ -0.240550468822121, 5.524590805919017 ] ] } },
{ "type": "Feature", "properties": { "seed_idx": 44, "delta_h": 8.3091384786111107, "dx_m": 6469.0947292294377, "dy_m": 2388.9931754753193, "uo_ms": 0.10650959797203541, "vo_ms": 0.018311105668544769, "vsdx_ms": 0.0, "vsdy_ms": 0.0, "u10_ms": 3.6584930419921875, "v10_ms": 2.0517959594726562, "u_total_ms": 0.21626438923180102, "v_total_ms": 0.079864984452724455, "speed_ms": 0.23054002210340369, "wind_source": "era5" }, "geometry": { "type": "LineString", "coordinates": [ [ -0.298479974029392, 5.502836783176456 ], [ -0.240043477564244, 5.524156155842189 ] ] } },
{ "type": "Feature", "properties": { "seed_idx": 45, "delta_h": 8.3091384786111107, "dx_m": 6469.0947292294377, "dy_m": 2388.9931754753193, "uo_ms": 0.10650959797203541, "vo_ms": 0.018311105668544769, "vsdx_ms": 0.0, "vsdy_ms": 0.0, "u10_ms": 3.6584930419921875, "v10_ms": 2.0517959594726562, "u_total_ms": 0.21626438923180102, "v_total_ms": 0.079864984452724455, "speed_ms": 0.23054002210340369, "wind_source": "era5" }, "geometry": { "type": "LineString", "coordinates": [ [ -0.29930968892123, 5.501901707663431 ], [ -0.240873289996786, 5.523221222620104 ] ] } },
{ "type": "Feature", "properties": { "seed_idx": 46, "delta_h": 8.3091384786111107, "dx_m": 6469.0947292294377, "dy_m": 2388.9931754753193, "uo_ms": 0.10650959797203541, "vo_ms": 0.018311105668544769, "vsdx_ms": 0.0, "vsdy_ms": 0.0, "u10_ms": 3.6584930419921875, "v10_ms": 2.0517959594726562, "u_total_ms": 0.21626438923180102, "v_total_ms": 0.079864984452724455, "speed_ms": 0.23054002210340369, "wind_source": "era5" }, "geometry": { "type": "LineString", "coordinates": [ [ -0.299467729853009, 5.501414414790447 ], [ -0.241031385253134, 5.522733972039526 ] ] } },
{ "type": "Feature", "properties": { "seed_idx": 47, "delta_h": 8.3091384786111107, "dx_m": 6469.0947292294377, "dy_m": 2388.9931754753193, "uo_ms": 0.10650959797203541, "vo_ms": 0.018311105668544769, "vsdx_ms": 0.0, "vsdy_ms": 0.0, "u10_ms": 3.6584930419921875, "v10_ms": 2.0517959594726562, "u_total_ms": 0.21626438923180102, "v_total_ms": 0.079864984452724455, "speed_ms": 0.23054002210340369, "wind_source": "era5" }, "geometry": { "type": "LineString", "coordinates": [ [ -0.299908927454224, 5.500051311753856 ], [ -0.24147273480197, 5.521370987188669 ] ] } },
{ "type": "Feature", "properties": { "seed_idx": 48, "delta_h": 8.3091384786111107, "dx_m": 7516.0461775344393, "dy_m": 3286.3801311653192, "uo_ms": 0.10650959797203541, "vo_ms": 0.018311105668544769, "vsdx_ms": 0.035, "vsdy_ms": 0.03, "u10_ms": 3.6584930419921875, "v10_ms": 2.0517959594726562, "u_total_ms": 0.25126438923180106, "v_total_ms": 0.10986498445272445, "speed_ms": 0.27423367427219331, "wind_source": "era5" }, "geometry": { "type": "LineString", "coordinates": [ [ -0.299428219620064, 5.499570603919695 ], [ -0.231513235484243, 5.528954958529775 ] ] } },
{ "type": "Feature", "properties": { "seed_idx": 49, "delta_h": 8.3091384786111107, "dx_m": 7516.0461775344393, "dy_m": 3286.3801311653192, "uo_ms": 0.10650959797203541, "vo_ms": 0.018311105668544769, "vsdx_ms": 0.035, "vsdy_ms": 0.03, "u10_ms": 3.6584930419921875, "v10_ms": 2.0517959594726562, "u_total_ms": 0.25126438923180106, "v_total_ms": 0.10986498445272445, "speed_ms": 0.27423367427219331, "wind_source": "era5" }, "geometry": { "type": "LineString", "coordinates": [ [ -0.298190232321131, 5.498207500883106 ], [ -0.23027544555441, 5.527591761828544 ] ] } },
{ "type": "Feature", "properties": { "seed_idx": 50, "delta_h": 8.3091384786111107, "dx_m": 7516.0461775344393, "dy_m": 3286.3801311653192, "uo_ms": 0.10650959797203541, "vo_ms": 0.018311105668544769, "vsdx_ms": 0.035, "vsdy_ms": 0.03, "u10_ms": 3.6584930419921875, "v10_ms": 2.0517959594726562, "u_total_ms": 0.25126438923180106, "v_total_ms": 0.10986498445272445, "speed_ms": 0.27423367427219331, "wind_source": "era5" }, "geometry": { "type": "LineString", "coordinates": [ [ -0.298321933097613, 5.497917759174845 ], [ -0.230407185435125, 5.527302055023284 ] ] } },
{ "type": "Feature", "properties": { "seed_idx": 51, "delta_h": 8.3091384786111107, "dx_m": 7516.0461775344393, "dy_m": 3286.3801311653192, "uo_ms": 0.10650959797203541, "vo_ms": 0.018311105668544769, "vsdx_ms": 0.035, "vsdy_ms": 0.03, "u10_ms": 3.6584930419921875, "v10_ms": 2.0517959594726562, "u_total_ms": 0.25126438923180106, "v_total_ms": 0.10986498445272445, "speed_ms": 0.27423367427219331, "wind_source": "era5" }, "geometry": { "type": "LineString", "coordinates": [ [ -0.29849314410704, 5.497680697777176 ], [ -0.230578427979403, 5.527065030988552 ] ] } },
{ "type": "Feature", "properties": { "seed_idx": 52, "delta_h": 8.3091384786111107, "dx_m": 7516.0461775344393, "dy_m": 3286.3801311653192, "uo_ms": 0.10650959797203541, "vo_ms": 0.018311105668544769, "vsdx_ms": 0.035, "vsdy_ms": 0.03, "u10_ms": 3.6584930419921875, "v10_ms": 2.0517959594726562, "u_total_ms": 0.25126438923180106, "v_total_ms": 0.10986498445272445, "speed_ms": 0.27423367427219331, "wind_source": "era5" }, "geometry": { "type": "LineString", "coordinates": [ [ -0.297479048128127, 5.496482220711188 ], [ -0.229564504994545, 5.525866481944904 ] ] } },
{ "type": "Feature", "properties": { "seed_idx": 53, "delta_h": 8.3091384786111107, "dx_m": 7516.0461775344393, "dy_m": 3286.3801311653192, "uo_ms": 0.10650959797203541, "vo_ms": 0.018311105668544769, "vsdx_ms": 0.035, "vsdy_ms": 0.03, "u10_ms": 3.6584930419921875, "v10_ms": 2.0517959594726562, "u_total_ms": 0.25126438923180106, "v_total_ms": 0.10986498445272445, "speed_ms": 0.27423367427219331, "wind_source": "era5" }, "geometry": { "type": "LineString", "coordinates": [ [ -0.297202476497515, 5.496442710478244 ], [ -0.229287940830496, 5.525826935597354 ] ] } },
{ "type": "Feature", "properties": { "seed_idx": 54, "delta_h": 8.3091384786111107, "dx_m": 7516.0461775344393, "dy_m": 3286.3801311653192, "uo_ms": 0.10650959797203541, "vo_ms": 0.018311105668544769, "vsdx_ms": 0.035, "vsdy_ms": 0.03, "u10_ms": 3.6584930419921875, "v10_ms": 2.0517959594726562, "u_total_ms": 0.25126438923180106, "v_total_ms": 0.10986498445272445, "speed_ms": 0.27423367427219331, "wind_source": "era5" }, "geometry": { "type": "LineString", "coordinates": [ [ -0.296991755255143, 5.496429540400595 ], [ -0.229077222937637, 5.525813737031767 ] ] } },
{ "type": "Feature", "properties": { "seed_idx": 55, "delta_h": 8.3091384786111107, "dx_m": 7516.0461775344393, "dy_m": 3286.3801311653192, "uo_ms": 0.10650959797203541, "vo_ms": 0.018311105668544769, "vsdx_ms": 0.035, "vsdy_ms": 0.03, "u10_ms": 3.6584930419921875, "v10_ms": 2.0517959594726562, "u_total_ms": 0.25126438923180106, "v_total_ms": 0.10986498445272445, "speed_ms": 0.27423367427219331, "wind_source": "era5" }, "geometry": { "type": "LineString", "coordinates": [ [ -0.298914586591783, 5.496521730944133 ], [ -0.231000027613833, 5.525906189122357 ] ] } },
{ "type": "Feature", "properties": { "seed_idx": 56, "delta_h": 8.3091384786111107, "dx_m": 7516.0461775344393, "dy_m": 3286.3801311653192, "uo_ms": 0.10650959797203541, "vo_ms": 0.018311105668544769, "vsdx_ms": 0.035, "vsdy_ms": 0.03, "u10_ms": 3.6584930419921875, "v10_ms": 2.0517959594726562, "u_total_ms": 0.25126438923180106, "v_total_ms": 0.10986498445272445, "speed_ms": 0.27423367427219331, "wind_source": "era5" }, "geometry": { "type": "LineString", "coordinates": [ [ -0.29516111446204, 5.496890493118284 ], [ -0.22724653174519, 5.526274409202837 ] ] } },
{ "type": "Feature", "properties": { "seed_idx": 57, "delta_h": 8.3091384786111107, "dx_m": 7516.0461775344393, "dy_m": 3286.3801311653192, "uo_ms": 0.10650959797203541, "vo_ms": 0.018311105668544769, "vsdx_ms": 0.035, "vsdy_ms": 0.03, "u10_ms": 3.6584930419921875, "v10_ms": 2.0517959594726562, "u_total_ms": 0.25126438923180106, "v_total_ms": 0.10986498445272445, "speed_ms": 0.27423367427219331, "wind_source": "era5" }, "geometry": { "type": "LineString", "coordinates": [ [ -0.294818692443186, 5.497048534050063 ], [ -0.226904090375487, 5.52643239352567 ] ] } },
{ "type": "Feature", "properties": { "seed_idx": 58, "delta_h": 8.3091384786111107, "dx_m": 7516.0461775344393, "dy_m": 3286.3801311653192, "uo_ms": 0.10650959797203541, "vo_ms": 0.018311105668544769, "vsdx_ms": 0.035, "vsdy_ms": 0.03, "u10_ms": 3.6584930419921875, "v10_ms": 2.0517959594726562, "u_total_ms": 0.25126438923180106, "v_total_ms": 0.10986498445272445, "speed_ms": 0.27423367427219331, "wind_source": "era5" }, "geometry": { "type": "LineString", "coordinates": [ [ -0.294384079880795, 5.497259255292434 ], [ -0.226469451853066, 5.526643042331476 ] ] } },
{ "type": "Feature", "properties": { "seed_idx": 59, "delta_h": 8.3091384786111107, "dx_m": 7516.0461775344393, "dy_m": 3286.3801311653192, "uo_ms": 0.10650959797203541, "vo_ms": 0.018311105668544769, "vsdx_ms": 0.035, "vsdy_ms": 0.03, "u10_ms": 3.6584930419921875, "v10_ms": 2.0517959594726562, "u_total_ms": 0.25126438923180106, "v_total_ms": 0.10986498445272445, "speed_ms": 0.27423367427219331, "wind_source": "era5" }, "geometry": { "type": "LineString", "coordinates": [ [ -0.293870446852515, 5.497509486767751 ], [ -0.225955787980955, 5.526893188124089 ] ] } },
{ "type": "Feature", "properties": { "seed_idx": 60, "delta_h": 8.3091384786111107, "dx_m": 7516.0461775344393, "dy_m": 3286.3801311653192, "uo_ms": 0.10650959797203541, "vo_ms": 0.018311105668544769, "vsdx_ms": 0.035, "vsdy_ms": 0.03, "u10_ms": 3.6584930419921875, "v10_ms": 2.0517959594726562, "u_total_ms": 0.25126438923180106, "v_total_ms": 0.10986498445272445, "speed_ms": 0.27423367427219331, "wind_source": "era5" }, "geometry": { "type": "LineString", "coordinates": [ [ -0.293264623280696, 5.497930929252494 ], [ -0.225349910566695, 5.527314522278602 ] ] } },
{ "type": "Feature", "properties": { "seed_idx": 61, "delta_h": 8.3091384786111107, "dx_m": 7516.0461775344393, "dy_m": 3286.3801311653192, "uo_ms": 0.10650959797203541, "vo_ms": 0.018311105668544769, "vsdx_ms": 0.035, "vsdy_ms": 0.03, "u10_ms": 3.6584930419921875, "v10_ms": 2.0517959594726562, "u_total_ms": 0.25126438923180106, "v_total_ms": 0.10986498445272445, "speed_ms": 0.27423367427219331, "wind_source": "era5" }, "geometry": { "type": "LineString", "coordinates": [ [ -0.29301439180538, 5.498128480417217 ], [ -0.225099653605236, 5.527512027344772 ] ] } },
{ "type": "Feature", "properties": { "seed_idx": 62, "delta_h": 8.3091384786111107, "dx_m": 7516.0461775344393, "dy_m": 3286.3801311653192, "uo_ms": 0.10650959797203541, "vo_ms": 0.018311105668544769, "vsdx_ms": 0.035, "vsdy_ms": 0.03, "u10_ms": 3.6584930419921875, "v10_ms": 2.0517959594726562, "u_total_ms": 0.25126438923180106, "v_total_ms": 0.10986498445272445, "speed_ms": 0.27423367427219331, "wind_source": "era5" }, "geometry": { "type": "LineString", "coordinates": [ [ -0.292671969786526, 5.498273351271347 ], [ -0.224757214061284, 5.527656842324694 ] ] } },
{ "type": "Feature", "properties": { "seed_idx": 63, "delta_h": 8.3091384786111107, "dx_m": 7516.0461775344393, "dy_m": 3286.3801311653192, "uo_ms": 0.10650959797203541, "vo_ms": 0.018311105668544769, "vsdx_ms": 0.035, "vsdy_ms": 0.03, "u10_ms": 3.6584930419921875, "v10_ms": 2.0517959594726562, "u_total_ms": 0.25126438923180106, "v_total_ms": 0.10986498445272445, "speed_ms": 0.27423367427219331, "wind_source": "era5" }, "geometry": { "type": "LineString", "coordinates": [ [ -0.292408568233562, 5.498260181193699 ], [ -0.224493816261835, 5.527643636428649 ] ] } },
{ "type": "Feature", "properties": { "seed_idx": 64, "delta_h": 8.3091384786111107, "dx_m": 7516.0461775344393, "dy_m": 3286.3801311653192, "uo_ms": 0.10650959797203541, "vo_ms": 0.018311105668544769, "vsdx_ms": 0.035, "vsdy_ms": 0.03, "u10_ms": 3.6584930419921875, "v10_ms": 2.0517959594726562, "u_total_ms": 0.25126438923180106, "v_total_ms": 0.10986498445272445, "speed_ms": 0.27423367427219331, "wind_source": "era5" }, "geometry": { "type": "LineString", "coordinates": [ [ -0.292224187146487, 5.49781239855366 ], [ -0.224309498455045, 5.527195853930443 ] ] } },
{ "type": "Feature", "properties": { "seed_idx": 65, "delta_h": 8.3091384786111107, "dx_m": 7516.0461775344393, "dy_m": 3286.3801311653192, "uo_ms": 0.10650959797203541, "vo_ms": 0.018311105668544769, "vsdx_ms": 0.035, "vsdy_ms": 0.03, "u10_ms": 3.6584930419921875, "v10_ms": 2.0517959594726562, "u_total_ms": 0.25126438923180106, "v_total_ms": 0.10986498445272445, "speed_ms": 0.27423367427219331, "wind_source": "era5" }, "geometry": { "type": "LineString", "coordinates": [ [ -0.292026635981764, 5.497259255292434 ], [ -0.224112025235068, 5.526642715043616 ] ] } },
{ "type": "Feature", "properties": { "seed_idx": 66, "delta_h": 8.3091384786111107, "dx_m": 7516.0461775344393, "dy_m": 3286.3801311653192, "uo_ms": 0.10650959797203541, "vo_ms": 0.018311105668544769, "vsdx_ms": 0.035, "vsdy_ms": 0.03, "u10_ms": 3.6584930419921875, "v10_ms": 2.0517959594726562, "u_total_ms": 0.25126438923180106, "v_total_ms": 0.10986498445272445, "speed_ms": 0.27423367427219331, "wind_source": "era5" }, "geometry": { "type": "LineString", "coordinates": [ [ -0.291842254894688, 5.496903663195932 ], [ -0.223927694675831, 5.52628711779443 ] ] } },
{ "type": "Feature", "properties": { "seed_idx": 67, "delta_h": 8.3091384786111107, "dx_m": 8501.9750198072361, "dy_m": 3176.8324820238972, "uo_ms": 0.13946958817541599, "vo_ms": 0.014648884534835815, "vsdx_ms": 0.035, "vsdy_ms": 0.03, "u10_ms": 3.6584930419921875, "v10_ms": 2.0517959594726562, "u_total_ms": 0.28422437943518164, "v_total_ms": 0.1062027633190155, "speed_ms": 0.3034180693398284, "wind_source": "era5" }, "geometry": { "type": "LineString", "coordinates": [ [ -0.291420812409945, 5.496640261642968 ], [ -0.214620084975387, 5.52499216004965 ] ] } },
{ "type": "Feature", "properties": { "seed_idx": 68, "delta_h": 8.3091384786111107, "dx_m": 8501.9750198072361, "dy_m": 3176.8324820238972, "uo_ms": 0.13946958817541599, "vo_ms": 0.014648884534835815, "vsdx_ms": 0.035, "vsdy_ms": 0.03, "u10_ms": 3.6584930419921875, "v10_ms": 2.0517959594726562, "u_total_ms": 0.28422437943518164, "v_total_ms": 0.1062027633190155, "speed_ms": 0.3034180693398284, "wind_source": "era5" }, "geometry": { "type": "LineString", "coordinates": [ [ -0.29086766914872, 5.496429540400596 ], [ -0.214066983015034, 5.524781367895317 ] ] } },
{ "type": "Feature", "properties": { "seed_idx": 69, "delta_h": 8.3091384786111107, "dx_m": 8501.9750198072361, "dy_m": 3176.8324820238972, "uo_ms": 0.13946958817541599, "vo_ms": 0.014648884534835815, "vsdx_ms": 0.035, "vsdy_ms": 0.03, "u10_ms": 3.6584930419921875, "v10_ms": 2.0517959594726562, "u_total_ms": 0.28422437943518164, "v_total_ms": 0.1062027633190155, "speed_ms": 0.3034180693398284, "wind_source": "era5" }, "geometry": { "type": "LineString", "coordinates": [ [ -0.2906437778287, 5.495942247527612 ], [ -0.213843169654521, 5.524294072456195 ] ] } },
{ "type": "Feature", "properties": { "seed_idx": 70, "delta_h": 8.3091384786111107, "dx_m": 8501.9750198072361, "dy_m": 3176.8324820238972, "uo_ms": 0.13946958817541599, "vo_ms": 0.014648884534835815, "vsdx_ms": 0.035, "vsdy_ms": 0.03, "u10_ms": 3.6584930419921875, "v10_ms": 2.0517959594726562, "u_total_ms": 0.28422437943518164, "v_total_ms": 0.1062027633190155, "speed_ms": 0.3034180693398284, "wind_source": "era5" }, "geometry": { "type": "LineString", "coordinates": [ [ -0.290433056586329, 5.495599825508759 ], [ -0.213632504082191, 5.523951640470808 ] ] } },
{ "type": "Feature", "properties": { "seed_idx": 71, "delta_h": 8.3091384786111107, "dx_m": 8501.9750198072361, "dy_m": 3176.8324820238972, "uo_ms": 0.13946958817541599, "vo_ms": 0.014648884534835815, "vsdx_ms": 0.035, "vsdy_ms": 0.03, "u10_ms": 3.6584930419921875, "v10_ms": 2.0517959594726562, "u_total_ms": 0.28422437943518164, "v_total_ms": 0.1062027633190155, "speed_ms": 0.3034180693398284, "wind_source": "era5" }, "geometry": { "type": "LineString", "coordinates": [ [ -0.290182825111013, 5.49544178457698 ], [ -0.21338230084923, 5.523793571543544 ] ] } },
{ "type": "Feature", "properties": { "seed_idx": 72, "delta_h": 8.3091384786111107, "dx_m": 8501.9750198072361, "dy_m": 3176.8324820238972, "uo_ms": 0.13946958817541599, "vo_ms": 0.014648884534835815, "vsdx_ms": 0.035, "vsdy_ms": 0.03, "u10_ms": 3.6584930419921875, "v10_ms": 2.0517959594726562, "u_total_ms": 0.28422437943518164, "v_total_ms": 0.1062027633190155, "speed_ms": 0.3034180693398284, "wind_source": "era5" }, "geometry": { "type": "LineString", "coordinates": [ [ -0.289958933790993, 5.495283743645201 ], [ -0.213158437334061, 5.523635506646099 ] ] } },
{ "type": "Feature", "properties": { "seed_idx": 73, "delta_h": 8.3091384786111107, "dx_m": 8501.9750198072361, "dy_m": 3176.8324820238972, "uo_ms": 0.13946958817541599, "vo_ms": 0.014648884534835815, "vsdx_ms": 0.035, "vsdy_ms": 0.03, "u10_ms": 3.6584930419921875, "v10_ms": 2.0517959594726562, "u_total_ms": 0.28422437943518164, "v_total_ms": 0.1062027633190155, "speed_ms": 0.3034180693398284, "wind_source": "era5" }, "geometry": { "type": "LineString", "coordinates": [ [ -0.289050198433266, 5.495046682247533 ], [ -0.212249753245063, 5.523398321682035 ] ] } },
{ "type": "Feature", "properties": { "seed_idx": 74, "delta_h": 8.3091384786111107, "dx_m": 8501.9750198072361, "dy_m": 3176.8324820238972, "uo_ms": 0.13946958817541599, "vo_ms": 0.014648884534835815, "vsdx_ms": 0.035, "vsdy_ms": 0.03, "u10_ms": 3.6584930419921875, "v10_ms": 2.0517959594726562, "u_total_ms": 0.28422437943518164, "v_total_ms": 0.1062027633190155, "speed_ms": 0.3034180693398284, "wind_source": "era5" }, "geometry": { "type": "LineString", "coordinates": [ [ -0.290907179381665, 5.495375934188739 ], [ -0.214106653086868, 5.523727836219241 ] ] } },
{ "type": "Feature", "properties": { "seed_idx": 75, "delta_h": 8.3091384786111107, "dx_m": 8501.9750198072361, "dy_m": 3176.8324820238972, "uo_ms": 0.13946958817541599, "vo_ms": 0.014648884534835815, "vsdx_ms": 0.035, "vsdy_ms": 0.03, "u10_ms": 3.6584930419921875, "v10_ms": 2.0517959594726562, "u_total_ms": 0.28422437943518164, "v_total_ms": 0.1062027633190155, "speed_ms": 0.3034180693398284, "wind_source": "era5" }, "geometry": { "type": "LineString", "coordinates": [ [ -0.291275941555815, 5.495270573567553 ], [ -0.214475425172099, 5.523622538842763 ] ] } },
{ "type": "Feature", "properties": { "seed_idx": 76, "delta_h": 8.3091384786111107, "dx_m": 8501.9750198072361, "dy_m": 3176.8324820238972, "uo_ms": 0.13946958817541599, "vo_ms": 0.014648884534835815, "vsdx_ms": 0.035, "vsdy_ms": 0.03, "u10_ms": 3.6584930419921875, "v10_ms": 2.0517959594726562, "u_total_ms": 0.28422437943518164, "v_total_ms": 0.1062027633190155, "speed_ms": 0.3034180693398284, "wind_source": "era5" }, "geometry": { "type": "LineString", "coordinates": [ [ -0.291539343108779, 5.495046682247533 ], [ -0.214738856443658, 5.523398702355807 ] ] } },
{ "type": "Feature", "properties": { "seed_idx": 77, "delta_h": 8.3091384786111107, "dx_m": 7516.0461775344393, "dy_m": 3286.3801311653192, "uo_ms": 0.10650959797203541, "vo_ms": 0.018311105668544769, "vsdx_ms": 0.035, "vsdy_ms": 0.03, "u10_ms": 3.6584930419921875, "v10_ms": 2.0517959594726562, "u_total_ms": 0.25126438923180106, "v_total_ms": 0.10986498445272445, "speed_ms": 0.27423367427219331, "wind_source": "era5" }, "geometry": { "type": "LineString", "coordinates": [ [ -0.291894935205281, 5.494822790927514 ], [ -0.223980662288031, 5.524206372492418 ] ] } },
{ "type": "Feature", "properties": { "seed_idx": 78, "delta_h": 8.3091384786111107, "dx_m": 7516.0461775344393, "dy_m": 3286.3801311653192, "uo_ms": 0.10650959797203541, "vo_ms": 0.018311105668544769, "vsdx_ms": 0.035, "vsdy_ms": 0.03, "u10_ms": 3.6584930419921875, "v10_ms": 2.0517959594726562, "u_total_ms": 0.25126438923180106, "v_total_ms": 0.10986498445272445, "speed_ms": 0.27423367427219331, "wind_source": "era5" }, "geometry": { "type": "LineString", "coordinates": [ [ -0.292184676913542, 5.494704260228679 ], [ -0.224270418243329, 5.524087888822345 ] ] } },
{ "type": "Feature", "properties": { "seed_idx": 79, "delta_h": 8.3091384786111107, "dx_m": 7516.0461775344393, "dy_m": 3286.3801311653192, "uo_ms": 0.10650959797203541, "vo_ms": 0.018311105668544769, "vsdx_ms": 0.035, "vsdy_ms": 0.03, "u10_ms": 3.6584930419921875, "v10_ms": 2.0517959594726562, "u_total_ms": 0.25126438923180106, "v_total_ms": 0.10986498445272445, "speed_ms": 0.27423367427219331, "wind_source": "era5" }, "geometry": { "type": "LineString", "coordinates": [ [ -0.292434908388858, 5.494519879141604 ], [ -0.224520673359676, 5.523903553064227 ] ] } },
{ "type": "Feature", "properties": { "seed_idx": 80, "delta_h": 8.3091384786111107, "dx_m": 7516.0461775344393, "dy_m": 3286.3801311653192, "uo_ms": 0.10650959797203541, "vo_ms": 0.018311105668544769, "vsdx_ms": 0.035, "vsdy_ms": 0.03, "u10_ms": 3.6584930419921875, "v10_ms": 2.0517959594726562, "u_total_ms": 0.25126438923180106, "v_total_ms": 0.10986498445272445, "speed_ms": 0.27423367427219331, "wind_source": "era5" }, "geometry": { "type": "LineString", "coordinates": [ [ -0.29279050048536, 5.494480368908659 ], [ -0.224876268297423, 5.523864094451721 ] ] } },
{ "type": "Feature", "properties": { "seed_idx": 81, "delta_h": 8.3091384786111107, "dx_m": 7516.0461775344393, "dy_m": 3286.3801311653192, "uo_ms": 0.10650959797203541, "vo_ms": 0.018311105668544769, "vsdx_ms": 0.035, "vsdy_ms": 0.03, "u10_ms": 3.6584930419921875, "v10_ms": 2.0517959594726562, "u_total_ms": 0.25126438923180106, "v_total_ms": 0.10986498445272445, "speed_ms": 0.27423367427219331, "wind_source": "era5" }, "geometry": { "type": "LineString", "coordinates": [ [ -0.293119752426566, 5.494440858675715 ], [ -0.225205523276013, 5.523824632182157 ] ] } },
{ "type": "Feature", "properties": { "seed_idx": 82, "delta_h": 8.3091384786111107, "dx_m": 7516.0461775344393, "dy_m": 3286.3801311653192, "uo_ms": 0.10650959797203541, "vo_ms": 0.018311105668544769, "vsdx_ms": 0.035, "vsdy_ms": 0.03, "u10_ms": 3.6584930419921875, "v10_ms": 2.0517959594726562, "u_total_ms": 0.25126438923180106, "v_total_ms": 0.10986498445272445, "speed_ms": 0.27423367427219331, "wind_source": "era5" }, "geometry": { "type": "LineString", "coordinates": [ [ -0.293554364988957, 5.494414518520419 ], [ -0.225640136283171, 5.523798353852799 ] ] } },
{ "type": "Feature", "properties": { "seed_idx": 83, "delta_h": 8.3091384786111107, "dx_m": 7516.0461775344393, "dy_m": 3286.3801311653192, "uo_ms": 0.10650959797203541, "vo_ms": 0.018311105668544769, "vsdx_ms": 0.035, "vsdy_ms": 0.03, "u10_ms": 3.6584930419921875, "v10_ms": 2.0517959594726562, "u_total_ms": 0.25126438923180106, "v_total_ms": 0.10986498445272445, "speed_ms": 0.27423367427219331, "wind_source": "era5" }, "geometry": { "type": "LineString", "coordinates": [ [ -0.294094338172534, 5.494454028753363 ], [ -0.226180100041208, 5.523837936746395 ] ] } },
{ "type": "Feature", "properties": { "seed_idx": 84, "delta_h": 8.3091384786111107, "dx_m": 7516.0461775344393, "dy_m": 3286.3801311653192, "uo_ms": 0.10650959797203541, "vo_ms": 0.018311105668544769, "vsdx_ms": 0.035, "vsdy_ms": 0.03, "u10_ms": 3.6584930419921875, "v10_ms": 2.0517959594726562, "u_total_ms": 0.25126438923180106, "v_total_ms": 0.10986498445272445, "speed_ms": 0.27423367427219331, "wind_source": "era5" }, "geometry": { "type": "LineString", "coordinates": [ [ -0.294015317706645, 5.494691090151031 ], [ -0.226101047391348, 5.52407497355777 ] ] } },
{ "type": "Feature", "properties": { "seed_idx": 85, "delta_h": 8.3091384786111107, "dx_m": 7516.0461775344393, "dy_m": 3286.3801311653192, "uo_ms": 0.10650959797203541, "vo_ms": 0.018311105668544769, "vsdx_ms": 0.035, "vsdy_ms": 0.03, "u10_ms": 3.6584930419921875, "v10_ms": 2.0517959594726562, "u_total_ms": 0.25126438923180106, "v_total_ms": 0.10986498445272445, "speed_ms": 0.27423367427219331, "wind_source": "era5" }, "geometry": { "type": "LineString", "coordinates": [ [ -0.293699235843088, 5.494822790927514 ], [ -0.225784949644789, 5.524206622902612 ] ] } },
{ "type": "Feature", "properties": { "seed_idx": 86, "delta_h": 8.3091384786111107, "dx_m": 7516.0461775344393, "dy_m": 3286.3801311653192, "uo_ms": 0.10650959797203541, "vo_ms": 0.018311105668544769, "vsdx_ms": 0.035, "vsdy_ms": 0.03, "u10_ms": 3.6584930419921875, "v10_ms": 2.0517959594726562, "u_total_ms": 0.25126438923180106, "v_total_ms": 0.10986498445272445, "speed_ms": 0.27423367427219331, "wind_source": "era5" }, "geometry": { "type": "LineString", "coordinates": [ [ -0.293304133513641, 5.495020342092237 ], [ -0.225389822911919, 5.524404107881828 ] ] } },
{ "type": "Feature", "properties": { "seed_idx": 87, "delta_h": 8.3091384786111107, "dx_m": 7516.0461775344393, "dy_m": 3286.3801311653192, "uo_ms": 0.10650959797203541, "vo_ms": 0.018311105668544769, "vsdx_ms": 0.035, "vsdy_ms": 0.03, "u10_ms": 3.6584930419921875, "v10_ms": 2.0517959594726562, "u_total_ms": 0.25126438923180106, "v_total_ms": 0.10986498445272445, "speed_ms": 0.27423367427219331, "wind_source": "era5" }, "geometry": { "type": "LineString", "coordinates": [ [ -0.292592949320637, 5.495086192480477 ], [ -0.224678634847711, 5.524469855780798 ] ] } },
{ "type": "Feature", "properties": { "seed_idx": 88, "delta_h": 8.3091384786111107, "dx_m": 7516.0461775344393, "dy_m": 3286.3801311653192, "uo_ms": 0.10650959797203541, "vo_ms": 0.018311105668544769, "vsdx_ms": 0.035, "vsdy_ms": 0.03, "u10_ms": 3.6584930419921875, "v10_ms": 2.0517959594726562, "u_total_ms": 0.25126438923180106, "v_total_ms": 0.10986498445272445, "speed_ms": 0.27423367427219331, "wind_source": "era5" }, "geometry": { "type": "LineString", "coordinates": [ [ -0.292211017068839, 5.495389104266387 ], [ -0.224296663535465, 5.524772697140965 ] ] } },
{ "type": "Feature", "properties": { "seed_idx": 89, "delta_h": 8.3091384786111107, "dx_m": 8501.9750198072361, "dy_m": 3176.8324820238972, "uo_ms": 0.13946958817541599, "vo_ms": 0.014648884534835815, "vsdx_ms": 0.035, "vsdy_ms": 0.03, "u10_ms": 3.6584930419921875, "v10_ms": 2.0517959594726562, "u_total_ms": 0.28422437943518164, "v_total_ms": 0.1062027633190155, "speed_ms": 0.3034180693398284, "wind_source": "era5" }, "geometry": { "type": "LineString", "coordinates": [ [ -0.291657873807613, 5.495626165664055 ], [ -0.214857296909663, 5.523978166237711 ] ] } },
{ "type": "Feature", "properties": { "seed_idx": 90, "delta_h": 8.3091384786111107, "dx_m": 7516.0461775344393, "dy_m": 3286.3801311653192, "uo_ms": 0.10650959797203541, "vo_ms": 0.018311105668544769, "vsdx_ms": 0.035, "vsdy_ms": 0.03, "u10_ms": 3.6584930419921875, "v10_ms": 2.0517959594726562, "u_total_ms": 0.25126438923180106, "v_total_ms": 0.10986498445272445, "speed_ms": 0.27423367427219331, "wind_source": "era5" }, "geometry": { "type": "LineString", "coordinates": [ [ -0.292171506835894, 5.496008097915853 ], [ -0.224257068018822, 5.525391649717031 ] ] } },
{ "type": "Feature", "properties": { "seed_idx": 91, "delta_h": 8.3091384786111107, "dx_m": 7516.0461775344393, "dy_m": 3286.3801311653192, "uo_ms": 0.10650959797203541, "vo_ms": 0.018311105668544769, "vsdx_ms": 0.035, "vsdy_ms": 0.03, "u10_ms": 3.6584930419921875, "v10_ms": 2.0517959594726562, "u_total_ms": 0.25126438923180106, "v_total_ms": 0.10986498445272445, "speed_ms": 0.27423367427219331, "wind_source": "era5" }, "geometry": { "type": "LineString", "coordinates": [ [ -0.292843180795953, 5.495850056984075 ], [ -0.224928758886634, 5.525233711106235 ] ] } },
{ "type": "Feature", "properties": { "seed_idx": 92, "delta_h": 8.3091384786111107, "dx_m": 7516.0461775344393, "dy_m": 3286.3801311653192, "uo_ms": 0.10650959797203541, "vo_ms": 0.018311105668544769, "vsdx_ms": 0.035, "vsdy_ms": 0.03, "u10_ms": 3.6584930419921875, "v10_ms": 2.0517959594726562, "u_total_ms": 0.25126438923180106, "v_total_ms": 0.10986498445272445, "speed_ms": 0.27423367427219331, "wind_source": "era5" }, "geometry": { "type": "LineString", "coordinates": [ [ -0.293620215377198, 5.495784206595833 ], [ -0.225705796865512, 5.525167972356401 ] ] } },
{ "type": "Feature", "properties": { "seed_idx": 93, "delta_h": 8.3091384786111107, "dx_m": 7516.0461775344393, "dy_m": 3286.3801311653192, "uo_ms": 0.10650959797203541, "vo_ms": 0.018311105668544769, "vsdx_ms": 0.035, "vsdy_ms": 0.03, "u10_ms": 3.6584930419921875, "v10_ms": 2.0517959594726562, "u_total_ms": 0.25126438923180106, "v_total_ms": 0.10986498445272445, "speed_ms": 0.27423367427219331, "wind_source": "era5" }, "geometry": { "type": "LineString", "coordinates": [ [ -0.293620215377198, 5.495784206595833 ], [ -0.225705796865512, 5.525167972356401 ] ] } },
{ "type": "Feature", "properties": { "seed_idx": 94, "delta_h": 8.3091384786111107, "dx_m": 7516.0461775344393, "dy_m": 3286.3801311653192, "uo_ms": 0.10650959797203541, "vo_ms": 0.018311105668544769, "vsdx_ms": 0.035, "vsdy_ms": 0.03, "u10_ms": 3.6584930419921875, "v10_ms": 2.0517959594726562, "u_total_ms": 0.25126438923180106, "v_total_ms": 0.10986498445272445, "speed_ms": 0.27423367427219331, "wind_source": "era5" }, "geometry": { "type": "LineString", "coordinates": [ [ -0.294542120812574, 5.495718356207592 ], [ -0.226627704649932, 5.525102253705438 ] ] } },
{ "type": "Feature", "properties": { "seed_idx": 95, "delta_h": 8.3091384786111107, "dx_m": 7516.0461775344393, "dy_m": 3286.3801311653192, "uo_ms": 0.10650959797203541, "vo_ms": 0.018311105668544769, "vsdx_ms": 0.035, "vsdy_ms": 0.03, "u10_ms": 3.6584930419921875, "v10_ms": 2.0517959594726562, "u_total_ms": 0.25126438923180106, "v_total_ms": 0.10986498445272445, "speed_ms": 0.27423367427219331, "wind_source": "era5" }, "geometry": { "type": "LineString", "coordinates": [ [ -0.293804596464273, 5.496126628614688 ], [ -0.225890129264414, 5.525510400290562 ] ] } },
{ "type": "Feature", "properties": { "seed_idx": 96, "delta_h": 8.3091384786111107, "dx_m": 7516.0461775344393, "dy_m": 3286.3801311653192, "uo_ms": 0.10650959797203541, "vo_ms": 0.018311105668544769, "vsdx_ms": 0.035, "vsdy_ms": 0.03, "u10_ms": 3.6584930419921875, "v10_ms": 2.0517959594726562, "u_total_ms": 0.25126438923180106, "v_total_ms": 0.10986498445272445, "speed_ms": 0.27423367427219331, "wind_source": "era5" }, "geometry": { "type": "LineString", "coordinates": [ [ -0.29360704529955, 5.496205649080577 ], [ -0.225692568623567, 5.52558938879461 ] ] } },
{ "type": "Feature", "properties": { "seed_idx": 97, "delta_h": 8.3091384786111107, "dx_m": 7516.0461775344393, "dy_m": 3286.3801311653192, "uo_ms": 0.10650959797203541, "vo_ms": 0.018311105668544769, "vsdx_ms": 0.035, "vsdy_ms": 0.03, "u10_ms": 3.6584930419921875, "v10_ms": 2.0517959594726562, "u_total_ms": 0.25126438923180106, "v_total_ms": 0.10986498445272445, "speed_ms": 0.27423367427219331, "wind_source": "era5" }, "geometry": { "type": "LineString", "coordinates": [ [ -0.29360704529955, 5.496205649080577 ], [ -0.225692568623567, 5.52558938879461 ] ] } },
{ "type": "Feature", "properties": { "seed_idx": 98, "delta_h": 8.3091384786111107, "dx_m": 7516.0461775344393, "dy_m": 3286.3801311653192, "uo_ms": 0.10650959797203541, "vo_ms": 0.018311105668544769, "vsdx_ms": 0.035, "vsdy_ms": 0.03, "u10_ms": 3.6584930419921875, "v10_ms": 2.0517959594726562, "u_total_ms": 0.25126438923180106, "v_total_ms": 0.10986498445272445, "speed_ms": 0.27423367427219331, "wind_source": "era5" }, "geometry": { "type": "LineString", "coordinates": [ [ -0.293251453203048, 5.496376860090003 ], [ -0.225336955465304, 5.525760540604975 ] ] } },
{ "type": "Feature", "properties": { "seed_idx": 99, "delta_h": 8.3091384786111107, "dx_m": 7516.0461775344393, "dy_m": 3286.3801311653192, "uo_ms": 0.10650959797203541, "vo_ms": 0.018311105668544769, "vsdx_ms": 0.035, "vsdy_ms": 0.03, "u10_ms": 3.6584930419921875, "v10_ms": 2.0517959594726562, "u_total_ms": 0.25126438923180106, "v_total_ms": 0.10986498445272445, "speed_ms": 0.27423367427219331, "wind_source": "era5" }, "geometry": { "type": "LineString", "coordinates": [ [ -0.291842254894688, 5.496311009701762 ], [ -0.223927776622219, 5.525694498379172 ] ] } },
{ "type": "Feature", "properties": { "seed_idx": 100, "delta_h": 8.3091384786111107, "dx_m": 7516.0461775344393, "dy_m": 3286.3801311653192, "uo_ms": 0.10650959797203541, "vo_ms": 0.018311105668544769, "vsdx_ms": 0.035, "vsdy_ms": 0.03, "u10_ms": 3.6584930419921875, "v10_ms": 2.0517959594726562, "u_total_ms": 0.25126438923180106, "v_total_ms": 0.10986498445272445, "speed_ms": 0.27423367427219331, "wind_source": "era5" }, "geometry": { "type": "LineString", "coordinates": [ [ -0.292843180795953, 5.497338275758324 ], [ -0.224928553123924, 5.526721844335217 ] ] } },
{ "type": "Feature", "properties": { "seed_idx": 101, "delta_h": 8.3091384786111107, "dx_m": 7516.0461775344393, "dy_m": 3286.3801311653192, "uo_ms": 0.10650959797203541, "vo_ms": 0.018311105668544769, "vsdx_ms": 0.035, "vsdy_ms": 0.03, "u10_ms": 3.6584930419921875, "v10_ms": 2.0517959594726562, "u_total_ms": 0.25126438923180106, "v_total_ms": 0.10986498445272445, "speed_ms": 0.27423367427219331, "wind_source": "era5" }, "geometry": { "type": "LineString", "coordinates": [ [ -0.293132922504214, 5.497483146612455 ], [ -0.22521827267505, 5.526866747089149 ] ] } },
{ "type": "Feature", "properties": { "seed_idx": 102, "delta_h": 8.3091384786111107, "dx_m": 7516.0461775344393, "dy_m": 3286.3801311653192, "uo_ms": 0.10650959797203541, "vo_ms": 0.018311105668544769, "vsdx_ms": 0.035, "vsdy_ms": 0.03, "u10_ms": 3.6584930419921875, "v10_ms": 2.0517959594726562, "u_total_ms": 0.25126438923180106, "v_total_ms": 0.10986498445272445, "speed_ms": 0.27423367427219331, "wind_source": "era5" }, "geometry": { "type": "LineString", "coordinates": [ [ -0.293409494134827, 5.497035363972414 ], [ -0.225494904194091, 5.526419028581207 ] ] } },
{ "type": "Feature", "properties": { "seed_idx": 103, "delta_h": 8.3091384786111107, "dx_m": 7516.0461775344393, "dy_m": 3286.3801311653192, "uo_ms": 0.10650959797203541, "vo_ms": 0.018311105668544769, "vsdx_ms": 0.035, "vsdy_ms": 0.03, "u10_ms": 3.6584930419921875, "v10_ms": 2.0517959594726562, "u_total_ms": 0.25126438923180106, "v_total_ms": 0.10986498445272445, "speed_ms": 0.27423367427219331, "wind_source": "era5" }, "geometry": { "type": "LineString", "coordinates": [ [ -0.293409494134827, 5.497035363972414 ], [ -0.225494904194091, 5.526419028581207 ] ] } },
{ "type": "Feature", "properties": { "seed_idx": 104, "delta_h": 8.3091384786111107, "dx_m": 7516.0461775344393, "dy_m": 3286.3801311653192, "uo_ms": 0.10650959797203541, "vo_ms": 0.018311105668544769, "vsdx_ms": 0.035, "vsdy_ms": 0.03, "u10_ms": 3.6584930419921875, "v10_ms": 2.0517959594726562, "u_total_ms": 0.25126438923180106, "v_total_ms": 0.10986498445272445, "speed_ms": 0.27423367427219331, "wind_source": "era5" }, "geometry": { "type": "LineString", "coordinates": [ [ -0.293659725610143, 5.496495390788837 ], [ -0.225745208491569, 5.525879121165265 ] ] } },
{ "type": "Feature", "properties": { "seed_idx": 105, "delta_h": 8.3091384786111107, "dx_m": 7516.0461775344393, "dy_m": 3286.3801311653192, "uo_ms": 0.10650959797203541, "vo_ms": 0.018311105668544769, "vsdx_ms": 0.035, "vsdy_ms": 0.03, "u10_ms": 3.6584930419921875, "v10_ms": 2.0517959594726562, "u_total_ms": 0.25126438923180106, "v_total_ms": 0.10986498445272445, "speed_ms": 0.27423367427219331, "wind_source": "era5" }, "geometry": { "type": "LineString", "coordinates": [ [ -0.293659725610143, 5.496495390788837 ], [ -0.225745208491569, 5.525879121165265 ] ] } },
{ "type": "Feature", "properties": { "seed_idx": 106, "delta_h": 8.3091384786111107, "dx_m": 7516.0461775344393, "dy_m": 3286.3801311653192, "uo_ms": 0.10650959797203541, "vo_ms": 0.018311105668544769, "vsdx_ms": 0.035, "vsdy_ms": 0.03, "u10_ms": 3.6584930419921875, "v10_ms": 2.0517959594726562, "u_total_ms": 0.25126438923180106, "v_total_ms": 0.10986498445272445, "speed_ms": 0.27423367427219331, "wind_source": "era5" }, "geometry": { "type": "LineString", "coordinates": [ [ -0.294700161744352, 5.495705186129944 ], [ -0.226785746246127, 5.525089106318381 ] ] } },
{ "type": "Feature", "properties": { "seed_idx": 107, "delta_h": 8.3091384786111107, "dx_m": 7516.0461775344393, "dy_m": 3286.3801311653192, "uo_ms": 0.10650959797203541, "vo_ms": 0.018311105668544769, "vsdx_ms": 0.035, "vsdy_ms": 0.03, "u10_ms": 3.6584930419921875, "v10_ms": 2.0517959594726562, "u_total_ms": 0.25126438923180106, "v_total_ms": 0.10986498445272445, "speed_ms": 0.27423367427219331, "wind_source": "era5" }, "geometry": { "type": "LineString", "coordinates": [ [ -0.294976733374965, 5.495573485353462 ], [ -0.227062334058837, 5.524957451490462 ] ] } },
{ "type": "Feature", "properties": { "seed_idx": 108, "delta_h": 8.3091384786111107, "dx_m": 7516.0461775344393, "dy_m": 3286.3801311653192, "uo_ms": 0.10650959797203541, "vo_ms": 0.018311105668544769, "vsdx_ms": 0.035, "vsdy_ms": 0.03, "u10_ms": 3.6584930419921875, "v10_ms": 2.0517959594726562, "u_total_ms": 0.25126438923180106, "v_total_ms": 0.10986498445272445, "speed_ms": 0.27423367427219331, "wind_source": "era5" }, "geometry": { "type": "LineString", "coordinates": [ [ -0.295213794772633, 5.495191553101663 ], [ -0.22729944651302, 5.524575574073446 ] ] } },
{ "type": "Feature", "properties": { "seed_idx": 109, "delta_h": 8.3091384786111107, "dx_m": 7516.0461775344393, "dy_m": 3286.3801311653192, "uo_ms": 0.10650959797203541, "vo_ms": 0.018311105668544769, "vsdx_ms": 0.035, "vsdy_ms": 0.03, "u10_ms": 3.6584930419921875, "v10_ms": 2.0517959594726562, "u_total_ms": 0.25126438923180106, "v_total_ms": 0.10986498445272445, "speed_ms": 0.27423367427219331, "wind_source": "era5" }, "geometry": { "type": "LineString", "coordinates": [ [ -0.294752842054945, 5.495191553101663 ], [ -0.226838497165788, 5.524575510105619 ] ] } },
{ "type": "Feature", "properties": { "seed_idx": 110, "delta_h": 8.3091384786111107, "dx_m": 7516.0461775344393, "dy_m": 3286.3801311653192, "uo_ms": 0.10650959797203541, "vo_ms": 0.018311105668544769, "vsdx_ms": 0.035, "vsdy_ms": 0.03, "u10_ms": 3.6584930419921875, "v10_ms": 2.0517959594726562, "u_total_ms": 0.25126438923180106, "v_total_ms": 0.10986498445272445, "speed_ms": 0.27423367427219331, "wind_source": "era5" }, "geometry": { "type": "LineString", "coordinates": [ [ -0.294752842054945, 5.495191553101663 ], [ -0.226838497165788, 5.524575510105619 ] ] } },
{ "type": "Feature", "properties": { "seed_idx": 111, "delta_h": 8.3091384786111107, "dx_m": 7516.0461775344393, "dy_m": 3286.3801311653192, "uo_ms": 0.10650959797203541, "vo_ms": 0.018311105668544769, "vsdx_ms": 0.035, "vsdy_ms": 0.03, "u10_ms": 3.6584930419921875, "v10_ms": 2.0517959594726562, "u_total_ms": 0.25126438923180106, "v_total_ms": 0.10986498445272445, "speed_ms": 0.27423367427219331, "wind_source": "era5" }, "geometry": { "type": "LineString", "coordinates": [ [ -0.294871372753779, 5.495415444421684 ], [ -0.226956996052196, 5.524799405014423 ] ] } },
{ "type": "Feature", "properties": { "seed_idx": 112, "delta_h": 8.3091384786111107, "dx_m": 7516.0461775344393, "dy_m": 3286.3801311653192, "uo_ms": 0.10650959797203541, "vo_ms": 0.018311105668544769, "vsdx_ms": 0.035, "vsdy_ms": 0.03, "u10_ms": 3.6584930419921875, "v10_ms": 2.0517959594726562, "u_total_ms": 0.25126438923180106, "v_total_ms": 0.10986498445272445, "speed_ms": 0.27423367427219331, "wind_source": "era5" }, "geometry": { "type": "LineString", "coordinates": [ [ -0.2956418222962, 5.494216967355698 ], [ -0.227727605594996, 5.523601103688956 ] ] } },
{ "type": "Feature", "properties": { "seed_idx": 113, "delta_h": 8.3091384786111107, "dx_m": 7516.0461775344393, "dy_m": 3286.3801311653192, "uo_ms": 0.10650959797203541, "vo_ms": 0.018311105668544769, "vsdx_ms": 0.035, "vsdy_ms": 0.03, "u10_ms": 3.6584930419921875, "v10_ms": 2.0517959594726562, "u_total_ms": 0.25126438923180106, "v_total_ms": 0.10986498445272445, "speed_ms": 0.27423367427219331, "wind_source": "era5" }, "geometry": { "type": "LineString", "coordinates": [ [ -0.29560889710208, 5.494052341385095 ], [ -0.227694703390253, 5.523436482603638 ] ] } },
{ "type": "Feature", "properties": { "seed_idx": 114, "delta_h": 8.3091384786111107, "dx_m": 7516.0461775344393, "dy_m": 3286.3801311653192, "uo_ms": 0.10650959797203541, "vo_ms": 0.018311105668544769, "vsdx_ms": 0.035, "vsdy_ms": 0.03, "u10_ms": 3.6584930419921875, "v10_ms": 2.0517959594726562, "u_total_ms": 0.25126438923180106, "v_total_ms": 0.10986498445272445, "speed_ms": 0.27423367427219331, "wind_source": "era5" }, "geometry": { "type": "LineString", "coordinates": [ [ -0.294337984609026, 5.494249892549818 ], [ -0.226423772902418, 5.523633846080166 ] ] } },
{ "type": "Feature", "properties": { "seed_idx": 115, "delta_h": 8.3091384786111107, "dx_m": 7516.0461775344393, "dy_m": 3286.3801311653192, "uo_ms": 0.10650959797203541, "vo_ms": 0.018311105668544769, "vsdx_ms": 0.035, "vsdy_ms": 0.03, "u10_ms": 3.6584930419921875, "v10_ms": 2.0517959594726562, "u_total_ms": 0.25126438923180106, "v_total_ms": 0.10986498445272445, "speed_ms": 0.27423367427219331, "wind_source": "era5" }, "geometry": { "type": "LineString", "coordinates": [ [ -0.296030339586823, 5.495237648373434 ], [ -0.228115978997021, 5.524621780008356 ] ] } },
{ "type": "Feature", "properties": { "seed_idx": 116, "delta_h": 8.3091384786111107, "dx_m": 7516.0461775344393, "dy_m": 3286.3801311653192, "uo_ms": 0.10650959797203541, "vo_ms": 0.018311105668544769, "vsdx_ms": 0.035, "vsdy_ms": 0.03, "u10_ms": 3.6584930419921875, "v10_ms": 2.0517959594726562, "u_total_ms": 0.25126438923180106, "v_total_ms": 0.10986498445272445, "speed_ms": 0.27423367427219331, "wind_source": "era5" }, "geometry": { "type": "LineString", "coordinates": [ [ -0.295852543538572, 5.495487879848751 ], [ -0.227938149661131, 5.524871972443544 ] ] } }
]
}
