{
"type": "FeatureCollection",
"name": "predicted_seed_polygons",
"crs": { "type": "name", "properties": { "name": "urn:ogc:def:crs:OGC:1.3:CRS84" } },
"features": [
{ "type": "Feature", "properties": { "seed_idx": 0, "delta_h": 8.3091384786111107, "dx_m": 7216.9171923044378, "dy_m": 3136.8156385503194, "uo_ms": 0.10650959797203541, "vo_ms": 0.018311105668544769, "vsdx_ms": 0.025, "vsdy_ms": 0.025, "u10_ms": 3.6584930419921875, "v10_ms": 2.0517959594726562, "u_total_ms": 0.24126438923180102, "v_total_ms": 0.10486498445272446, "speed_ms": 0.26306875617538494, "wind_source": "era5" }, "geometry": { "type": "Point", "coordinates": [ -0.266414003237151, 5.517776285701996 ] } },
{ "type": "Feature", "properties": { "seed_idx": 1, "delta_h": 8.3091384786111107, "dx_m": 7216.9171923044378, "dy_m": 3136.8156385503194, "uo_ms": 0.10650959797203541, "vo_ms": 0.018311105668544769, "vsdx_ms": 0.025, "vsdy_ms": 0.025, "u10_ms": 3.6584930419921875, "v10_ms": 2.0517959594726562, "u_total_ms": 0.24126438923180102, "v_total_ms": 0.10486498445272446, "speed_ms": 0.26306875617538494, "wind_source": "era5" }, "geometry": { "type": "Point", "coordinates": [ -0.265149374331174, 5.520120264217947 ] } },
{ "type": "Feature", "properties": { "seed_idx": 2, "delta_h": 8.3091384786111107, "dx_m": 7216.9171923044378, "dy_m": 3136.8156385503194, "uo_ms": 0.10650959797203541, "vo_ms": 0.018311105668544769, "vsdx_ms": 0.025, "vsdy_ms": 0.025, "u10_ms": 3.6584930419921875, "v10_ms": 2.0517959594726562, "u_total_ms": 0.24126438923180102, "v_total_ms": 0.10486498445272446, "speed_ms": 0.26306875617538494, "wind_source": "era5" }, "geometry": { "type": "Point", "coordinates": [ -0.263812357368723, 5.522108660248946 ] } },
{ "type": "Feature", "properties": { "seed_idx": 3, "delta_h": 8.3091384786111107, "dx_m": 7216.9171923044378, "dy_m": 3136.8156385503194, "uo_ms": 0.10650959797203541, "vo_ms": 0.018311105668544769, "vsdx_ms": 0.025, "vsdy_ms": 0.025, "u10_ms": 3.6584930419921875, "v10_ms": 2.0517959594726562, "u_total_ms": 0.24126438923180102, "v_total_ms": 0.10486498445272446, "speed_ms": 0.26306875617538494, "wind_source": "era5" }, "geometry": { "type": "Point", "coordinates": [ -0.263581864248232, 5.522246907934489 ] } },
{ "type": "Feature", "properties": { "seed_idx": 4, "delta_h": 8.3091384786111107, "dx_m": 7216.9171923044378, "dy_m": 3136.8156385503194, "uo_ms": 0.10650959797203541, "vo_ms": 0.018311105668544769, "vsdx_ms": 0.025, "vsdy_ms": 0.025, "u10_ms": 3.6584930419921875, "v10_ms": 2.0517959594726562, "u_total_ms": 0.24126438923180102, "v_total_ms": 0.10486498445272446, "speed_ms": 0.26306875617538494, "wind_source": "era5" }, "geometry": { "type": "Point", "coordinates": [ -0.262192347532341, 5.522872268054533 ] } },
{ "type": "Feature", "properties": { "seed_idx": 5, "delta_h": 8.3091384786111107, "dx_m": 7216.9171923044378, "dy_m": 3136.8156385503194, "uo_ms": 0.10650959797203541, "vo_ms": 0.018311105668544769, "vsdx_ms": 0.025, "vsdy_ms": 0.025, "u10_ms": 3.6584930419921875, "v10_ms": 2.0517959594726562, "u_total_ms": 0.24126438923180102, "v_total_ms": 0.10486498445272446, "speed_ms": 0.26306875617538494, "wind_source": "era5" }, "geometry": { "type": "Point", "coordinates": [ -0.260888412247105, 5.523675425851474 ] } },
{ "type": "Feature", "properties": { "seed_idx": 6, "delta_h": 8.3091384786111107, "dx_m": 7216.9171923044378, "dy_m": 3136.8156385503194, "uo_ms": 0.10650959797203541, "vo_ms": 0.018311105668544769, "vsdx_ms": 0.025, "vsdy_ms": 0.025, "u10_ms": 3.6584930419921875, "v10_ms": 2.0517959594726562, "u_total_ms": 0.24126438923180102, "v_total_ms": 0.10486498445272446, "speed_ms": 0.26306875617538494, "wind_source": "era5" }, "geometry": { "type": "Point", "coordinates": [ -0.260539390962242, 5.523800488412011 ] } },
{ "type": "Feature", "properties": { "seed_idx": 7, "delta_h": 8.3091384786111107, "dx_m": 7216.9171923044378, "dy_m": 3136.8156385503194, "uo_ms": 0.10650959797203541, "vo_ms": 0.018311105668544769, "vsdx_ms": 0.025, "vsdy_ms": 0.025, "u10_ms": 3.6584930419921875, "v10_ms": 2.0517959594726562, "u_total_ms": 0.24126438923180102, "v_total_ms": 0.10486498445272446, "speed_ms": 0.26306875617538494, "wind_source": "era5" }, "geometry": { "type": "Point", "coordinates": [ -0.259235579403731, 5.523668621622806 ] } },
{ "type": "Feature", "properties": { "seed_idx": 8, "delta_h": 8.3091384786111107, "dx_m": 7216.9171923044378, "dy_m": 3136.8156385503194, "uo_ms": 0.10650959797203541, "vo_ms": 0.018311105668544769, "vsdx_ms": 0.025, "vsdy_ms": 0.025, "u10_ms": 3.6584930419921875, "v10_ms": 2.0517959594726562, "u_total_ms": 0.24126438923180102, "v_total_ms": 0.10486498445272446, "speed_ms": 0.26306875617538494, "wind_source": "era5" }, "geometry": { "type": "Point", "coordinates": [ -0.259229034483642, 5.523365725481892 ] } },
{ "type": "Feature", "properties": { "seed_idx": 9, "delta_h": 8.3091384786111107, "dx_m": 7216.9171923044378, "dy_m": 3136.8156385503194, "uo_ms": 0.10650959797203541, "vo_ms": 0.018311105668544769, "vsdx_ms": 0.025, "vsdy_ms": 0.025, "u10_ms": 3.6584930419921875, "v10_ms": 2.0517959594726562, "u_total_ms": 0.24126438923180102, "v_total_ms": 0.10486498445272446, "speed_ms": 0.26306875617538494, "wind_source": "era5" }, "geometry": { "type": "Point", "coordinates": [ -0.257846270982881, 5.522720243192925 ] } },
{ "type": "Feature", "properties": { "seed_idx": 10, "delta_h": 8.3091384786111107, "dx_m": 7216.9171923044378, "dy_m": 3136.8156385503194, "uo_ms": 0.10650959797203541, "vo_ms": 0.018311105668544769, "vsdx_ms": 0.025, "vsdy_ms": 0.025, "u10_ms": 3.6584930419921875, "v10_ms": 2.0517959594726562, "u_total_ms": 0.24126438923180102, "v_total_ms": 0.10486498445272446, "speed_ms": 0.26306875617538494, "wind_source": "era5" }, "geometry": { "type": "Point", "coordinates": [ -0.257161419359239, 5.522812337734315 ] } },
{ "type": "Feature", "properties": { "seed_idx": 11, "delta_h": 8.3091384786111107, "dx_m": 7216.9171923044378, "dy_m": 3136.8156385503194, "uo_ms": 0.10650959797203541, "vo_ms": 0.018311105668544769, "vsdx_ms": 0.025, "vsdy_ms": 0.025, "u10_ms": 3.6584930419921875, "v10_ms": 2.0517959594726562, "u_total_ms": 0.24126438923180102, "v_total_ms": 0.10486498445272446, "speed_ms": 0.26306875617538494, "wind_source": "era5" }, "geometry": { "type": "Point", "coordinates": [ -0.255949836155589, 5.522390757300712 ] } },
{ "type": "Feature", "properties": { "seed_idx": 12, "delta_h": 8.3091384786111107, "dx_m": 7216.9171923044378, "dy_m": 3136.8156385503194, "uo_ms": 0.10650959797203541, "vo_ms": 0.018311105668544769, "vsdx_ms": 0.025, "vsdy_ms": 0.025, "u10_ms": 3.6584930419921875, "v10_ms": 2.0517959594726562, "u_total_ms": 0.24126438923180102, "v_total_ms": 0.10486498445272446, "speed_ms": 0.26306875617538494, "wind_source": "era5" }, "geometry": { "type": "Point", "coordinates": [ -0.254086237503045, 5.522732913037485 ] } },
{ "type": "Feature", "properties": { "seed_idx": 13, "delta_h": 8.3091384786111107, "dx_m": 7216.9171923044378, "dy_m": 3136.8156385503194, "uo_ms": 0.10650959797203541, "vo_ms": 0.018311105668544769, "vsdx_ms": 0.025, "vsdy_ms": 0.025, "u10_ms": 3.6584930419921875, "v10_ms": 2.0517959594726562, "u_total_ms": 0.24126438923180102, "v_total_ms": 0.10486498445272446, "speed_ms": 0.26306875617538494, "wind_source": "era5" }, "geometry": { "type": "Point", "coordinates": [ -0.253895266576565, 5.52277898041789 ] } },
{ "type": "Feature", "properties": { "seed_idx": 14, "delta_h": 8.3091384786111107, "dx_m": 7216.9171923044378, "dy_m": 3136.8156385503194, "uo_ms": 0.10650959797203541, "vo_ms": 0.018311105668544769, "vsdx_ms": 0.025, "vsdy_ms": 0.025, "u10_ms": 3.6584930419921875, "v10_ms": 2.0517959594726562, "u_total_ms": 0.24126438923180102, "v_total_ms": 0.10486498445272446, "speed_ms": 0.26306875617538494, "wind_source": "era5" }, "geometry": { "type": "Point", "coordinates": [ -0.253658202435504, 5.522811872315053 ] } },
{ "type": "Feature", "properties": { "seed_idx": 15, "delta_h": 8.3091384786111107, "dx_m": 7216.9171923044378, "dy_m": 3136.8156385503194, "uo_ms": 0.10650959797203541, "vo_ms": 0.018311105668544769, "vsdx_ms": 0.025, "vsdy_ms": 0.025, "u10_ms": 3.6584930419921875, "v10_ms": 2.0517959594726562, "u_total_ms": 0.24126438923180102, "v_total_ms": 0.10486498445272446, "speed_ms": 0.26306875617538494, "wind_source": "era5" }, "geometry": { "type": "Point", "coordinates": [ -0.253388212454209, 5.522851344515531 ] } },
{ "type": "Feature", "properties": { "seed_idx": 16, "delta_h": 8.3091384786111107, "dx_m": 7216.9171923044378, "dy_m": 3136.8156385503194, "uo_ms": 0.10650959797203541, "vo_ms": 0.018311105668544769, "vsdx_ms": 0.025, "vsdy_ms": 0.025, "u10_ms": 3.6584930419921875, "v10_ms": 2.0517959594726562, "u_total_ms": 0.24126438923180102, "v_total_ms": 0.10486498445272446, "speed_ms": 0.26306875617538494, "wind_source": "era5" }, "geometry": { "type": "Point", "coordinates": [ -0.252848220294667, 5.523022474417507 ] } },
{ "type": "Feature", "properties": { "seed_idx": 17, "delta_h": 8.3091384786111107, "dx_m": 7216.9171923044378, "dy_m": 3136.8156385503194, "uo_ms": 0.10650959797203541, "vo_ms": 0.018311105668544769, "vsdx_ms": 0.025, "vsdy_ms": 0.025, "u10_ms": 3.6584930419921875, "v10_ms": 2.0517959594726562, "u_total_ms": 0.24126438923180102, "v_total_ms": 0.10486498445272446, "speed_ms": 0.26306875617538494, "wind_source": "era5" }, "geometry": { "type": "Point", "coordinates": [ -0.254783860788746, 5.525650018626461 ] } },
{ "type": "Feature", "properties": { "seed_idx": 18, "delta_h": 8.3091384786111107, "dx_m": 7216.9171923044378, "dy_m": 3136.8156385503194, "uo_ms": 0.10650959797203541, "vo_ms": 0.018311105668544769, "vsdx_ms": 0.025, "vsdy_ms": 0.025, "u10_ms": 3.6584930419921875, "v10_ms": 2.0517959594726562, "u_total_ms": 0.24126438923180102, "v_total_ms": 0.10486498445272446, "speed_ms": 0.26306875617538494, "wind_source": "era5" }, "geometry": { "type": "Point", "coordinates": [ -0.252905424503895, 5.526153496879266 ] } },
{ "type": "Feature", "properties": { "seed_idx": 19, "delta_h": 8.3091384786111107, "dx_m": 7216.9171923044378, "dy_m": 3136.8156385503194, "uo_ms": 0.10650959797203541, "vo_ms": 0.018311105668544769, "vsdx_ms": 0.025, "vsdy_ms": 0.025, "u10_ms": 3.6584930419921875, "v10_ms": 2.0517959594726562, "u_total_ms": 0.24126438923180102, "v_total_ms": 0.10486498445272446, "speed_ms": 0.26306875617538494, "wind_source": "era5" }, "geometry": { "type": "Point", "coordinates": [ -0.252062553988614, 5.526087538034155 ] } },
{ "type": "Feature", "properties": { "seed_idx": 20, "delta_h": 8.3091384786111107, "dx_m": 7216.9171923044378, "dy_m": 3136.8156385503194, "uo_ms": 0.10650959797203541, "vo_ms": 0.018311105668544769, "vsdx_ms": 0.025, "vsdy_ms": 0.025, "u10_ms": 3.6584930419921875, "v10_ms": 2.0517959594726562, "u_total_ms": 0.24126438923180102, "v_total_ms": 0.10486498445272446, "speed_ms": 0.26306875617538494, "wind_source": "era5" }, "geometry": { "type": "Point", "coordinates": [ -0.251828693400192, 5.526792067579532 ] } },
{ "type": "Feature", "properties": { "seed_idx": 21, "delta_h": 8.3091384786111107, "dx_m": 7216.9171923044378, "dy_m": 3136.8156385503194, "uo_ms": 0.10650959797203541, "vo_ms": 0.018311105668544769, "vsdx_ms": 0.025, "vsdy_ms": 0.025, "u10_ms": 3.6584930419921875, "v10_ms": 2.0517959594726562, "u_total_ms": 0.24126438923180102, "v_total_ms": 0.10486498445272446, "speed_ms": 0.26306875617538494, "wind_source": "era5" }, "geometry": { "type": "Point", "coordinates": [ -0.250508385992252, 5.526913708573824 ] } },
{ "type": "Feature", "properties": { "seed_idx": 22, "delta_h": 8.3091384786111107, "dx_m": 7216.9171923044378, "dy_m": 3136.8156385503194, "uo_ms": 0.10650959797203541, "vo_ms": 0.018311105668544769, "vsdx_ms": 0.025, "vsdy_ms": 0.025, "u10_ms": 3.6584930419921875, "v10_ms": 2.0517959594726562, "u_total_ms": 0.24126438923180102, "v_total_ms": 0.10486498445272446, "speed_ms": 0.26306875617538494, "wind_source": "era5" }, "geometry": { "type": "Point", "coordinates": [ -0.249734538016944, 5.527753152185056 ] } },
{ "type": "Feature", "properties": { "seed_idx": 23, "delta_h": 8.3091384786111107, "dx_m": 7216.9171923044378, "dy_m": 3136.8156385503194, "uo_ms": 0.10650959797203541, "vo_ms": 0.018311105668544769, "vsdx_ms": 0.025, "vsdy_ms": 0.025, "u10_ms": 3.6584930419921875, "v10_ms": 2.0517959594726562, "u_total_ms": 0.24126438923180102, "v_total_ms": 0.10486498445272446, "speed_ms": 0.26306875617538494, "wind_source": "era5" }, "geometry": { "type": "Point", "coordinates": [ -0.248598615267514, 5.527838601919858 ] } },
{ "type": "Feature", "properties": { "seed_idx": 24, "delta_h": 8.3091384786111107, "dx_m": 7216.9171923044378, "dy_m": 3136.8156385503194, "uo_ms": 0.10650959797203541, "vo_ms": 0.018311105668544769, "vsdx_ms": 0.025, "vsdy_ms": 0.025, "u10_ms": 3.6584930419921875, "v10_ms": 2.0517959594726562, "u_total_ms": 0.24126438923180102, "v_total_ms": 0.10486498445272446, "speed_ms": 0.26306875617538494, "wind_source": "era5" }, "geometry": { "type": "Point", "coordinates": [ -0.248499853885132, 5.52773652626783 ] } },
{ "type": "Feature", "properties": { "seed_idx": 25, "delta_h": 8.3091384786111107, "dx_m": 6469.0947292294377, "dy_m": 2388.9931754753193, "uo_ms": 0.10650959797203541, "vo_ms": 0.018311105668544769, "vsdx_ms": 0.0, "vsdy_ms": 0.0, "u10_ms": 3.6584930419921875, "v10_ms": 2.0517959594726562, "u_total_ms": 0.21626438923180102, "v_total_ms": 0.079864984452724455, "speed_ms": 0.23054002210340369, "wind_source": "era5" }, "geometry": { "type": "Point", "coordinates": [ -0.254464857877196, 5.521323109087343 ] } },
{ "type": "Feature", "properties": { "seed_idx": 26, "delta_h": 8.3091384786111107, "dx_m": 7216.9171923044378, "dy_m": 3136.8156385503194, "uo_ms": 0.10650959797203541, "vo_ms": 0.018311105668544769, "vsdx_ms": 0.025, "vsdy_ms": 0.025, "u10_ms": 3.6584930419921875, "v10_ms": 2.0517959594726562, "u_total_ms": 0.24126438923180102, "v_total_ms": 0.10486498445272446, "speed_ms": 0.26306875617538494, "wind_source": "era5" }, "geometry": { "type": "Point", "coordinates": [ -0.247568042404522, 5.527999789454149 ] } },
{ "type": "Feature", "properties": { "seed_idx": 27, "delta_h": 8.3091384786111107, "dx_m": 7216.9171923044378, "dy_m": 3136.8156385503194, "uo_ms": 0.10650959797203541, "vo_ms": 0.018311105668544769, "vsdx_ms": 0.025, "vsdy_ms": 0.025, "u10_ms": 3.6584930419921875, "v10_ms": 2.0517959594726562, "u_total_ms": 0.24126438923180102, "v_total_ms": 0.10486498445272446, "speed_ms": 0.26306875617538494, "wind_source": "era5" }, "geometry": { "type": "Point", "coordinates": [ -0.247446229622207, 5.52792734178889 ] } },
{ "type": "Feature", "properties": { "seed_idx": 28, "delta_h": 8.3091384786111107, "dx_m": 6469.0947292294377, "dy_m": 2388.9931754753193, "uo_ms": 0.10650959797203541, "vo_ms": 0.018311105668544769, "vsdx_ms": 0.0, "vsdy_ms": 0.0, "u10_ms": 3.6584930419921875, "v10_ms": 2.0517959594726562, "u_total_ms": 0.21626438923180102, "v_total_ms": 0.079864984452724455, "speed_ms": 0.23054002210340369, "wind_source": "era5" }, "geometry": { "type": "Point", "coordinates": [ -0.25109314881547, 5.523153269216976 ] } },
{ "type": "Feature", "properties": { "seed_idx": 29, "delta_h": 8.3091384786111107, "dx_m": 6469.0947292294377, "dy_m": 2388.9931754753193, "uo_ms": 0.10650959797203541, "vo_ms": 0.018311105668544769, "vsdx_ms": 0.0, "vsdy_ms": 0.0, "u10_ms": 3.6584930419921875, "v10_ms": 2.0517959594726562, "u_total_ms": 0.21626438923180102, "v_total_ms": 0.079864984452724455, "speed_ms": 0.23054002210340369, "wind_source": "era5" }, "geometry": { "type": "Point", "coordinates": [ -0.250250230311709, 5.523535084965933 ] } },
{ "type": "Feature", "properties": { "seed_idx": 30, "delta_h": 8.3091384786111107, "dx_m": 6469.0947292294377, "dy_m": 2388.9931754753193, "uo_ms": 0.10650959797203541, "vo_ms": 0.018311105668544769, "vsdx_ms": 0.0, "vsdy_ms": 0.0, "u10_ms": 3.6584930419921875, "v10_ms": 2.0517959594726562, "u_total_ms": 0.21626438923180102, "v_total_ms": 0.079864984452724455, "speed_ms": 0.23054002210340369, "wind_source": "era5" }, "geometry": { "type": "Point", "coordinates": [ -0.248314283740356, 5.523271471663215 ] } },
{ "type": "Feature", "properties": { "seed_idx": 31, "delta_h": 8.3091384786111107, "dx_m": 6469.0947292294377, "dy_m": 2388.9931754753193, "uo_ms": 0.10650959797203541, "vo_ms": 0.018311105668544769, "vsdx_ms": 0.0, "vsdy_ms": 0.0, "u10_ms": 3.6584930419921875, "v10_ms": 2.0517959594726562, "u_total_ms": 0.21626438923180102, "v_total_ms": 0.079864984452724455, "speed_ms": 0.23054002210340369, "wind_source": "era5" }, "geometry": { "type": "Point", "coordinates": [ -0.247142109878144, 5.523719096323544 ] } },
{ "type": "Feature", "properties": { "seed_idx": 32, "delta_h": 8.3091384786111107, "dx_m": 6469.0947292294377, "dy_m": 2388.9931754753193, "uo_ms": 0.10650959797203541, "vo_ms": 0.018311105668544769, "vsdx_ms": 0.0, "vsdy_ms": 0.0, "u10_ms": 3.6584930419921875, "v10_ms": 2.0517959594726562, "u_total_ms": 0.21626438923180102, "v_total_ms": 0.079864984452724455, "speed_ms": 0.23054002210340369, "wind_source": "era5" }, "geometry": { "type": "Point", "coordinates": [ -0.246970931479996, 5.523455687815333 ] } },
{ "type": "Feature", "properties": { "seed_idx": 33, "delta_h": 8.3091384786111107, "dx_m": 6469.0947292294377, "dy_m": 2388.9931754753193, "uo_ms": 0.10650959797203541, "vo_ms": 0.018311105668544769, "vsdx_ms": 0.0, "vsdy_ms": 0.0, "u10_ms": 3.6584930419921875, "v10_ms": 2.0517959594726562, "u_total_ms": 0.21626438923180102, "v_total_ms": 0.079864984452724455, "speed_ms": 0.23054002210340369, "wind_source": "era5" }, "geometry": { "type": "Point", "coordinates": [ -0.246786575559282, 5.523258124939219 ] } },
{ "type": "Feature", "properties": { "seed_idx": 34, "delta_h": 8.3091384786111107, "dx_m": 6469.0947292294377, "dy_m": 2388.9931754753193, "uo_ms": 0.10650959797203541, "vo_ms": 0.018311105668544769, "vsdx_ms": 0.0, "vsdy_ms": 0.0, "u10_ms": 3.6584930419921875, "v10_ms": 2.0517959594726562, "u_total_ms": 0.21626438923180102, "v_total_ms": 0.079864984452724455, "speed_ms": 0.23054002210340369, "wind_source": "era5" }, "geometry": { "type": "Point", "coordinates": [ -0.24654952781685, 5.523165911404667 ] } },
{ "type": "Feature", "properties": { "seed_idx": 35, "delta_h": 8.3091384786111107, "dx_m": 6469.0947292294377, "dy_m": 2388.9931754753193, "uo_ms": 0.10650959797203541, "vo_ms": 0.018311105668544769, "vsdx_ms": 0.0, "vsdy_ms": 0.0, "u10_ms": 3.6584930419921875, "v10_ms": 2.0517959594726562, "u_total_ms": 0.21626438923180102, "v_total_ms": 0.079864984452724455, "speed_ms": 0.23054002210340369, "wind_source": "era5" }, "geometry": { "type": "Point", "coordinates": [ -0.246569236062065, 5.523569227545405 ] } },
{ "type": "Feature", "properties": { "seed_idx": 36, "delta_h": 8.3091384786111107, "dx_m": 6469.0947292294377, "dy_m": 2388.9931754753193, "uo_ms": 0.10650959797203541, "vo_ms": 0.018311105668544769, "vsdx_ms": 0.0, "vsdy_ms": 0.0, "u10_ms": 3.6584930419921875, "v10_ms": 2.0517959594726562, "u_total_ms": 0.21626438923180102, "v_total_ms": 0.079864984452724455, "speed_ms": 0.23054002210340369, "wind_source": "era5" }, "geometry": { "type": "Point", "coordinates": [ -0.246430932014822, 5.523742060287336 ] } },
{ "type": "Feature", "properties": { "seed_idx": 37, "delta_h": 8.3091384786111107, "dx_m": 6469.0947292294377, "dy_m": 2388.9931754753193, "uo_ms": 0.10650959797203541, "vo_ms": 0.018311105668544769, "vsdx_ms": 0.0, "vsdy_ms": 0.0, "u10_ms": 3.6584930419921875, "v10_ms": 2.0517959594726562, "u_total_ms": 0.21626438923180102, "v_total_ms": 0.079864984452724455, "speed_ms": 0.23054002210340369, "wind_source": "era5" }, "geometry": { "type": "Point", "coordinates": [ -0.24654943685497, 5.523952784952878 ] } },
{ "type": "Feature", "properties": { "seed_idx": 38, "delta_h": 8.3091384786111107, "dx_m": 6469.0947292294377, "dy_m": 2388.9931754753193, "uo_ms": 0.10650959797203541, "vo_ms": 0.018311105668544769, "vsdx_ms": 0.0, "vsdy_ms": 0.0, "u10_ms": 3.6584930419921875, "v10_ms": 2.0517959594726562, "u_total_ms": 0.21626438923180102, "v_total_ms": 0.079864984452724455, "speed_ms": 0.23054002210340369, "wind_source": "era5" }, "geometry": { "type": "Point", "coordinates": [ -0.246523239370155, 5.522721440025762 ] } },
{ "type": "Feature", "properties": { "seed_idx": 39, "delta_h": 8.3091384786111107, "dx_m": 6469.0947292294377, "dy_m": 2388.9931754753193, "uo_ms": 0.10650959797203541, "vo_ms": 0.018311105668544769, "vsdx_ms": 0.0, "vsdy_ms": 0.0, "u10_ms": 3.6584930419921875, "v10_ms": 2.0517959594726562, "u_total_ms": 0.21626438923180102, "v_total_ms": 0.079864984452724455, "speed_ms": 0.23054002210340369, "wind_source": "era5" }, "geometry": { "type": "Point", "coordinates": [ -0.246312552760833, 5.522444857506159 ] } },
{ "type": "Feature", "properties": { "seed_idx": 40, "delta_h": 8.3091384786111107, "dx_m": 7216.9171923044378, "dy_m": 3136.8156385503194, "uo_ms": 0.10650959797203541, "vo_ms": 0.018311105668544769, "vsdx_ms": 0.025, "vsdy_ms": 0.025, "u10_ms": 3.6584930419921875, "v10_ms": 2.0517959594726562, "u_total_ms": 0.24126438923180102, "v_total_ms": 0.10486498445272446, "speed_ms": 0.26306875617538494, "wind_source": "era5" }, "geometry": { "type": "Point", "coordinates": [ -0.238108702787454, 5.527978776710986 ] } },
{ "type": "Feature", "properties": { "seed_idx": 41, "delta_h": 8.3091384786111107, "dx_m": 7216.9171923044378, "dy_m": 3136.8156385503194, "uo_ms": 0.10650959797203541, "vo_ms": 0.018311105668544769, "vsdx_ms": 0.025, "vsdy_ms": 0.025, "u10_ms": 3.6584930419921875, "v10_ms": 2.0517959594726562, "u_total_ms": 0.24126438923180102, "v_total_ms": 0.10486498445272446, "speed_ms": 0.26306875617538494, "wind_source": "era5" }, "geometry": { "type": "Point", "coordinates": [ -0.237726799428927, 5.527781185566375 ] } },
{ "type": "Feature", "properties": { "seed_idx": 42, "delta_h": 8.3091384786111107, "dx_m": 6469.0947292294377, "dy_m": 2388.9931754753193, "uo_ms": 0.10650959797203541, "vo_ms": 0.018311105668544769, "vsdx_ms": 0.0, "vsdy_ms": 0.0, "u10_ms": 3.6584930419921875, "v10_ms": 2.0517959594726562, "u_total_ms": 0.21626438923180102, "v_total_ms": 0.079864984452724455, "speed_ms": 0.23054002210340369, "wind_source": "era5" }, "geometry": { "type": "Point", "coordinates": [ -0.240234224185361, 5.526032821832932 ] } },
{ "type": "Feature", "properties": { "seed_idx": 43, "delta_h": 8.3091384786111107, "dx_m": 6469.0947292294377, "dy_m": 2388.9931754753193, "uo_ms": 0.10650959797203541, "vo_ms": 0.018311105668544769, "vsdx_ms": 0.0, "vsdy_ms": 0.0, "u10_ms": 3.6584930419921875, "v10_ms": 2.0517959594726562, "u_total_ms": 0.21626438923180102, "v_total_ms": 0.079864984452724455, "speed_ms": 0.23054002210340369, "wind_source": "era5" }, "geometry": { "type": "Point", "coordinates": [ -0.240550468822121, 5.524590805919017 ] } },
{ "type": "Feature", "properties": { "seed_idx": 44, "delta_h": 8.3091384786111107, "dx_m": 6469.0947292294377, "dy_m": 2388.9931754753193, "uo_ms": 0.10650959797203541, "vo_ms": 0.018311105668544769, "vsdx_ms": 0.0, "vsdy_ms": 0.0, "u10_ms": 3.6584930419921875, "v10_ms": 2.0517959594726562, "u_total_ms": 0.21626438923180102, "v_total_ms": 0.079864984452724455, "speed_ms": 0.23054002210340369, "wind_source": "era5" }, "geometry": { "type": "Point", "coordinates": [ -0.240043477564244, 5.524156155842189 ] } },
{ "type": "Feature", "properties": { "seed_idx": 45, "delta_h": 8.3091384786111107, "dx_m": 6469.0947292294377, "dy_m": 2388.9931754753193, "uo_ms": 0.10650959797203541, "vo_ms": 0.018311105668544769, "vsdx_ms": 0.0, "vsdy_ms": 0.0, "u10_ms": 3.6584930419921875, "v10_ms": 2.0517959594726562, "u_total_ms": 0.21626438923180102, "v_total_ms": 0.079864984452724455, "speed_ms": 0.23054002210340369, "wind_source": "era5" }, "geometry": { "type": "Point", "coordinates": [ -0.240873289996786, 5.523221222620104 ] } },
{ "type": "Feature", "properties": { "seed_idx": 46, "delta_h": 8.3091384786111107, "dx_m": 6469.0947292294377, "dy_m": 2388.9931754753193, "uo_ms": 0.10650959797203541, "vo_ms": 0.018311105668544769, "vsdx_ms": 0.0, "vsdy_ms": 0.0, "u10_ms": 3.6584930419921875, "v10_ms": 2.0517959594726562, "u_total_ms": 0.21626438923180102, "v_total_ms": 0.079864984452724455, "speed_ms": 0.23054002210340369, "wind_source": "era5" }, "geometry": { "type": "Point", "coordinates": [ -0.241031385253134, 5.522733972039526 ] } },
{ "type": "Feature", "properties": { "seed_idx": 47, "delta_h": 8.3091384786111107, "dx_m": 6469.0947292294377, "dy_m": 2388.9931754753193, "uo_ms": 0.10650959797203541, "vo_ms": 0.018311105668544769, "vsdx_ms": 0.0, "vsdy_ms": 0.0, "u10_ms": 3.6584930419921875, "v10_ms": 2.0517959594726562, "u_total_ms": 0.21626438923180102, "v_total_ms": 0.079864984452724455, "speed_ms": 0.23054002210340369, "wind_source": "era5" }, "geometry": { "type": "Point", "coordinates": [ -0.24147273480197, 5.521370987188669 ] } },
{ "type": "Feature", "properties": { "seed_idx": 48, "delta_h": 8.3091384786111107, "dx_m": 7516.0461775344393, "dy_m": 3286.3801311653192, "uo_ms": 0.10650959797203541, "vo_ms": 0.018311105668544769, "vsdx_ms": 0.035, "vsdy_ms": 0.03, "u10_ms": 3.6584930419921875, "v10_ms": 2.0517959594726562, "u_total_ms": 0.25126438923180106, "v_total_ms": 0.10986498445272445, "speed_ms": 0.27423367427219331, "wind_source": "era5" }, "geometry": { "type": "Point", "coordinates": [ -0.231513235484243, 5.528954958529775 ] } },
{ "type": "Feature", "properties": { "seed_idx": 49, "delta_h": 8.3091384786111107, "dx_m": 7516.0461775344393, "dy_m": 3286.3801311653192, "uo_ms": 0.10650959797203541, "vo_ms": 0.018311105668544769, "vsdx_ms": 0.035, "vsdy_ms": 0.03, "u10_ms": 3.6584930419921875, "v10_ms": 2.0517959594726562, "u_total_ms": 0.25126438923180106, "v_total_ms": 0.10986498445272445, "speed_ms": 0.27423367427219331, "wind_source": "era5" }, "geometry": { "type": "Point", "coordinates": [ -0.23027544555441, 5.527591761828544 ] } },
{ "type": "Feature", "properties": { "seed_idx": 50, "delta_h": 8.3091384786111107, "dx_m": 7516.0461775344393, "dy_m": 3286.3801311653192, "uo_ms": 0.10650959797203541, "vo_ms": 0.018311105668544769, "vsdx_ms": 0.035, "vsdy_ms": 0.03, "u10_ms": 3.6584930419921875, "v10_ms": 2.0517959594726562, "u_total_ms": 0.25126438923180106, "v_total_ms": 0.10986498445272445, "speed_ms": 0.27423367427219331, "wind_source": "era5" }, "geometry": { "type": "Point", "coordinates": [ -0.230407185435125, 5.527302055023284 ] } },
{ "type": "Feature", "properties": { "seed_idx": 51, "delta_h": 8.3091384786111107, "dx_m": 7516.0461775344393, "dy_m": 3286.3801311653192, "uo_ms": 0.10650959797203541, "vo_ms": 0.018311105668544769, "vsdx_ms": 0.035, "vsdy_ms": 0.03, "u10_ms": 3.6584930419921875, "v10_ms": 2.0517959594726562, "u_total_ms": 0.25126438923180106, "v_total_ms": 0.10986498445272445, "speed_ms": 0.27423367427219331, "wind_source": "era5" }, "geometry": { "type": "Point", "coordinates": [ -0.230578427979403, 5.527065030988552 ] } },
{ "type": "Feature", "properties": { "seed_idx": 52, "delta_h": 8.3091384786111107, "dx_m": 7516.0461775344393, "dy_m": 3286.3801311653192, "uo_ms": 0.10650959797203541, "vo_ms": 0.018311105668544769, "vsdx_ms": 0.035, "vsdy_ms": 0.03, "u10_ms": 3.6584930419921875, "v10_ms": 2.0517959594726562, "u_total_ms": 0.25126438923180106, "v_total_ms": 0.10986498445272445, "speed_ms": 0.27423367427219331, "wind_source": "era5" }, "geometry": { "type": "Point", "coordinates": [ -0.229564504994545, 5.525866481944904 ] } },
{ "type": "Feature", "properties": { "seed_idx": 53, "delta_h": 8.3091384786111107, "dx_m": 7516.0461775344393, "dy_m": 3286.3801311653192, "uo_ms": 0.10650959797203541, "vo_ms": 0.018311105668544769, "vsdx_ms": 0.035, "vsdy_ms": 0.03, "u10_ms": 3.6584930419921875, "v10_ms": 2.0517959594726562, "u_total_ms": 0.25126438923180106, "v_total_ms": 0.10986498445272445, "speed_ms": 0.27423367427219331, "wind_source": "era5" }, "geometry": { "type": "Point", "coordinates": [ -0.229287940830496, 5.525826935597354 ] } },
{ "type": "Feature", "properties": { "seed_idx": 54, "delta_h": 8.3091384786111107, "dx_m": 7516.0461775344393, "dy_m": 3286.3801311653192, "uo_ms": 0.10650959797203541, "vo_ms": 0.018311105668544769, "vsdx_ms": 0.035, "vsdy_ms": 0.03, "u10_ms": 3.6584930419921875, "v10_ms": 2.0517959594726562, "u_total_ms": 0.25126438923180106, "v_total_ms": 0.10986498445272445, "speed_ms": 0.27423367427219331, "wind_source": "era5" }, "geometry": { "type": "Point", "coordinates": [ -0.229077222937637, 5.525813737031767 ] } },
{ "type": "Feature", "properties": { "seed_idx": 55, "delta_h": 8.3091384786111107, "dx_m": 7516.0461775344393, "dy_m": 3286.3801311653192, "uo_ms": 0.10650959797203541, "vo_ms": 0.018311105668544769, "vsdx_ms": 0.035, "vsdy_ms": 0.03, "u10_ms": 3.6584930419921875, "v10_ms": 2.0517959594726562, "u_total_ms": 0.25126438923180106, "v_total_ms": 0.10986498445272445, "speed_ms": 0.27423367427219331, "wind_source": "era5" }, "geometry": { "type": "Point", "coordinates": [ -0.231000027613833, 5.525906189122357 ] } },
{ "type": "Feature", "properties": { "seed_idx": 56, "delta_h": 8.3091384786111107, "dx_m": 7516.0461775344393, "dy_m": 3286.3801311653192, "uo_ms": 0.10650959797203541, "vo_ms": 0.018311105668544769, "vsdx_ms": 0.035, "vsdy_ms": 0.03, "u10_ms": 3.6584930419921875, "v10_ms": 2.0517959594726562, "u_total_ms": 0.25126438923180106, "v_total_ms": 0.10986498445272445, "speed_ms": 0.27423367427219331, "wind_source": "era5" }, "geometry": { "type": "Point", "coordinates": [ -0.22724653174519, 5.526274409202837 ] } },
{ "type": "Feature", "properties": { "seed_idx": 57, "delta_h": 8.3091384786111107, "dx_m": 7516.0461775344393, "dy_m": 3286.3801311653192, "uo_ms": 0.10650959797203541, "vo_ms": 0.018311105668544769, "vsdx_ms": 0.035, "vsdy_ms": 0.03, "u10_ms": 3.6584930419921875, "v10_ms": 2.0517959594726562, "u_total_ms": 0.25126438923180106, "v_total_ms": 0.10986498445272445, "speed_ms": 0.27423367427219331, "wind_source": "era5" }, "geometry": { "type": "Point", "coordinates": [ -0.226904090375487, 5.52643239352567 ] } },
{ "type": "Feature", "properties": { "seed_idx": 58, "delta_h": 8.3091384786111107, "dx_m": 7516.0461775344393, "dy_m": 3286.3801311653192, "uo_ms": 0.10650959797203541, "vo_ms": 0.018311105668544769, "vsdx_ms": 0.035, "vsdy_ms": 0.03, "u10_ms": 3.6584930419921875, "v10_ms": 2.0517959594726562, "u_total_ms": 0.25126438923180106, "v_total_ms": 0.10986498445272445, "speed_ms": 0.27423367427219331, "wind_source": "era5" }, "geometry": { "type": "Point", "coordinates": [ -0.226469451853066, 5.526643042331476 ] } },
{ "type": "Feature", "properties": { "seed_idx": 59, "delta_h": 8.3091384786111107, "dx_m": 7516.0461775344393, "dy_m": 3286.3801311653192, "uo_ms": 0.10650959797203541, "vo_ms": 0.018311105668544769, "vsdx_ms": 0.035, "vsdy_ms": 0.03, "u10_ms": 3.6584930419921875, "v10_ms": 2.0517959594726562, "u_total_ms": 0.25126438923180106, "v_total_ms": 0.10986498445272445, "speed_ms": 0.27423367427219331, "wind_source": "era5" }, "geometry": { "type": "Point", "coordinates": [ -0.225955787980955, 5.526893188124089 ] } },
{ "type": "Feature", "properties": { "seed_idx": 60, "delta_h": 8.3091384786111107, "dx_m": 7516.0461775344393, "dy_m": 3286.3801311653192, "uo_ms": 0.10650959797203541, "vo_ms": 0.018311105668544769, "vsdx_ms": 0.035, "vsdy_ms": 0.03, "u10_ms": 3.6584930419921875, "v10_ms": 2.0517959594726562, "u_total_ms": 0.25126438923180106, "v_total_ms": 0.10986498445272445, "speed_ms": 0.27423367427219331, "wind_source": "era5" }, "geometry": { "type": "Point", "coordinates": [ -0.225349910566695, 5.527314522278602 ] } },
{ "type": "Feature", "properties": { "seed_idx": 61, "delta_h": 8.3091384786111107, "dx_m": 7516.0461775344393, "dy_m": 3286.3801311653192, "uo_ms": 0.10650959797203541, "vo_ms": 0.018311105668544769, "vsdx_ms": 0.035, "vsdy_ms": 0.03, "u10_ms": 3.6584930419921875, "v10_ms": 2.0517959594726562, "u_total_ms": 0.25126438923180106, "v_total_ms": 0.10986498445272445, "speed_ms": 0.27423367427219331, "wind_source": "era5" }, "geometry": { "type": "Point", "coordinates": [ -0.225099653605236, 5.527512027344772 ] } },
{ "type": "Feature", "properties": { "seed_idx": 62, "delta_h": 8.3091384786111107, "dx_m": 7516.0461775344393, "dy_m": 3286.3801311653192, "uo_ms": 0.10650959797203541, "vo_ms": 0.018311105668544769, "vsdx_ms": 0.035, "vsdy_ms": 0.03, "u10_ms": 3.6584930419921875, "v10_ms": 2.0517959594726562, "u_total_ms": 0.25126438923180106, "v_total_ms": 0.10986498445272445, "speed_ms": 0.27423367427219331, "wind_source": "era5" }, "geometry": { "type": "Point", "coordinates": [ -0.224757214061284, 5.527656842324694 ] } },
{ "type": "Feature", "properties": { "seed_idx": 63, "delta_h": 8.3091384786111107, "dx_m": 7516.0461775344393, "dy_m": 3286.3801311653192, "uo_ms": 0.10650959797203541, "vo_ms": 0.018311105668544769, "vsdx_ms": 0.035, "vsdy_ms": 0.03, "u10_ms": 3.6584930419921875, "v10_ms": 2.0517959594726562, "u_total_ms": 0.25126438923180106, "v_total_ms": 0.10986498445272445, "speed_ms": 0.27423367427219331, "wind_source": "era5" }, "geometry": { "type": "Point", "coordinates": [ -0.224493816261835, 5.527643636428649 ] } },
{ "type": "Feature", "properties": { "seed_idx": 64, "delta_h": 8.3091384786111107, "dx_m": 7516.0461775344393, "dy_m": 3286.3801311653192, "uo_ms": 0.10650959797203541, "vo_ms": 0.018311105668544769, "vsdx_ms": 0.035, "vsdy_ms": 0.03, "u10_ms": 3.6584930419921875, "v10_ms": 2.0517959594726562, "u_total_ms": 0.25126438923180106, "v_total_ms": 0.10986498445272445, "speed_ms": 0.27423367427219331, "wind_source": "era5" }, "geometry": { "type": "Point", "coordinates": [ -0.224309498455045, 5.527195853930443 ] } },
{ "type": "Feature", "properties": { "seed_idx": 65, "delta_h": 8.3091384786111107, "dx_m": 7516.0461775344393, "dy_m": 3286.3801311653192, "uo_ms": 0.10650959797203541, "vo_ms": 0.018311105668544769, "vsdx_ms": 0.035, "vsdy_ms": 0.03, "u10_ms": 3.6584930419921875, "v10_ms": 2.0517959594726562, "u_total_ms": 0.25126438923180106, "v_total_ms": 0.10986498445272445, "speed_ms": 0.27423367427219331, "wind_source": "era5" }, "geometry": { "type": "Point", "coordinates": [ -0.224112025235068, 5.526642715043616 ] } },
{ "type": "Feature", "properties": { "seed_idx": 66, "delta_h": 8.3091384786111107, "dx_m": 7516.0461775344393, "dy_m": 3286.3801311653192, "uo_ms": 0.10650959797203541, "vo_ms": 0.018311105668544769, "vsdx_ms": 0.035, "vsdy_ms": 0.03, "u10_ms": 3.6584930419921875, "v10_ms": 2.0517959594726562, "u_total_ms": 0.25126438923180106, "v_total_ms": 0.10986498445272445, "speed_ms": 0.27423367427219331, "wind_source": "era5" }, "geometry": { "type": "Point", "coordinates": [ -0.223927694675831, 5.52628711779443 ] } },
{ "type": "Feature", "properties": { "seed_idx": 67, "delta_h": 8.3091384786111107, "dx_m": 8501.9750198072361, "dy_m": 3176.8324820238972, "uo_ms": 0.13946958817541599, "vo_ms": 0.014648884534835815, "vsdx_ms": 0.035, "vsdy_ms": 0.03, "u10_ms": 3.6584930419921875, "v10_ms": 2.0517959594726562, "u_total_ms": 0.28422437943518164, "v_total_ms": 0.1062027633190155, "speed_ms": 0.3034180693398284, "wind_source": "era5" }, "geometry": { "type": "Point", "coordinates": [ -0.214620084975387, 5.52499216004965 ] } },
{ "type": "Feature", "properties": { "seed_idx": 68, "delta_h": 8.3091384786111107, "dx_m": 8501.9750198072361, "dy_m": 3176.8324820238972, "uo_ms": 0.13946958817541599, "vo_ms": 0.014648884534835815, "vsdx_ms": 0.035, "vsdy_ms": 0.03, "u10_ms": 3.6584930419921875, "v10_ms": 2.0517959594726562, "u_total_ms": 0.28422437943518164, "v_total_ms": 0.1062027633190155, "speed_ms": 0.3034180693398284, "wind_source": "era5" }, "geometry": { "type": "Point", "coordinates": [ -0.214066983015034, 5.524781367895317 ] } },
{ "type": "Feature", "properties": { "seed_idx": 69, "delta_h": 8.3091384786111107, "dx_m": 8501.9750198072361, "dy_m": 3176.8324820238972, "uo_ms": 0.13946958817541599, "vo_ms": 0.014648884534835815, "vsdx_ms": 0.035, "vsdy_ms": 0.03, "u10_ms": 3.6584930419921875, "v10_ms": 2.0517959594726562, "u_total_ms": 0.28422437943518164, "v_total_ms": 0.1062027633190155, "speed_ms": 0.3034180693398284, "wind_source": "era5" }, "geometry": { "type": "Point", "coordinates": [ -0.213843169654521, 5.524294072456195 ] } },
{ "type": "Feature", "properties": { "seed_idx": 70, "delta_h": 8.3091384786111107, "dx_m": 8501.9750198072361, "dy_m": 3176.8324820238972, "uo_ms": 0.13946958817541599, "vo_ms": 0.014648884534835815, "vsdx_ms": 0.035, "vsdy_ms": 0.03, "u10_ms": 3.6584930419921875, "v10_ms": 2.0517959594726562, "u_total_ms": 0.28422437943518164, "v_total_ms": 0.1062027633190155, "speed_ms": 0.3034180693398284, "wind_source": "era5" }, "geometry": { "type": "Point", "coordinates": [ -0.213632504082191, 5.523951640470808 ] } },
{ "type": "Feature", "properties": { "seed_idx": 71, "delta_h": 8.3091384786111107, "dx_m": 8501.9750198072361, "dy_m": 3176.8324820238972, "uo_ms": 0.13946958817541599, "vo_ms": 0.014648884534835815, "vsdx_ms": 0.035, "vsdy_ms": 0.03, "u10_ms": 3.6584930419921875, "v10_ms": 2.0517959594726562, "u_total_ms": 0.28422437943518164, "v_total_ms": 0.1062027633190155, "speed_ms": 0.3034180693398284, "wind_source": "era5" }, "geometry": { "type": "Point", "coordinates": [ -0.21338230084923, 5.523793571543544 ] } },
{ "type": "Feature", "properties": { "seed_idx": 72, "delta_h": 8.3091384786111107, "dx_m": 8501.9750198072361, "dy_m": 3176.8324820238972, "uo_ms": 0.13946958817541599, "vo_ms": 0.014648884534835815, "vsdx_ms": 0.035, "vsdy_ms": 0.03, "u10_ms": 3.6584930419921875, "v10_ms": 2.0517959594726562, "u_total_ms": 0.28422437943518164, "v_total_ms": 0.1062027633190155, "speed_ms": 0.3034180693398284, "wind_source": "era5" }, "geometry": { "type": "Point", "coordinates": [ -0.213158437334061, 5.523635506646099 ] } },
{ "type": "Feature", "properties": { "seed_idx": 73, "delta_h": 8.3091384786111107, "dx_m": 8501.9750198072361, "dy_m": 3176.8324820238972, "uo_ms": 0.13946958817541599, "vo_ms": 0.014648884534835815, "vsdx_ms": 0.035, "vsdy_ms": 0.03, "u10_ms": 3.6584930419921875, "v10_ms": 2.0517959594726562, "u_total_ms": 0.28422437943518164, "v_total_ms": 0.1062027633190155, "speed_ms": 0.3034180693398284, "wind_source": "era5" }, "geometry": { "type": "Point", "coordinates": [ -0.212249753245063, 5.523398321682035 ] } },
{ "type": "Feature", "properties": { "seed_idx": 74, "delta_h": 8.3091384786111107, "dx_m": 8501.9750198072361, "dy_m": 3176.8324820238972, "uo_ms": 0.13946958817541599, "vo_ms": 0.014648884534835815, "vsdx_ms": 0.035, "vsdy_ms": 0.03, "u10_ms": 3.6584930419921875, "v10_ms": 2.0517959594726562, "u_total_ms": 0.28422437943518164, "v_total_ms": 0.1062027633190155, "speed_ms": 0.3034180693398284, "wind_source": "era5" }, "geometry": { "type": "Point", "coordinates": [ -0.214106653086868, 5.523727836219241 ] } },
{ "type": "Feature", "properties": { "seed_idx": 75, "delta_h": 8.3091384786111107, "dx_m": 8501.9750198072361, "dy_m": 3176.8324820238972, "uo_ms": 0.13946958817541599, "vo_ms": 0.014648884534835815, "vsdx_ms": 0.035, "vsdy_ms": 0.03, "u10_ms": 3.6584930419921875, "v10_ms": 2.0517959594726562, "u_total_ms": 0.28422437943518164, "v_total_ms": 0.1062027633190155, "speed_ms": 0.3034180693398284, "wind_source": "era5" }, "geometry": { "type": "Point", "coordinates": [ -0.214475425172099, 5.523622538842763 ] } },
{ "type": "Feature", "properties": { "seed_idx": 76, "delta_h": 8.3091384786111107, "dx_m": 8501.9750198072361, "dy_m": 3176.8324820238972, "uo_ms": 0.13946958817541599, "vo_ms": 0.014648884534835815, "vsdx_ms": 0.035, "vsdy_ms": 0.03, "u10_ms": 3.6584930419921875, "v10_ms": 2.0517959594726562, "u_total_ms": 0.28422437943518164, "v_total_ms": 0.1062027633190155, "speed_ms": 0.3034180693398284, "wind_source": "era5" }, "geometry": { "type": "Point", "coordinates": [ -0.214738856443658, 5.523398702355807 ] } },
{ "type": "Feature", "properties": { "seed_idx": 77, "delta_h": 8.3091384786111107, "dx_m": 7516.0461775344393, "dy_m": 3286.3801311653192, "uo_ms": 0.10650959797203541, "vo_ms": 0.018311105668544769, "vsdx_ms": 0.035, "vsdy_ms": 0.03, "u10_ms": 3.6584930419921875, "v10_ms": 2.0517959594726562, "u_total_ms": 0.25126438923180106, "v_total_ms": 0.10986498445272445, "speed_ms": 0.27423367427219331, "wind_source": "era5" }, "geometry": { "type": "Point", "coordinates": [ -0.223980662288031, 5.524206372492418 ] } },
{ "type": "Feature", "properties": { "seed_idx": 78, "delta_h": 8.3091384786111107, "dx_m": 7516.0461775344393, "dy_m": 3286.3801311653192, "uo_ms": 0.10650959797203541, "vo_ms": 0.018311105668544769, "vsdx_ms": 0.035, "vsdy_ms": 0.03, "u10_ms": 3.6584930419921875, "v10_ms": 2.0517959594726562, "u_total_ms": 0.25126438923180106, "v_total_ms": 0.10986498445272445, "speed_ms": 0.27423367427219331, "wind_source": "era5" }, "geometry": { "type": "Point", "coordinates": [ -0.224270418243329, 5.524087888822345 ] } },
{ "type": "Feature", "properties": { "seed_idx": 79, "delta_h": 8.3091384786111107, "dx_m": 7516.0461775344393, "dy_m": 3286.3801311653192, "uo_ms": 0.10650959797203541, "vo_ms": 0.018311105668544769, "vsdx_ms": 0.035, "vsdy_ms": 0.03, "u10_ms": 3.6584930419921875, "v10_ms": 2.0517959594726562, "u_total_ms": 0.25126438923180106, "v_total_ms": 0.10986498445272445, "speed_ms": 0.27423367427219331, "wind_source": "era5" }, "geometry": { "type": "Point", "coordinates": [ -0.224520673359676, 5.523903553064227 ] } },
{ "type": "Feature", "properties": { "seed_idx": 80, "delta_h": 8.3091384786111107, "dx_m": 7516.0461775344393, "dy_m": 3286.3801311653192, "uo_ms": 0.10650959797203541, "vo_ms": 0.018311105668544769, "vsdx_ms": 0.035, "vsdy_ms": 0.03, "u10_ms": 3.6584930419921875, "v10_ms": 2.0517959594726562, "u_total_ms": 0.25126438923180106, "v_total_ms": 0.10986498445272445, "speed_ms": 0.27423367427219331, "wind_source": "era5" }, "geometry": { "type": "Point", "coordinates": [ -0.224876268297423, 5.523864094451721 ] } },
{ "type": "Feature", "properties": { "seed_idx": 81, "delta_h": 8.3091384786111107, "dx_m": 7516.0461775344393, "dy_m": 3286.3801311653192, "uo_ms": 0.10650959797203541, "vo_ms": 0.018311105668544769, "vsdx_ms": 0.035, "vsdy_ms": 0.03, "u10_ms": 3.6584930419921875, "v10_ms": 2.0517959594726562, "u_total_ms": 0.25126438923180106, "v_total_ms": 0.10986498445272445, "speed_ms": 0.27423367427219331, "wind_source": "era5" }, "geometry": { "type": "Point", "coordinates": [ -0.225205523276013, 5.523824632182157 ] } },
{ "type": "Feature", "properties": { "seed_idx": 82, "delta_h": 8.3091384786111107, "dx_m": 7516.0461775344393, "dy_m": 3286.3801311653192, "uo_ms": 0.10650959797203541, "vo_ms": 0.018311105668544769, "vsdx_ms": 0.035, "vsdy_ms": 0.03, "u10_ms": 3.6584930419921875, "v10_ms": 2.0517959594726562, "u_total_ms": 0.25126438923180106, "v_total_ms": 0.10986498445272445, "speed_ms": 0.27423367427219331, "wind_source": "era5" }, "geometry": { "type": "Point", "coordinates": [ -0.225640136283171, 5.523798353852799 ] } },
{ "type": "Feature", "properties": { "seed_idx": 83, "delta_h": 8.3091384786111107, "dx_m": 7516.0461775344393, "dy_m": 3286.3801311653192, "uo_ms": 0.10650959797203541, "vo_ms": 0.018311105668544769, "vsdx_ms": 0.035, "vsdy_ms": 0.03, "u10_ms": 3.6584930419921875, "v10_ms": 2.0517959594726562, "u_total_ms": 0.25126438923180106, "v_total_ms": 0.10986498445272445, "speed_ms": 0.27423367427219331, "wind_source": "era5" }, "geometry": { "type": "Point", "coordinates": [ -0.226180100041208, 5.523837936746395 ] } },
{ "type": "Feature", "properties": { "seed_idx": 84, "delta_h": 8.3091384786111107, "dx_m": 7516.0461775344393, "dy_m": 3286.3801311653192, "uo_ms": 0.10650959797203541, "vo_ms": 0.018311105668544769, "vsdx_ms": 0.035, "vsdy_ms": 0.03, "u10_ms": 3.6584930419921875, "v10_ms": 2.0517959594726562, "u_total_ms": 0.25126438923180106, "v_total_ms": 0.10986498445272445, "speed_ms": 0.27423367427219331, "wind_source": "era5" }, "geometry": { "type": "Point", "coordinates": [ -0.226101047391348, 5.52407497355777 ] } },
{ "type": "Feature", "properties": { "seed_idx": 85, "delta_h": 8.3091384786111107, "dx_m": 7516.0461775344393, "dy_m": 3286.3801311653192, "uo_ms": 0.10650959797203541, "vo_ms": 0.018311105668544769, "vsdx_ms": 0.035, "vsdy_ms": 0.03, "u10_ms": 3.6584930419921875, "v10_ms": 2.0517959594726562, "u_total_ms": 0.25126438923180106, "v_total_ms": 0.10986498445272445, "speed_ms": 0.27423367427219331, "wind_source": "era5" }, "geometry": { "type": "Point", "coordinates": [ -0.225784949644789, 5.524206622902612 ] } },
{ "type": "Feature", "properties": { "seed_idx": 86, "delta_h": 8.3091384786111107, "dx_m": 7516.0461775344393, "dy_m": 3286.3801311653192, "uo_ms": 0.10650959797203541, "vo_ms": 0.018311105668544769, "vsdx_ms": 0.035, "vsdy_ms": 0.03, "u10_ms": 3.6584930419921875, "v10_ms": 2.0517959594726562, "u_total_ms": 0.25126438923180106, "v_total_ms": 0.10986498445272445, "speed_ms": 0.27423367427219331, "wind_source": "era5" }, "geometry": { "type": "Point", "coordinates": [ -0.225389822911919, 5.524404107881828 ] } },
{ "type": "Feature", "properties": { "seed_idx": 87, "delta_h": 8.3091384786111107, "dx_m": 7516.0461775344393, "dy_m": 3286.3801311653192, "uo_ms": 0.10650959797203541, "vo_ms": 0.018311105668544769, "vsdx_ms": 0.035, "vsdy_ms": 0.03, "u10_ms": 3.6584930419921875, "v10_ms": 2.0517959594726562, "u_total_ms": 0.25126438923180106, "v_total_ms": 0.10986498445272445, "speed_ms": 0.27423367427219331, "wind_source": "era5" }, "geometry": { "type": "Point", "coordinates": [ -0.224678634847711, 5.524469855780798 ] } },
{ "type": "Feature", "properties": { "seed_idx": 88, "delta_h": 8.3091384786111107, "dx_m": 7516.0461775344393, "dy_m": 3286.3801311653192, "uo_ms": 0.10650959797203541, "vo_ms": 0.018311105668544769, "vsdx_ms": 0.035, "vsdy_ms": 0.03, "u10_ms": 3.6584930419921875, "v10_ms": 2.0517959594726562, "u_total_ms": 0.25126438923180106, "v_total_ms": 0.10986498445272445, "speed_ms": 0.27423367427219331, "wind_source": "era5" }, "geometry": { "type": "Point", "coordinates": [ -0.224296663535465, 5.524772697140965 ] } },
{ "type": "Feature", "properties": { "seed_idx": 89, "delta_h": 8.3091384786111107, "dx_m": 8501.9750198072361, "dy_m": 3176.8324820238972, "uo_ms": 0.13946958817541599, "vo_ms": 0.014648884534835815, "vsdx_ms": 0.035, "vsdy_ms": 0.03, "u10_ms": 3.6584930419921875, "v10_ms": 2.0517959594726562, "u_total_ms": 0.28422437943518164, "v_total_ms": 0.1062027633190155, "speed_ms": 0.3034180693398284, "wind_source": "era5" }, "geometry": { "type": "Point", "coordinates": [ -0.214857296909663, 5.523978166237711 ] } },
{ "type": "Feature", "properties": { "seed_idx": 90, "delta_h": 8.3091384786111107, "dx_m": 7516.0461775344393, "dy_m": 3286.3801311653192, "uo_ms": 0.10650959797203541, "vo_ms": 0.018311105668544769, "vsdx_ms": 0.035, "vsdy_ms": 0.03, "u10_ms": 3.6584930419921875, "v10_ms": 2.0517959594726562, "u_total_ms": 0.25126438923180106, "v_total_ms": 0.10986498445272445, "speed_ms": 0.27423367427219331, "wind_source": "era5" }, "geometry": { "type": "Point", "coordinates": [ -0.224257068018822, 5.525391649717031 ] } },
{ "type": "Feature", "properties": { "seed_idx": 91, "delta_h": 8.3091384786111107, "dx_m": 7516.0461775344393, "dy_m": 3286.3801311653192, "uo_ms": 0.10650959797203541, "vo_ms": 0.018311105668544769, "vsdx_ms": 0.035, "vsdy_ms": 0.03, "u10_ms": 3.6584930419921875, "v10_ms": 2.0517959594726562, "u_total_ms": 0.25126438923180106, "v_total_ms": 0.10986498445272445, "speed_ms": 0.27423367427219331, "wind_source": "era5" }, "geometry": { "type": "Point", "coordinates": [ -0.224928758886634, 5.525233711106235 ] } },
{ "type": "Feature", "properties": { "seed_idx": 92, "delta_h": 8.3091384786111107, "dx_m": 7516.0461775344393, "dy_m": 3286.3801311653192, "uo_ms": 0.10650959797203541, "vo_ms": 0.018311105668544769, "vsdx_ms": 0.035, "vsdy_ms": 0.03, "u10_ms": 3.6584930419921875, "v10_ms": 2.0517959594726562, "u_total_ms": 0.25126438923180106, "v_total_ms": 0.10986498445272445, "speed_ms": 0.27423367427219331, "wind_source": "era5" }, "geometry": { "type": "Point", "coordinates": [ -0.225705796865512, 5.525167972356401 ] } },
{ "type": "Feature", "properties": { "seed_idx": 93, "delta_h": 8.3091384786111107, "dx_m": 7516.0461775344393, "dy_m": 3286.3801311653192, "uo_ms": 0.10650959797203541, "vo_ms": 0.018311105668544769, "vsdx_ms": 0.035, "vsdy_ms": 0.03, "u10_ms": 3.6584930419921875, "v10_ms": 2.0517959594726562, "u_total_ms": 0.25126438923180106, "v_total_ms": 0.10986498445272445, "speed_ms": 0.27423367427219331, "wind_source": "era5" }, "geometry": { "type": "Point", "coordinates": [ -0.225705796865512, 5.525167972356401 ] } },
{ "type": "Feature", "properties": { "seed_idx": 94, "delta_h": 8.3091384786111107, "dx_m": 7516.0461775344393, "dy_m": 3286.3801311653192, "uo_ms": 0.10650959797203541, "vo_ms": 0.018311105668544769, "vsdx_ms": 0.035, "vsdy_ms": 0.03, "u10_ms": 3.6584930419921875, "v10_ms": 2.0517959594726562, "u_total_ms": 0.25126438923180106, "v_total_ms": 0.10986498445272445, "speed_ms": 0.27423367427219331, "wind_source": "era5" }, "geometry": { "type": "Point", "coordinates": [ -0.226627704649932, 5.525102253705438 ] } },
{ "type": "Feature", "properties": { "seed_idx": 95, "delta_h": 8.3091384786111107, "dx_m": 7516.0461775344393, "dy_m": 3286.3801311653192, "uo_ms": 0.10650959797203541, "vo_ms": 0.018311105668544769, "vsdx_ms": 0.035, "vsdy_ms": 0.03, "u10_ms": 3.6584930419921875, "v10_ms": 2.0517959594726562, "u_total_ms": 0.25126438923180106, "v_total_ms": 0.10986498445272445, "speed_ms": 0.27423367427219331, "wind_source": "era5" }, "geometry": { "type": "Point", "coordinates": [ -0.225890129264414, 5.525510400290562 ] } },
{ "type": "Feature", "properties": { "seed_idx": 96, "delta_h": 8.3091384786111107, "dx_m": 7516.0461775344393, "dy_m": 3286.3801311653192, "uo_ms": 0.10650959797203541, "vo_ms": 0.018311105668544769, "vsdx_ms": 0.035, "vsdy_ms": 0.03, "u10_ms": 3.6584930419921875, "v10_ms": 2.0517959594726562, "u_total_ms": 0.25126438923180106, "v_total_ms": 0.10986498445272445, "speed_ms": 0.27423367427219331, "wind_source": "era5" }, "geometry": { "type": "Point", "coordinates": [ -0.225692568623567, 5.52558938879461 ] } },
{ "type": "Feature", "properties": { "seed_idx": 97, "delta_h": 8.3091384786111107, "dx_m": 7516.0461775344393, "dy_m": 3286.3801311653192, "uo_ms": 0.10650959797203541, "vo_ms": 0.018311105668544769, "vsdx_ms": 0.035, "vsdy_ms": 0.03, "u10_ms": 3.6584930419921875, "v10_ms": 2.0517959594726562, "u_total_ms": 0.25126438923180106, "v_total_ms": 0.10986498445272445, "speed_ms": 0.27423367427219331, "wind_source": "era5" }, "geometry": { "type": "Point", "coordinates": [ -0.225692568623567, 5.52558938879461 ] } },
{ "type": "Feature", "properties": { "seed_idx": 98, "delta_h": 8.3091384786111107, "dx_m": 7516.0461775344393, "dy_m": 3286.3801311653192, "uo_ms": 0.10650959797203541, "vo_ms": 0.018311105668544769, "vsdx_ms": 0.035, "vsdy_ms": 0.03, "u10_ms": 3.6584930419921875, "v10_ms": 2.0517959594726562, "u_total_ms": 0.25126438923180106, "v_total_ms": 0.10986498445272445, "speed_ms": 0.27423367427219331, "wind_source": "era5" }, "geometry": { "type": "Point", "coordinates": [ -0.225336955465304, 5.525760540604975 ] } },
{ "type": "Feature", "properties": { "seed_idx": 99, "delta_h": 8.3091384786111107, "dx_m": 7516.0461775344393, "dy_m": 3286.3801311653192, "uo_ms": 0.10650959797203541, "vo_ms": 0.018311105668544769, "vsdx_ms": 0.035, "vsdy_ms": 0.03, "u10_ms": 3.6584930419921875, "v10_ms": 2.0517959594726562, "u_total_ms": 0.25126438923180106, "v_total_ms": 0.10986498445272445, "speed_ms": 0.27423367427219331, "wind_source": "era5" }, "geometry": { "type": "Point", "coordinates": [ -0.223927776622219, 5.525694498379172 ] } },
{ "type": "Feature", "properties": { "seed_idx": 100, "delta_h": 8.3091384786111107, "dx_m": 7516.0461775344393, "dy_m": 3286.3801311653192, "uo_ms": 0.10650959797203541, "vo_ms": 0.018311105668544769, "vsdx_ms": 0.035, "vsdy_ms": 0.03, "u10_ms": 3.6584930419921875, "v10_ms": 2.0517959594726562, "u_total_ms": 0.25126438923180106, "v_total_ms": 0.10986498445272445, "speed_ms": 0.27423367427219331, "wind_source": "era5" }, "geometry": { "type": "Point", "coordinates": [ -0.224928553123924, 5.526721844335217 ] } },
{ "type": "Feature", "properties": { "seed_idx": 101, "delta_h": 8.3091384786111107, "dx_m": 7516.0461775344393, "dy_m": 3286.3801311653192, "uo_ms": 0.10650959797203541, "vo_ms": 0.018311105668544769, "vsdx_ms": 0.035, "vsdy_ms": 0.03, "u10_ms": 3.6584930419921875, "v10_ms": 2.0517959594726562, "u_total_ms": 0.25126438923180106, "v_total_ms": 0.10986498445272445, "speed_ms": 0.27423367427219331, "wind_source": "era5" }, "geometry": { "type": "Point", "coordinates": [ -0.22521827267505, 5.526866747089149 ] } },
{ "type": "Feature", "properties": { "seed_idx": 102, "delta_h": 8.3091384786111107, "dx_m": 7516.0461775344393, "dy_m": 3286.3801311653192, "uo_ms": 0.10650959797203541, "vo_ms": 0.018311105668544769, "vsdx_ms": 0.035, "vsdy_ms": 0.03, "u10_ms": 3.6584930419921875, "v10_ms": 2.0517959594726562, "u_total_ms": 0.25126438923180106, "v_total_ms": 0.10986498445272445, "speed_ms": 0.27423367427219331, "wind_source": "era5" }, "geometry": { "type": "Point", "coordinates": [ -0.225494904194091, 5.526419028581207 ] } },
{ "type": "Feature", "properties": { "seed_idx": 103, "delta_h": 8.3091384786111107, "dx_m": 7516.0461775344393, "dy_m": 3286.3801311653192, "uo_ms": 0.10650959797203541, "vo_ms": 0.018311105668544769, "vsdx_ms": 0.035, "vsdy_ms": 0.03, "u10_ms": 3.6584930419921875, "v10_ms": 2.0517959594726562, "u_total_ms": 0.25126438923180106, "v_total_ms": 0.10986498445272445, "speed_ms": 0.27423367427219331, "wind_source": "era5" }, "geometry": { "type": "Point", "coordinates": [ -0.225494904194091, 5.526419028581207 ] } },
{ "type": "Feature", "properties": { "seed_idx": 104, "delta_h": 8.3091384786111107, "dx_m": 7516.0461775344393, "dy_m": 3286.3801311653192, "uo_ms": 0.10650959797203541, "vo_ms": 0.018311105668544769, "vsdx_ms": 0.035, "vsdy_ms": 0.03, "u10_ms": 3.6584930419921875, "v10_ms": 2.0517959594726562, "u_total_ms": 0.25126438923180106, "v_total_ms": 0.10986498445272445, "speed_ms": 0.27423367427219331, "wind_source": "era5" }, "geometry": { "type": "Point", "coordinates": [ -0.225745208491569, 5.525879121165265 ] } },
{ "type": "Feature", "properties": { "seed_idx": 105, "delta_h": 8.3091384786111107, "dx_m": 7516.0461775344393, "dy_m": 3286.3801311653192, "uo_ms": 0.10650959797203541, "vo_ms": 0.018311105668544769, "vsdx_ms": 0.035, "vsdy_ms": 0.03, "u10_ms": 3.6584930419921875, "v10_ms": 2.0517959594726562, "u_total_ms": 0.25126438923180106, "v_total_ms": 0.10986498445272445, "speed_ms": 0.27423367427219331, "wind_source": "era5" }, "geometry": { "type": "Point", "coordinates": [ -0.225745208491569, 5.525879121165265 ] } },
{ "type": "Feature", "properties": { "seed_idx": 106, "delta_h": 8.3091384786111107, "dx_m": 7516.0461775344393, "dy_m": 3286.3801311653192, "uo_ms": 0.10650959797203541, "vo_ms": 0.018311105668544769, "vsdx_ms": 0.035, "vsdy_ms": 0.03, "u10_ms": 3.6584930419921875, "v10_ms": 2.0517959594726562, "u_total_ms": 0.25126438923180106, "v_total_ms": 0.10986498445272445, "speed_ms": 0.27423367427219331, "wind_source": "era5" }, "geometry": { "type": "Point", "coordinates": [ -0.226785746246127, 5.525089106318381 ] } },
{ "type": "Feature", "properties": { "seed_idx": 107, "delta_h": 8.3091384786111107, "dx_m": 7516.0461775344393, "dy_m": 3286.3801311653192, "uo_ms": 0.10650959797203541, "vo_ms": 0.018311105668544769, "vsdx_ms": 0.035, "vsdy_ms": 0.03, "u10_ms": 3.6584930419921875, "v10_ms": 2.0517959594726562, "u_total_ms": 0.25126438923180106, "v_total_ms": 0.10986498445272445, "speed_ms": 0.27423367427219331, "wind_source": "era5" }, "geometry": { "type": "Point", "coordinates": [ -0.227062334058837, 5.524957451490462 ] } },
{ "type": "Feature", "properties": { "seed_idx": 108, "delta_h": 8.3091384786111107, "dx_m": 7516.0461775344393, "dy_m": 3286.3801311653192, "uo_ms": 0.10650959797203541, "vo_ms": 0.018311105668544769, "vsdx_ms": 0.035, "vsdy_ms": 0.03, "u10_ms": 3.6584930419921875, "v10_ms": 2.0517959594726562, "u_total_ms": 0.25126438923180106, "v_total_ms": 0.10986498445272445, "speed_ms": 0.27423367427219331, "wind_source": "era5" }, "geometry": { "type": "Point", "coordinates": [ -0.22729944651302, 5.524575574073446 ] } },
{ "type": "Feature", "properties": { "seed_idx": 109, "delta_h": 8.3091384786111107, "dx_m": 7516.0461775344393, "dy_m": 3286.3801311653192, "uo_ms": 0.10650959797203541, "vo_ms": 0.018311105668544769, "vsdx_ms": 0.035, "vsdy_ms": 0.03, "u10_ms": 3.6584930419921875, "v10_ms": 2.0517959594726562, "u_total_ms": 0.25126438923180106, "v_total_ms": 0.10986498445272445, "speed_ms": 0.27423367427219331, "wind_source": "era5" }, "geometry": { "type": "Point", "coordinates": [ -0.226838497165788, 5.524575510105619 ] } },
{ "type": "Feature", "properties": { "seed_idx": 110, "delta_h": 8.3091384786111107, "dx_m": 7516.0461775344393, "dy_m": 3286.3801311653192, "uo_ms": 0.10650959797203541, "vo_ms": 0.018311105668544769, "vsdx_ms": 0.035, "vsdy_ms": 0.03, "u10_ms": 3.6584930419921875, "v10_ms": 2.0517959594726562, "u_total_ms": 0.25126438923180106, "v_total_ms": 0.10986498445272445, "speed_ms": 0.27423367427219331, "wind_source": "era5" }, "geometry": { "type": "Point", "coordinates": [ -0.226838497165788, 5.524575510105619 ] } },
{ "type": "Feature", "properties": { "seed_idx": 111, "delta_h": 8.3091384786111107, "dx_m": 7516.0461775344393, "dy_m": 3286.3801311653192, "uo_ms": 0.10650959797203541, "vo_ms": 0.018311105668544769, "vsdx_ms": 0.035, "vsdy_ms": 0.03, "u10_ms": 3.6584930419921875, "v10_ms": 2.0517959594726562, "u_total_ms": 0.25126438923180106, "v_total_ms": 0.10986498445272445, "speed_ms": 0.27423367427219331, "wind_source": "era5" }, "geometry": { "type": "Point", "coordinates": [ -0.226956996052196, 5.524799405014423 ] } },
{ "type": "Feature", "properties": { "seed_idx": 112, "delta_h": 8.3091384786111107, "dx_m": 7516.0461775344393, "dy_m": 3286.3801311653192, "uo_ms": 0.10650959797203541, "vo_ms": 0.018311105668544769, "vsdx_ms": 0.035, "vsdy_ms": 0.03, "u10_ms": 3.6584930419921875, "v10_ms": 2.0517959594726562, "u_total_ms": 0.25126438923180106, "v_total_ms": 0.10986498445272445, "speed_ms": 0.27423367427219331, "wind_source": "era5" }, "geometry": { "type": "Point", "coordinates": [ -0.227727605594996, 5.523601103688956 ] } },
{ "type": "Feature", "properties": { "seed_idx": 113, "delta_h": 8.3091384786111107, "dx_m": 7516.0461775344393, "dy_m": 3286.3801311653192, "uo_ms": 0.10650959797203541, "vo_ms": 0.018311105668544769, "vsdx_ms": 0.035, "vsdy_ms": 0.03, "u10_ms": 3.6584930419921875, "v10_ms": 2.0517959594726562, "u_total_ms": 0.25126438923180106, "v_total_ms": 0.10986498445272445, "speed_ms": 0.27423367427219331, "wind_source": "era5" }, "geometry": { "type": "Point", "coordinates": [ -0.227694703390253, 5.523436482603638 ] } },
{ "type": "Feature", "properties": { "seed_idx": 114, "delta_h": 8.3091384786111107, "dx_m": 7516.0461775344393, "dy_m": 3286.3801311653192, "uo_ms": 0.10650959797203541, "vo_ms": 0.018311105668544769, "vsdx_ms": 0.035, "vsdy_ms": 0.03, "u10_ms": 3.6584930419921875, "v10_ms": 2.0517959594726562, "u_total_ms": 0.25126438923180106, "v_total_ms": 0.10986498445272445, "speed_ms": 0.27423367427219331, "wind_source": "era5" }, "geometry": { "type": "Point", "coordinates": [ -0.226423772902418, 5.523633846080166 ] } },
{ "type": "Feature", "properties": { "seed_idx": 115, "delta_h": 8.3091384786111107, "dx_m": 7516.0461775344393, "dy_m": 3286.3801311653192, "uo_ms": 0.10650959797203541, "vo_ms": 0.018311105668544769, "vsdx_ms": 0.035, "vsdy_ms": 0.03, "u10_ms": 3.6584930419921875, "v10_ms": 2.0517959594726562, "u_total_ms": 0.25126438923180106, "v_total_ms": 0.10986498445272445, "speed_ms": 0.27423367427219331, "wind_source": "era5" }, "geometry": { "type": "Point", "coordinates": [ -0.228115978997021, 5.524621780008356 ] } },
{ "type": "Feature", "properties": { "seed_idx": 116, "delta_h": 8.3091384786111107, "dx_m": 7516.0461775344393, "dy_m": 3286.3801311653192, "uo_ms": 0.10650959797203541, "vo_ms": 0.018311105668544769, "vsdx_ms": 0.035, "vsdy_ms": 0.03, "u10_ms": 3.6584930419921875, "v10_ms": 2.0517959594726562, "u_total_ms": 0.25126438923180106, "v_total_ms": 0.10986498445272445, "speed_ms": 0.27423367427219331, "wind_source": "era5" }, "geometry": { "type": "Point", "coordinates": [ -0.227938149661131, 5.524871972443544 ] } }
]
}
