{
"type": "FeatureCollection",
"name": "DurbanPlanet25_04_2019_0700_Seeds",
"crs": { "type": "name", "properties": { "name": "urn:ogc:def:crs:OGC:1.3:CRS84" } },
"features": [
{ "type": "Feature", "properties": { "rand_point_id": 0 }, "geometry": { "type": "Point", "coordinates": [ 31.266495556424154, -29.787004275689597 ] } },
{ "type": "Feature", "properties": { "rand_point_id": 1 }, "geometry": { "type": "Point", "coordinates": [ 31.257347016566946, -29.812531000536687 ] } },
{ "type": "Feature", "properties": { "rand_point_id": 2 }, "geometry": { "type": "Point", "coordinates": [ 31.251002216292779, -29.827120110183589 ] } },
{ "type": "Feature", "properties": { "rand_point_id": 3 }, "geometry": { "type": "Point", "coordinates": [ 31.25907766912108, -29.805274020495744 ] } },
{ "type": "Feature", "properties": { "rand_point_id": 4 }, "geometry": { "type": "Point", "coordinates": [ 31.264286291170471, -29.786380571234478 ] } },
{ "type": "Feature", "properties": { "rand_point_id": 5 }, "geometry": { "type": "Point", "coordinates": [ 31.255942507297515, -29.815242116711904 ] } },
{ "type": "Feature", "properties": { "rand_point_id": 6 }, "geometry": { "type": "Point", "coordinates": [ 31.296267235543464, -29.757282329371087 ] } },
{ "type": "Feature", "properties": { "rand_point_id": 7 }, "geometry": { "type": "Point", "coordinates": [ 31.264564516970946, -29.794143977375313 ] } },
{ "type": "Feature", "properties": { "rand_point_id": 8 }, "geometry": { "type": "Point", "coordinates": [ 31.253249111484354, -29.822692852045293 ] } },
{ "type": "Feature", "properties": { "rand_point_id": 9 }, "geometry": { "type": "Point", "coordinates": [ 31.254609157699399, -29.818729022557104 ] } },
{ "type": "Feature", "properties": { "rand_point_id": 10 }, "geometry": { "type": "Point", "coordinates": [ 31.297847008076896, -29.755794259509269 ] } },
{ "type": "Feature", "properties": { "rand_point_id": 11 }, "geometry": { "type": "Point", "coordinates": [ 31.270413372503256, -29.782070787140071 ] } },
{ "type": "Feature", "properties": { "rand_point_id": 12 }, "geometry": { "type": "Point", "coordinates": [ 31.265647681855718, -29.792191279551993 ] } },
{ "type": "Feature", "properties": { "rand_point_id": 13 }, "geometry": { "type": "Point", "coordinates": [ 31.259468466866497, -29.804254856207418 ] } },
{ "type": "Feature", "properties": { "rand_point_id": 14 }, "geometry": { "type": "Point", "coordinates": [ 31.263721863745225, -29.787462415442146 ] } },
{ "type": "Feature", "properties": { "rand_point_id": 15 }, "geometry": { "type": "Point", "coordinates": [ 31.252298254814576, -29.824094572397801 ] } },
{ "type": "Feature", "properties": { "rand_point_id": 16 }, "geometry": { "type": "Point", "coordinates": [ 31.26808915453406, -29.787850676928418 ] } },
{ "type": "Feature", "properties": { "rand_point_id": 17 }, "geometry": { "type": "Point", "coordinates": [ 31.254899388253921, -29.818458631870662 ] } },
{ "type": "Feature", "properties": { "rand_point_id": 18 }, "geometry": { "type": "Point", "coordinates": [ 31.266060932680869, -29.790304070786899 ] } },
{ "type": "Feature", "properties": { "rand_point_id": 19 }, "geometry": { "type": "Point", "coordinates": [ 31.264228535031091, -29.790088183081711 ] } },
{ "type": "Feature", "properties": { "rand_point_id": 20 }, "geometry": { "type": "Point", "coordinates": [ 31.274296738581107, -29.779980714855792 ] } },
{ "type": "Feature", "properties": { "rand_point_id": 21 }, "geometry": { "type": "Point", "coordinates": [ 31.287991181497031, -29.768875941059662 ] } },
{ "type": "Feature", "properties": { "rand_point_id": 22 }, "geometry": { "type": "Point", "coordinates": [ 31.280705886530555, -29.772850515468832 ] } },
{ "type": "Feature", "properties": { "rand_point_id": 23 }, "geometry": { "type": "Point", "coordinates": [ 31.250187139147844, -29.832855339552243 ] } },
{ "type": "Feature", "properties": { "rand_point_id": 24 }, "geometry": { "type": "Point", "coordinates": [ 31.267068282927369, -29.786330499017886 ] } },
{ "type": "Feature", "properties": { "rand_point_id": 25 }, "geometry": { "type": "Point", "coordinates": [ 31.256090088359112, -29.815662848883949 ] } },
{ "type": "Feature", "properties": { "rand_point_id": 26 }, "geometry": { "type": "Point", "coordinates": [ 31.260720167933016, -29.801251368665657 ] } },
{ "type": "Feature", "properties": { "rand_point_id": 27 }, "geometry": { "type": "Point", "coordinates": [ 31.266390605883483, -29.787285536117878 ] } },
{ "type": "Feature", "properties": { "rand_point_id": 28 }, "geometry": { "type": "Point", "coordinates": [ 31.278708566619706, -29.776238323495143 ] } },
{ "type": "Feature", "properties": { "rand_point_id": 29 }, "geometry": { "type": "Point", "coordinates": [ 31.262937456480689, -29.790619625705478 ] } },
{ "type": "Feature", "properties": { "rand_point_id": 30 }, "geometry": { "type": "Point", "coordinates": [ 31.256927568236598, -29.813732910347891 ] } },
{ "type": "Feature", "properties": { "rand_point_id": 31 }, "geometry": { "type": "Point", "coordinates": [ 31.264567565129216, -29.789421999221243 ] } },
{ "type": "Feature", "properties": { "rand_point_id": 32 }, "geometry": { "type": "Point", "coordinates": [ 31.291433475611207, -29.765979047081505 ] } },
{ "type": "Feature", "properties": { "rand_point_id": 33 }, "geometry": { "type": "Point", "coordinates": [ 31.272798419493519, -29.781172568047992 ] } },
{ "type": "Feature", "properties": { "rand_point_id": 34 }, "geometry": { "type": "Point", "coordinates": [ 31.29708386194131, -29.757112508585593 ] } },
{ "type": "Feature", "properties": { "rand_point_id": 35 }, "geometry": { "type": "Point", "coordinates": [ 31.264120241782368, -29.789876147542007 ] } },
{ "type": "Feature", "properties": { "rand_point_id": 36 }, "geometry": { "type": "Point", "coordinates": [ 31.253695810644015, -29.820388595814403 ] } },
{ "type": "Feature", "properties": { "rand_point_id": 37 }, "geometry": { "type": "Point", "coordinates": [ 31.257659526753795, -29.812902320838042 ] } },
{ "type": "Feature", "properties": { "rand_point_id": 38 }, "geometry": { "type": "Point", "coordinates": [ 31.295540590185471, -29.758246811221674 ] } },
{ "type": "Feature", "properties": { "rand_point_id": 39 }, "geometry": { "type": "Point", "coordinates": [ 31.264135610284765, -29.79471770618764 ] } },
{ "type": "Feature", "properties": { "rand_point_id": 40 }, "geometry": { "type": "Point", "coordinates": [ 31.250859848128762, -29.829740318008582 ] } },
{ "type": "Feature", "properties": { "rand_point_id": 41 }, "geometry": { "type": "Point", "coordinates": [ 31.264990739907105, -29.790058431427102 ] } },
{ "type": "Feature", "properties": { "rand_point_id": 42 }, "geometry": { "type": "Point", "coordinates": [ 31.252488818386993, -29.823548304547078 ] } },
{ "type": "Feature", "properties": { "rand_point_id": 43 }, "geometry": { "type": "Point", "coordinates": [ 31.264523316875231, -29.788164594275585 ] } },
{ "type": "Feature", "properties": { "rand_point_id": 44 }, "geometry": { "type": "Point", "coordinates": [ 31.267986286614491, -29.788714304681299 ] } },
{ "type": "Feature", "properties": { "rand_point_id": 45 }, "geometry": { "type": "Point", "coordinates": [ 31.256519280377578, -29.814172917506685 ] } },
{ "type": "Feature", "properties": { "rand_point_id": 46 }, "geometry": { "type": "Point", "coordinates": [ 31.252604929100787, -29.823557303192111 ] } },
{ "type": "Feature", "properties": { "rand_point_id": 47 }, "geometry": { "type": "Point", "coordinates": [ 31.26484477511702, -29.793524811160673 ] } },
{ "type": "Feature", "properties": { "rand_point_id": 48 }, "geometry": { "type": "Point", "coordinates": [ 31.292932479324467, -29.762938737396556 ] } },
{ "type": "Feature", "properties": { "rand_point_id": 49 }, "geometry": { "type": "Point", "coordinates": [ 31.272978424792718, -29.780538165098893 ] } },
{ "type": "Feature", "properties": { "rand_point_id": 50 }, "geometry": { "type": "Point", "coordinates": [ 31.265232756008665, -29.789372264259285 ] } },
{ "type": "Feature", "properties": { "rand_point_id": 51 }, "geometry": { "type": "Point", "coordinates": [ 31.25173523344451, -29.825470911607141 ] } },
{ "type": "Feature", "properties": { "rand_point_id": 52 }, "geometry": { "type": "Point", "coordinates": [ 31.266843694466175, -29.786019396683574 ] } },
{ "type": "Feature", "properties": { "rand_point_id": 53 }, "geometry": { "type": "Point", "coordinates": [ 31.27480856507588, -29.779777900233299 ] } },
{ "type": "Feature", "properties": { "rand_point_id": 54 }, "geometry": { "type": "Point", "coordinates": [ 31.265822764416107, -29.788750278696337 ] } },
{ "type": "Feature", "properties": { "rand_point_id": 55 }, "geometry": { "type": "Point", "coordinates": [ 31.254483840026985, -29.820084231637701 ] } },
{ "type": "Feature", "properties": { "rand_point_id": 56 }, "geometry": { "type": "Point", "coordinates": [ 31.298291172031433, -29.756122421878167 ] } },
{ "type": "Feature", "properties": { "rand_point_id": 57 }, "geometry": { "type": "Point", "coordinates": [ 31.274633314049577, -29.779873890212137 ] } },
{ "type": "Feature", "properties": { "rand_point_id": 58 }, "geometry": { "type": "Point", "coordinates": [ 31.305574583712254, -29.752745445087566 ] } },
{ "type": "Feature", "properties": { "rand_point_id": 59 }, "geometry": { "type": "Point", "coordinates": [ 31.291396410772879, -29.765361318075051 ] } }
]
}
