{"type":"FeatureCollection","features":[{"type":"Feature","properties":{},"id":2,"geometry":{"type":"Polygon","coordinates":[[[31.24666811,-29.83707291],[31.25186298,-29.83087485],[31.25316168,-29.82321126],[31.25640848,-29.81644878],[31.25913578,-29.8088968],[31.26108386,-29.80055515],[31.26588911,-29.79187459],[31.26837355,-29.78832426],[31.27103595,-29.78261815],[31.27810796,-29.77741735],[31.28118636,-29.77228853],[31.28767597,-29.76997686],[31.29067117,-29.76687047],[31.29253969,-29.7647713],[31.29418424,-29.7616376],[31.29445833,-29.75941618],[31.29830482,-29.75621494],[31.30088667,-29.75488898],[31.30396823,-29.75445502],[31.30621694,-29.75226112],[31.30829908,-29.75038058],[31.30893761,-29.7496814],[31.30749399,-29.75074223],[31.30446795,-29.75317726],[31.30302433,-29.75435859],[31.300498,-29.75459968],[31.2972221,-29.75582921],[31.29325216,-29.75937306],[31.29305783,-29.76207306],[31.28698225,-29.76998983],[31.28050487,-29.77184864],[31.27748318,-29.77715587],[31.27296698,-29.77959647],[31.27052455,-29.78107681],[31.26899829,-29.78538026],[31.26494811,-29.78617636],[31.26387825,-29.78637539],[31.25782327,-29.80990674],[31.25743365,-29.81087895],[31.25705074,-29.81179554],[31.24666811,-29.83707291]]]}}]}