{
"type": "FeatureCollection",
"name": "predicted_seed_polygons",
"crs": { "type": "name", "properties": { "name": "urn:ogc:def:crs:OGC:1.3:CRS84" } },
"features": [
{ "type": "Feature", "properties": { "seed_idx": 0, "delta_h": -15.690861521388888, "mean_lon": -0.31785163283348083, "mean_lat": 5.5071472406387327, "dx_m": 1518.5418963048141, "dy_m": 1934.6653123055585, "n_particles": 20, "snap_water": false, "snap_m": 0.0, "outside_grid": 0 }, "geometry": { "type": "Point", "coordinates": [ -0.31785163283348, 5.507147240638734 ] } },
{ "type": "Feature", "properties": { "seed_idx": 1, "delta_h": -15.690861521388888, "mean_lon": -0.31827371716499331, "mean_lat": 5.5073924303054813, "dx_m": 1332.5773427311797, "dy_m": 1701.5475888375659, "n_particles": 20, "snap_water": false, "snap_m": 0.0, "outside_grid": 0 }, "geometry": { "type": "Point", "coordinates": [ -0.318273717164994, 5.507392430305482 ] } },
{ "type": "Feature", "properties": { "seed_idx": 2, "delta_h": -15.690861521388888, "mean_lon": -0.31923907697200776, "mean_lat": 5.5077959060668942, "dx_m": 1078.0868347783107, "dy_m": 1524.9878191205207, "n_particles": 20, "snap_water": false, "snap_m": 0.0, "outside_grid": 0 }, "geometry": { "type": "Point", "coordinates": [ -0.319239076972007, 5.507795906066894 ] } },
{ "type": "Feature", "properties": { "seed_idx": 3, "delta_h": -15.690861521388888, "mean_lon": -0.3219037726521492, "mean_lat": 5.5085180044174198, "dx_m": 756.76648443378508, "dy_m": 1588.1510454898234, "n_particles": 20, "snap_water": false, "snap_m": 0.0, "outside_grid": 0 }, "geometry": { "type": "Point", "coordinates": [ -0.321903772652148, 5.50851800441742 ] } },
{ "type": "Feature", "properties": { "seed_idx": 4, "delta_h": -15.690861521388888, "mean_lon": -0.32190077751874924, "mean_lat": 5.5084861993789671, "dx_m": 603.3536163069075, "dy_m": 1514.7185579754878, "n_particles": 20, "snap_water": false, "snap_m": 0.0, "outside_grid": 0 }, "geometry": { "type": "Point", "coordinates": [ -0.321900777518749, 5.508486199378966 ] } },
{ "type": "Feature", "properties": { "seed_idx": 5, "delta_h": -15.690861521388888, "mean_lon": -0.31592563092708587, "mean_lat": 5.5064633369445799, "dx_m": 1122.7315505597508, "dy_m": 1204.2991519744974, "n_particles": 20, "snap_water": false, "snap_m": 0.0, "outside_grid": 0 }, "geometry": { "type": "Point", "coordinates": [ -0.315925630927085, 5.50646333694458 ] } },
{ "type": "Feature", "properties": { "seed_idx": 6, "delta_h": -15.690861521388888, "mean_lon": -0.3162978947162628, "mean_lat": 5.5063516378402708, "dx_m": 1042.8705095002661, "dy_m": 1177.7344942797208, "n_particles": 20, "snap_water": false, "snap_m": 0.0, "outside_grid": 0 }, "geometry": { "type": "Point", "coordinates": [ -0.316297894716263, 5.506351637840272 ] } },
{ "type": "Feature", "properties": { "seed_idx": 7, "delta_h": -15.690861521388888, "mean_lon": -0.31629312485456468, "mean_lat": 5.506516695022583, "dx_m": 898.67433706508018, "dy_m": 1209.929154727608, "n_particles": 20, "snap_water": false, "snap_m": 0.0, "outside_grid": 0 }, "geometry": { "type": "Point", "coordinates": [ -0.316293124854565, 5.506516695022581 ] } },
{ "type": "Feature", "properties": { "seed_idx": 8, "delta_h": -15.690861521388888, "mean_lon": -0.31717979162931442, "mean_lat": 5.5065653324127197, "dx_m": 799.45187093503773, "dy_m": 1248.3859916990623, "n_particles": 20, "snap_water": false, "snap_m": 0.0, "outside_grid": 0 }, "geometry": { "type": "Point", "coordinates": [ -0.317179791629314, 5.506565332412721 ] } },
{ "type": "Feature", "properties": { "seed_idx": 9, "delta_h": -15.690861521388888, "mean_lon": -0.31519454866647723, "mean_lat": 5.5064489841461182, "dx_m": 865.98358801589347, "dy_m": 1307.227016181685, "n_particles": 20, "snap_water": false, "snap_m": 0.0, "outside_grid": 0 }, "geometry": { "type": "Point", "coordinates": [ -0.315194548666478, 5.506448984146117 ] } },
{ "type": "Feature", "properties": { "seed_idx": 10, "delta_h": -15.690861521388888, "mean_lon": -0.31649110317230222, "mean_lat": 5.5074349641799927, "dx_m": 645.82982888177503, "dy_m": 1405.1471722320421, "n_particles": 20, "snap_water": false, "snap_m": 0.0, "outside_grid": 0 }, "geometry": { "type": "Point", "coordinates": [ -0.316491103172302, 5.507434964179992 ] } },
{ "type": "Feature", "properties": { "seed_idx": 11, "delta_h": -15.690861521388888, "mean_lon": -0.31810696572065356, "mean_lat": 5.5097603321075441, "dx_m": 330.93358210392762, "dy_m": 1707.7016268264269, "n_particles": 20, "snap_water": false, "snap_m": 0.0, "outside_grid": 0 }, "geometry": { "type": "Point", "coordinates": [ -0.318106965720654, 5.509760332107545 ] } },
{ "type": "Feature", "properties": { "seed_idx": 12, "delta_h": -15.690861521388888, "mean_lon": -0.31860671788454054, "mean_lat": 5.5102708578109745, "dx_m": 68.789575382717885, "dy_m": 1725.1287222208921, "n_particles": 20, "snap_water": false, "snap_m": 0.0, "outside_grid": 0 }, "geometry": { "type": "Point", "coordinates": [ -0.318606717884541, 5.510270857810974 ] } },
{ "type": "Feature", "properties": { "seed_idx": 13, "delta_h": -15.690861521388888, "mean_lon": -0.31773770302534105, "mean_lat": 5.510643410682678, "dx_m": 143.81132175656967, "dy_m": 1761.5930345801171, "n_particles": 20, "snap_water": false, "snap_m": 0.0, "outside_grid": 0 }, "geometry": { "type": "Point", "coordinates": [ -0.317737703025341, 5.510643410682676 ] } },
{ "type": "Feature", "properties": { "seed_idx": 14, "delta_h": -15.690861521388888, "mean_lon": -0.31790324598550795, "mean_lat": 5.5105476856231688, "dx_m": 99.232194828451611, "dy_m": 1747.1561431561131, "n_particles": 20, "snap_water": false, "snap_m": 0.0, "outside_grid": 0 }, "geometry": { "type": "Point", "coordinates": [ -0.317903245985508, 5.510547685623169 ] } },
{ "type": "Feature", "properties": { "seed_idx": 15, "delta_h": -15.690861521388888, "mean_lon": -0.316927470266819, "mean_lat": 5.5106935977935789, "dx_m": 177.43924194411375, "dy_m": 1759.2831823085435, "n_particles": 20, "snap_water": false, "snap_m": 0.0, "outside_grid": 0 }, "geometry": { "type": "Point", "coordinates": [ -0.316927470266818, 5.510693597793578 ] } },
{ "type": "Feature", "properties": { "seed_idx": 16, "delta_h": -15.690861521388888, "mean_lon": -0.31720905900001528, "mean_lat": 5.5105739593505856, "dx_m": 86.484024188830517, "dy_m": 1726.6887045848416, "n_particles": 20, "snap_water": false, "snap_m": 0.0, "outside_grid": 0 }, "geometry": { "type": "Point", "coordinates": [ -0.317209059000016, 5.510573959350586 ] } },
{ "type": "Feature", "properties": { "seed_idx": 17, "delta_h": -15.690861521388888, "mean_lon": -0.31787512302398679, "mean_lat": 5.5104116678237913, "dx_m": 228.68973270489369, "dy_m": 1418.608797167195, "n_particles": 20, "snap_water": false, "snap_m": 0.0, "outside_grid": 0 }, "geometry": { "type": "Point", "coordinates": [ -0.317875123023986, 5.51041166782379 ] } },
{ "type": "Feature", "properties": { "seed_idx": 18, "delta_h": -15.690861521388888, "mean_lon": -0.31866174042224882, "mean_lat": 5.5103314161300663, "dx_m": -66.53072807053104, "dy_m": 1352.6558313654969, "n_particles": 20, "snap_water": false, "snap_m": 0.0, "outside_grid": 0 }, "geometry": { "type": "Point", "coordinates": [ -0.318661740422249, 5.510331416130066 ] } },
{ "type": "Feature", "properties": { "seed_idx": 19, "delta_h": -15.690861521388888, "mean_lon": -0.31894203424453738, "mean_lat": 5.5100308656692505, "dx_m": -190.95858501305338, "dy_m": 1326.1246231599944, "n_particles": 20, "snap_water": false, "snap_m": 0.0, "outside_grid": 0 }, "geometry": { "type": "Point", "coordinates": [ -0.318942034244538, 5.510030865669251 ] } },
{ "type": "Feature", "properties": { "seed_idx": 20, "delta_h": -15.690861521388888, "mean_lon": -0.3185299441218376, "mean_lat": 5.5099637269973751, "dx_m": -170.80262055806816, "dy_m": 1240.8131320269313, "n_particles": 20, "snap_water": false, "snap_m": 0.0, "outside_grid": 0 }, "geometry": { "type": "Point", "coordinates": [ -0.318529944121838, 5.509963726997375 ] } },
{ "type": "Feature", "properties": { "seed_idx": 21, "delta_h": -15.690861521388888, "mean_lon": -0.3186455503106117, "mean_lat": 5.5097635984420776, "dx_m": -329.86483588628471, "dy_m": 1204.4706948655657, "n_particles": 20, "snap_water": false, "snap_m": 0.0, "outside_grid": 0 }, "geometry": { "type": "Point", "coordinates": [ -0.318645550310613, 5.509763598442078 ] } },
{ "type": "Feature", "properties": { "seed_idx": 22, "delta_h": -15.690861521388888, "mean_lon": -0.31567045152187345, "mean_lat": 5.5070794820785522, "dx_m": -84.016101179644465, "dy_m": 815.63484799966682, "n_particles": 20, "snap_water": false, "snap_m": 0.0, "outside_grid": 0 }, "geometry": { "type": "Point", "coordinates": [ -0.315670451521873, 5.507079482078552 ] } },
{ "type": "Feature", "properties": { "seed_idx": 23, "delta_h": -15.690861521388888, "mean_lon": -0.31833478659391401, "mean_lat": 5.5094913721084593, "dx_m": -506.56608447001781, "dy_m": 1071.1665948792361, "n_particles": 20, "snap_water": false, "snap_m": 0.0, "outside_grid": 0 }, "geometry": { "type": "Point", "coordinates": [ -0.318334786593913, 5.509491372108459 ] } },
{ "type": "Feature", "properties": { "seed_idx": 24, "delta_h": -15.690861521388888, "mean_lon": -0.31820457428693771, "mean_lat": 5.5092374801635744, "dx_m": -503.00490390975028, "dy_m": 1054.3814794805367, "n_particles": 20, "snap_water": false, "snap_m": 0.0, "outside_grid": 0 }, "geometry": { "type": "Point", "coordinates": [ -0.318204574286939, 5.509237480163574 ] } },
{ "type": "Feature", "properties": { "seed_idx": 25, "delta_h": -15.690861521388888, "mean_lon": -0.31878585666418074, "mean_lat": 5.5102110385894774, "dx_m": -657.60242265451234, "dy_m": 1126.808262926992, "n_particles": 20, "snap_water": false, "snap_m": 0.0, "outside_grid": 0 }, "geometry": { "type": "Point", "coordinates": [ -0.318785856664181, 5.510211038589477 ] } },
{ "type": "Feature", "properties": { "seed_idx": 26, "delta_h": -15.690861521388888, "mean_lon": -0.31824116557836535, "mean_lat": 5.510362601280212, "dx_m": -610.81338774529286, "dy_m": 1149.2563320298214, "n_particles": 20, "snap_water": false, "snap_m": 0.0, "outside_grid": 0 }, "geometry": { "type": "Point", "coordinates": [ -0.318241165578365, 5.510362601280213 ] } },
{ "type": "Feature", "properties": { "seed_idx": 27, "delta_h": -15.690861521388888, "mean_lon": -0.31776239126920702, "mean_lat": 5.5098984718322752, "dx_m": -571.03846548951697, "dy_m": 1106.0895074233413, "n_particles": 20, "snap_water": false, "snap_m": 0.0, "outside_grid": 0 }, "geometry": { "type": "Point", "coordinates": [ -0.317762391269208, 5.509898471832276 ] } },
{ "type": "Feature", "properties": { "seed_idx": 28, "delta_h": -15.690861521388888, "mean_lon": -0.31798098236322403, "mean_lat": 5.5094214439392086, "dx_m": -940.90800851676613, "dy_m": 835.57007673266344, "n_particles": 20, "snap_water": false, "snap_m": 0.0, "outside_grid": 0 }, "geometry": { "type": "Point", "coordinates": [ -0.317980982363225, 5.509421443939209 ] } },
{ "type": "Feature", "properties": { "seed_idx": 29, "delta_h": -15.690861521388888, "mean_lon": -0.31688638031482697, "mean_lat": 5.5084087133407591, "dx_m": -912.30363878817298, "dy_m": 681.36101783509366, "n_particles": 20, "snap_water": false, "snap_m": 0.0, "outside_grid": 0 }, "geometry": { "type": "Point", "coordinates": [ -0.316886380314826, 5.508408713340758 ] } },
{ "type": "Feature", "properties": { "seed_idx": 30, "delta_h": -15.690861521388888, "mean_lon": -0.31631564348936081, "mean_lat": 5.5069983959197994, "dx_m": -1063.1236716082785, "dy_m": 553.76006533659529, "n_particles": 20, "snap_water": false, "snap_m": 0.0, "outside_grid": 0 }, "geometry": { "type": "Point", "coordinates": [ -0.316315643489361, 5.506998395919798 ] } },
{ "type": "Feature", "properties": { "seed_idx": 31, "delta_h": -15.690861521388888, "mean_lon": -0.31475360393524171, "mean_lat": 5.5058810710906982, "dx_m": -1019.1113254906377, "dy_m": 380.75740123738069, "n_particles": 20, "snap_water": false, "snap_m": 0.0, "outside_grid": 0 }, "geometry": { "type": "Point", "coordinates": [ -0.314753603935241, 5.505881071090698 ] } },
{ "type": "Feature", "properties": { "seed_idx": 32, "delta_h": -15.690861521388888, "mean_lon": -0.31476122587919236, "mean_lat": 5.5056870460510252, "dx_m": -1038.9764488695655, "dy_m": 388.34536909381859, "n_particles": 20, "snap_water": false, "snap_m": 0.0, "outside_grid": 0 }, "geometry": { "type": "Point", "coordinates": [ -0.314761225879193, 5.505687046051024 ] } },
{ "type": "Feature", "properties": { "seed_idx": 33, "delta_h": -15.690861521388888, "mean_lon": -0.31926902532577517, "mean_lat": 5.5079904794692993, "dx_m": -1560.5138706162106, "dy_m": 662.7647583844373, "n_particles": 20, "snap_water": false, "snap_m": 0.0, "outside_grid": 0 }, "geometry": { "type": "Point", "coordinates": [ -0.319269025325776, 5.507990479469298 ] } },
{ "type": "Feature", "properties": { "seed_idx": 34, "delta_h": -15.690861521388888, "mean_lon": -0.31813143342733385, "mean_lat": 5.5074166297912601, "dx_m": -1460.4200378110399, "dy_m": 609.91283958766144, "n_particles": 20, "snap_water": false, "snap_m": 0.0, "outside_grid": 0 }, "geometry": { "type": "Point", "coordinates": [ -0.318131433427334, 5.507416629791258 ] } },
{ "type": "Feature", "properties": { "seed_idx": 35, "delta_h": -15.690861521388888, "mean_lon": -0.31609685420989991, "mean_lat": 5.5064115524291992, "dx_m": -1231.9237186247483, "dy_m": 455.08188580675051, "n_particles": 20, "snap_water": false, "snap_m": 0.0, "outside_grid": 0 }, "geometry": { "type": "Point", "coordinates": [ -0.316096854209901, 5.506411552429198 ] } },
{ "type": "Feature", "properties": { "seed_idx": 36, "delta_h": -15.690861521388888, "mean_lon": -0.31515513211488722, "mean_lat": 5.5056557178497316, "dx_m": -1142.3721306037623, "dy_m": 352.71300024189986, "n_particles": 20, "snap_water": false, "snap_m": 0.0, "outside_grid": 0 }, "geometry": { "type": "Point", "coordinates": [ -0.315155132114887, 5.50565571784973 ] } },
{ "type": "Feature", "properties": { "seed_idx": 37, "delta_h": -15.690861521388888, "mean_lon": -0.31648148596286774, "mean_lat": 5.5071160554885861, "dx_m": -1276.9232883458026, "dy_m": 490.39334128389601, "n_particles": 20, "snap_water": false, "snap_m": 0.0, "outside_grid": 0 }, "geometry": { "type": "Point", "coordinates": [ -0.31648148596287, 5.507116055488586 ] } },
{ "type": "Feature", "properties": { "seed_idx": 38, "delta_h": -15.690861521388888, "mean_lon": -0.31591410636901857, "mean_lat": 5.5072812557220461, "dx_m": -1217.6274857184617, "dy_m": 645.21274252422154, "n_particles": 20, "snap_water": false, "snap_m": 0.0, "outside_grid": 0 }, "geometry": { "type": "Point", "coordinates": [ -0.315914106369017, 5.507281255722045 ] } },
{ "type": "Feature", "properties": { "seed_idx": 39, "delta_h": -15.690861521388888, "mean_lon": -0.3164352163672447, "mean_lat": 5.5078552484512331, "dx_m": -1299.2008541164687, "dy_m": 738.97123244998511, "n_particles": 20, "snap_water": false, "snap_m": 0.0, "outside_grid": 0 }, "geometry": { "type": "Point", "coordinates": [ -0.316435216367245, 5.507855248451234 ] } },
{ "type": "Feature", "properties": { "seed_idx": 40, "delta_h": -15.690861521388888, "mean_lon": -0.31705045551061628, "mean_lat": 5.508856558799744, "dx_m": -1526.9680176206166, "dy_m": 980.65058860869613, "n_particles": 20, "snap_water": false, "snap_m": 0.0, "outside_grid": 0 }, "geometry": { "type": "Point", "coordinates": [ -0.317050455510616, 5.508856558799744 ] } },
{ "type": "Feature", "properties": { "seed_idx": 41, "delta_h": -15.690861521388888, "mean_lon": -0.31709886789321901, "mean_lat": 5.5094187259674072, "dx_m": -1575.0662729678443, "dy_m": 1064.5060145248426, "n_particles": 20, "snap_water": false, "snap_m": 0.0, "outside_grid": 0 }, "geometry": { "type": "Point", "coordinates": [ -0.317098867893219, 5.509418725967406 ] } },
{ "type": "Feature", "properties": { "seed_idx": 42, "delta_h": -15.690861521388888, "mean_lon": -0.31728111952543259, "mean_lat": 5.5098952293396, "dx_m": -2066.1895354933804, "dy_m": 564.10069463588297, "n_particles": 20, "snap_water": false, "snap_m": 0.0, "outside_grid": 0 }, "geometry": { "type": "Point", "coordinates": [ -0.317281119525433, 5.509895229339599 ] } },
{ "type": "Feature", "properties": { "seed_idx": 43, "delta_h": -15.690861521388888, "mean_lon": -0.31576916724443438, "mean_lat": 5.5095402717590334, "dx_m": -1864.0335677901749, "dy_m": 685.32203302299604, "n_particles": 20, "snap_water": false, "snap_m": 0.0, "outside_grid": 0 }, "geometry": { "type": "Point", "coordinates": [ -0.315769167244434, 5.509540271759034 ] } },
{ "type": "Feature", "properties": { "seed_idx": 44, "delta_h": -15.690861521388888, "mean_lon": -0.31645312309265139, "mean_lat": 5.5099006414413454, "dx_m": -1996.4959291920532, "dy_m": 772.69986732478719, "n_particles": 20, "snap_water": false, "snap_m": 0.0, "outside_grid": 0 }, "geometry": { "type": "Point", "coordinates": [ -0.316453123092651, 5.509900641441346 ] } },
{ "type": "Feature", "properties": { "seed_idx": 45, "delta_h": -15.690861521388888, "mean_lon": -0.31673584580421449, "mean_lat": 5.5099519014358522, "dx_m": -1936.3341862605885, "dy_m": 882.12453522253782, "n_particles": 20, "snap_water": false, "snap_m": 0.0, "outside_grid": 0 }, "geometry": { "type": "Point", "coordinates": [ -0.316735845804215, 5.509951901435854 ] } },
{ "type": "Feature", "properties": { "seed_idx": 46, "delta_h": -15.690861521388888, "mean_lon": -0.31687853038311004, "mean_lat": 5.509930896759033, "dx_m": -1934.8643259672681, "dy_m": 933.73287311044987, "n_particles": 20, "snap_water": false, "snap_m": 0.0, "outside_grid": 0 }, "geometry": { "type": "Point", "coordinates": [ -0.316878530383111, 5.509930896759033 ] } },
{ "type": "Feature", "properties": { "seed_idx": 47, "delta_h": -15.690861521388888, "mean_lon": -0.31693359315395353, "mean_lat": 5.5105122804641722, "dx_m": -1893.0180692620343, "dy_m": 1149.1058679557173, "n_particles": 20, "snap_water": false, "snap_m": 0.0, "outside_grid": 0 }, "geometry": { "type": "Point", "coordinates": [ -0.316933593153953, 5.510512280464171 ] } },
{ "type": "Feature", "properties": { "seed_idx": 48, "delta_h": -15.690861521388888, "mean_lon": -0.31684470325708392, "mean_lat": 5.5106534242630003, "dx_m": -1936.7769728130661, "dy_m": 1217.7241949286545, "n_particles": 20, "snap_water": false, "snap_m": 0.0, "outside_grid": 0 }, "geometry": { "type": "Point", "coordinates": [ -0.316844703257084, 5.510653424262999 ] } },
{ "type": "Feature", "properties": { "seed_idx": 49, "delta_h": -15.690861521388888, "mean_lon": -0.31712964028120039, "mean_lat": 5.5106244087219238, "dx_m": -2106.3175186517183, "dy_m": 1364.593862894224, "n_particles": 20, "snap_water": false, "snap_m": 0.0, "outside_grid": 0 }, "geometry": { "type": "Point", "coordinates": [ -0.3171296402812, 5.510624408721924 ] } },
{ "type": "Feature", "properties": { "seed_idx": 50, "delta_h": -15.690861521388888, "mean_lon": -0.31693271547555923, "mean_lat": 5.5106911897659305, "dx_m": -2070.0558235817589, "dy_m": 1404.2114966547815, "n_particles": 20, "snap_water": false, "snap_m": 0.0, "outside_grid": 0 }, "geometry": { "type": "Point", "coordinates": [ -0.316932715475559, 5.51069118976593 ] } },
{ "type": "Feature", "properties": { "seed_idx": 51, "delta_h": -15.690861521388888, "mean_lon": -0.31646315157413485, "mean_lat": 5.5107545137405394, "dx_m": -1999.1534329067217, "dy_m": 1437.7727494296851, "n_particles": 20, "snap_water": false, "snap_m": 0.0, "outside_grid": 0 }, "geometry": { "type": "Point", "coordinates": [ -0.316463151574135, 5.510754513740538 ] } },
{ "type": "Feature", "properties": { "seed_idx": 52, "delta_h": -15.690861521388888, "mean_lon": -0.31588612347841261, "mean_lat": 5.5108505725860599, "dx_m": -2048.2690893361578, "dy_m": 1580.8079340772238, "n_particles": 20, "snap_water": false, "snap_m": 0.0, "outside_grid": 0 }, "geometry": { "type": "Point", "coordinates": [ -0.315886123478413, 5.510850572586059 ] } },
{ "type": "Feature", "properties": { "seed_idx": 53, "delta_h": -15.690861521388888, "mean_lon": -0.31581159979104995, "mean_lat": 5.5108956098556519, "dx_m": -2070.7164413260762, "dy_m": 1590.0625800309936, "n_particles": 20, "snap_water": false, "snap_m": 0.0, "outside_grid": 0 }, "geometry": { "type": "Point", "coordinates": [ -0.31581159979105, 5.51089560985565 ] } },
{ "type": "Feature", "properties": { "seed_idx": 54, "delta_h": -15.690861521388888, "mean_lon": -0.31544761955738065, "mean_lat": 5.5108154535293581, "dx_m": -2053.6899922951125, "dy_m": 1582.725948024774, "n_particles": 20, "snap_water": false, "snap_m": 0.0, "outside_grid": 0 }, "geometry": { "type": "Point", "coordinates": [ -0.315447619557381, 5.510815453529358 ] } },
{ "type": "Feature", "properties": { "seed_idx": 55, "delta_h": -15.690861521388888, "mean_lon": -0.3163567051291466, "mean_lat": 5.5108092784881588, "dx_m": -1941.2240837870631, "dy_m": 1572.3506863067159, "n_particles": 20, "snap_water": false, "snap_m": 0.0, "outside_grid": 0 }, "geometry": { "type": "Point", "coordinates": [ -0.316356705129147, 5.510809278488159 ] } },
{ "type": "Feature", "properties": { "seed_idx": 56, "delta_h": -15.690861521388888, "mean_lon": -0.31674048006534578, "mean_lat": 5.5107534646987917, "dx_m": -2399.7836432643235, "dy_m": 1523.2925957231782, "n_particles": 20, "snap_water": false, "snap_m": 0.0, "outside_grid": 0 }, "geometry": { "type": "Point", "coordinates": [ -0.316740480065346, 5.510753464698793 ] } },
{ "type": "Feature", "properties": { "seed_idx": 57, "delta_h": -15.690861521388888, "mean_lon": -0.31769775599241257, "mean_lat": 5.5105653047561649, "dx_m": -2543.7283180002123, "dy_m": 1484.332154233125, "n_particles": 20, "snap_water": false, "snap_m": 0.0, "outside_grid": 0 }, "geometry": { "type": "Point", "coordinates": [ -0.317697755992412, 5.510565304756164 ] } },
{ "type": "Feature", "properties": { "seed_idx": 58, "delta_h": -15.690861521388888, "mean_lon": -0.31849204748868942, "mean_lat": 5.5104605436325071, "dx_m": -2679.8385915859835, "dy_m": 1448.8060808687005, "n_particles": 20, "snap_water": false, "snap_m": 0.0, "outside_grid": 0 }, "geometry": { "type": "Point", "coordinates": [ -0.31849204748869, 5.510460543632508 ] } },
{ "type": "Feature", "properties": { "seed_idx": 59, "delta_h": -15.690861521388888, "mean_lon": -0.31857642382383344, "mean_lat": 5.5102437257766725, "dx_m": -2745.9174284033943, "dy_m": 1396.8218967155553, "n_particles": 20, "snap_water": false, "snap_m": 0.0, "outside_grid": 0 }, "geometry": { "type": "Point", "coordinates": [ -0.318576423823833, 5.510243725776671 ] } },
{ "type": "Feature", "properties": { "seed_idx": 60, "delta_h": -15.690861521388888, "mean_lon": -0.31878071278333664, "mean_lat": 5.509852719306946, "dx_m": -2835.3430582444416, "dy_m": 1306.5092443769099, "n_particles": 20, "snap_water": false, "snap_m": 0.0, "outside_grid": 0 }, "geometry": { "type": "Point", "coordinates": [ -0.318780712783337, 5.509852719306945 ] } },
{ "type": "Feature", "properties": { "seed_idx": 61, "delta_h": -15.690861521388888, "mean_lon": -0.32023649364709855, "mean_lat": 5.5085173845291138, "dx_m": -3023.7508853895124, "dy_m": 1136.0284820297966, "n_particles": 20, "snap_water": false, "snap_m": 0.0, "outside_grid": 0 }, "geometry": { "type": "Point", "coordinates": [ -0.320236493647099, 5.508517384529113 ] } },
{ "type": "Feature", "properties": { "seed_idx": 62, "delta_h": -15.690861521388888, "mean_lon": -0.31604081094264985, "mean_lat": 5.5064646720886232, "dx_m": -2595.3907199786045, "dy_m": 894.7630483803805, "n_particles": 20, "snap_water": false, "snap_m": 0.0, "outside_grid": 0 }, "geometry": { "type": "Point", "coordinates": [ -0.316040810942649, 5.506464672088623 ] } },
{ "type": "Feature", "properties": { "seed_idx": 63, "delta_h": -15.690861521388888, "mean_lon": -0.31544244289398193, "mean_lat": 5.5064598798751829, "dx_m": -2558.253091687453, "dy_m": 895.85632902360521, "n_particles": 20, "snap_water": false, "snap_m": 0.0, "outside_grid": 0 }, "geometry": { "type": "Point", "coordinates": [ -0.315442442893982, 5.506459879875183 ] } },
{ "type": "Feature", "properties": { "seed_idx": 64, "delta_h": -15.690861521388888, "mean_lon": -0.31503366678953171, "mean_lat": 5.5057161331176756, "dx_m": -2533.2258746700827, "dy_m": 863.21706579276361, "n_particles": 20, "snap_water": false, "snap_m": 0.0, "outside_grid": 0 }, "geometry": { "type": "Point", "coordinates": [ -0.315033666789532, 5.505716133117676 ] } },
{ "type": "Feature", "properties": { "seed_idx": 65, "delta_h": -15.690861521388888, "mean_lon": -0.31830631196498871, "mean_lat": 5.5088333606719972, "dx_m": -2919.847941377433, "dy_m": 1267.6506017049542, "n_particles": 20, "snap_water": false, "snap_m": 0.0, "outside_grid": 0 }, "geometry": { "type": "Point", "coordinates": [ -0.318306311964989, 5.508833360671997 ] } },
{ "type": "Feature", "properties": { "seed_idx": 66, "delta_h": -15.690861521388888, "mean_lon": -0.31794734597206115, "mean_lat": 5.5090029478073124, "dx_m": -2900.7527275355533, "dy_m": 1325.8541343077086, "n_particles": 20, "snap_water": false, "snap_m": 0.0, "outside_grid": 0 }, "geometry": { "type": "Point", "coordinates": [ -0.317947345972062, 5.509002947807311 ] } },
{ "type": "Feature", "properties": { "seed_idx": 67, "delta_h": -15.690861521388888, "mean_lon": -0.31923646330833433, "mean_lat": 5.5101443767547611, "dx_m": -3091.1290072745178, "dy_m": 1480.4587809444638, "n_particles": 20, "snap_water": false, "snap_m": 0.0, "outside_grid": 0 }, "geometry": { "type": "Point", "coordinates": [ -0.319236463308334, 5.510144376754761 ] } },
{ "type": "Feature", "properties": { "seed_idx": 68, "delta_h": -15.690861521388888, "mean_lon": -0.3184733808040619, "mean_lat": 5.5103736639022829, "dx_m": -3068.0726480326848, "dy_m": 1529.2531231946778, "n_particles": 20, "snap_water": false, "snap_m": 0.0, "outside_grid": 0 }, "geometry": { "type": "Point", "coordinates": [ -0.318473380804063, 5.510373663902282 ] } },
{ "type": "Feature", "properties": { "seed_idx": 69, "delta_h": -15.690861521388888, "mean_lon": -0.3184045344591141, "mean_lat": 5.5103775978088381, "dx_m": -3085.5121942914557, "dy_m": 1583.5352892831434, "n_particles": 20, "snap_water": false, "snap_m": 0.0, "outside_grid": 0 }, "geometry": { "type": "Point", "coordinates": [ -0.318404534459114, 5.510377597808837 ] } },
{ "type": "Feature", "properties": { "seed_idx": 70, "delta_h": -15.690861521388888, "mean_lon": -0.31650129556655882, "mean_lat": 5.5107753753662108, "dx_m": -2898.2096314054215, "dy_m": 1666.2903083139099, "n_particles": 20, "snap_water": false, "snap_m": 0.0, "outside_grid": 0 }, "geometry": { "type": "Point", "coordinates": [ -0.316501295566559, 5.51077537536621 ] } },
{ "type": "Feature", "properties": { "seed_idx": 71, "delta_h": -15.690861521388888, "mean_lon": -0.31552264690399168, "mean_lat": 5.5109247207641605, "dx_m": -2817.594589094515, "dy_m": 1700.6688863376621, "n_particles": 20, "snap_water": false, "snap_m": 0.0, "outside_grid": 0 }, "geometry": { "type": "Point", "coordinates": [ -0.315522646903992, 5.510924720764161 ] } },
{ "type": "Feature", "properties": { "seed_idx": 72, "delta_h": -15.690861521388888, "mean_lon": -0.30971009582281112, "mean_lat": 5.5090269088745121, "dx_m": -2197.0313093565637, "dy_m": 1510.9375436541159, "n_particles": 20, "snap_water": false, "snap_m": 0.0, "outside_grid": 0 }, "geometry": { "type": "Point", "coordinates": [ -0.309710095822812, 5.509026908874512 ] } },
{ "type": "Feature", "properties": { "seed_idx": 73, "delta_h": -15.690861521388888, "mean_lon": -0.30873920172452929, "mean_lat": 5.5085506677627567, "dx_m": -2190.02390087198, "dy_m": 1484.4989981598919, "n_particles": 20, "snap_water": false, "snap_m": 0.0, "outside_grid": 0 }, "geometry": { "type": "Point", "coordinates": [ -0.30873920172453, 5.508550667762758 ] } },
{ "type": "Feature", "properties": { "seed_idx": 74, "delta_h": -15.690861521388888, "mean_lon": -0.3098104387521744, "mean_lat": 5.5106656312942501, "dx_m": -2103.7793174205581, "dy_m": 1682.5042050109478, "n_particles": 20, "snap_water": false, "snap_m": 0.0, "outside_grid": 0 }, "geometry": { "type": "Point", "coordinates": [ -0.309810438752175, 5.510665631294248 ] } },
{ "type": "Feature", "properties": { "seed_idx": 75, "delta_h": -15.690861521388888, "mean_lon": -0.31443175822496416, "mean_lat": 5.5062702178955076, "dx_m": -2573.1836264245212, "dy_m": 1205.6405972917564, "n_particles": 20, "snap_water": false, "snap_m": 0.0, "outside_grid": 0 }, "geometry": { "type": "Point", "coordinates": [ -0.314431758224964, 5.506270217895508 ] } },
{ "type": "Feature", "properties": { "seed_idx": 76, "delta_h": -15.690861521388888, "mean_lon": -0.31843807995319368, "mean_lat": 5.5086231231689453, "dx_m": -2989.4991922031622, "dy_m": 1488.9237920031883, "n_particles": 20, "snap_water": false, "snap_m": 0.0, "outside_grid": 0 }, "geometry": { "type": "Point", "coordinates": [ -0.318438079953193, 5.508623123168944 ] } },
{ "type": "Feature", "properties": { "seed_idx": 77, "delta_h": -15.690861521388888, "mean_lon": -0.31938646882772448, "mean_lat": 5.5095446586608885, "dx_m": -3055.7999580146279, "dy_m": 1615.383071619086, "n_particles": 20, "snap_water": false, "snap_m": 0.0, "outside_grid": 0 }, "geometry": { "type": "Point", "coordinates": [ -0.319386468827724, 5.509544658660888 ] } },
{ "type": "Feature", "properties": { "seed_idx": 78, "delta_h": -15.690861521388888, "mean_lon": -0.31954571306705476, "mean_lat": 5.5099958658218382, "dx_m": -3041.6121938272845, "dy_m": 1678.4966480713338, "n_particles": 20, "snap_water": false, "snap_m": 0.0, "outside_grid": 0 }, "geometry": { "type": "Point", "coordinates": [ -0.319545713067055, 5.509995865821838 ] } },
{ "type": "Feature", "properties": { "seed_idx": 79, "delta_h": -15.690861521388888, "mean_lon": -0.31877370327711108, "mean_lat": 5.5104122400283817, "dx_m": -2928.5601162844105, "dy_m": 1745.4871887938352, "n_particles": 20, "snap_water": false, "snap_m": 0.0, "outside_grid": 0 }, "geometry": { "type": "Point", "coordinates": [ -0.318773703277112, 5.510412240028382 ] } },
{ "type": "Feature", "properties": { "seed_idx": 80, "delta_h": -15.690861521388888, "mean_lon": -0.31855218857526779, "mean_lat": 5.5104566812515259, "dx_m": -2864.6081672876608, "dy_m": 1755.0663525969721, "n_particles": 20, "snap_water": false, "snap_m": 0.0, "outside_grid": 0 }, "geometry": { "type": "Point", "coordinates": [ -0.318552188575268, 5.510456681251525 ] } },
{ "type": "Feature", "properties": { "seed_idx": 81, "delta_h": -15.690861521388888, "mean_lon": -0.31895327717065813, "mean_lat": 5.5101979255676268, "dx_m": -2872.4630036409944, "dy_m": 1730.7700351194944, "n_particles": 20, "snap_water": false, "snap_m": 0.0, "outside_grid": 0 }, "geometry": { "type": "Point", "coordinates": [ -0.318953277170659, 5.510197925567626 ] } },
{ "type": "Feature", "properties": { "seed_idx": 82, "delta_h": -15.690861521388888, "mean_lon": -0.31950049102306366, "mean_lat": 5.5099951505661009, "dx_m": -2884.8587280752836, "dy_m": 1711.1911737102782, "n_particles": 20, "snap_water": false, "snap_m": 0.0, "outside_grid": 0 }, "geometry": { "type": "Point", "coordinates": [ -0.319500491023064, 5.509995150566102 ] } },
{ "type": "Feature", "properties": { "seed_idx": 83, "delta_h": -15.690861521388888, "mean_lon": -0.31942824274301529, "mean_lat": 5.5100458383560182, "dx_m": -2816.9757076164242, "dy_m": 1712.7350007182686, "n_particles": 20, "snap_water": false, "snap_m": 0.0, "outside_grid": 0 }, "geometry": { "type": "Point", "coordinates": [ -0.319428242743015, 5.510045838356017 ] } },
{ "type": "Feature", "properties": { "seed_idx": 84, "delta_h": -15.690861521388888, "mean_lon": -0.31925083398818971, "mean_lat": 5.5100070953369142, "dx_m": -2805.9284181422554, "dy_m": 1682.2627574749058, "n_particles": 20, "snap_water": false, "snap_m": 0.0, "outside_grid": 0 }, "geometry": { "type": "Point", "coordinates": [ -0.319250833988189, 5.510007095336912 ] } },
{ "type": "Feature", "properties": { "seed_idx": 85, "delta_h": -15.690861521388888, "mean_lon": -0.31899001449346542, "mean_lat": 5.5102402687072756, "dx_m": -2812.1078117656289, "dy_m": 1693.4628138928674, "n_particles": 20, "snap_water": false, "snap_m": 0.0, "outside_grid": 0 }, "geometry": { "type": "Point", "coordinates": [ -0.318990014493464, 5.510240268707276 ] } },
{ "type": "Feature", "properties": { "seed_idx": 86, "delta_h": -15.690861521388888, "mean_lon": -0.3189884528517723, "mean_lat": 5.5087134838104248, "dx_m": -2854.8886929212604, "dy_m": 1502.4498421512544, "n_particles": 20, "snap_water": false, "snap_m": 0.0, "outside_grid": 0 }, "geometry": { "type": "Point", "coordinates": [ -0.318988452851772, 5.508713483810424 ] } },
{ "type": "Feature", "properties": { "seed_idx": 87, "delta_h": -15.690861521388888, "mean_lon": -0.31549501568078997, "mean_lat": 5.5060682535171512, "dx_m": -2545.0328891804675, "dy_m": 1203.8261675473768, "n_particles": 20, "snap_water": false, "snap_m": 0.0, "outside_grid": 0 }, "geometry": { "type": "Point", "coordinates": [ -0.31549501568079, 5.50606825351715 ] } },
{ "type": "Feature", "properties": { "seed_idx": 88, "delta_h": -15.690861521388888, "mean_lon": -0.32269254326820374, "mean_lat": 5.5093338012695314, "dx_m": -3386.9522078611189, "dy_m": 1527.8919406742789, "n_particles": 20, "snap_water": false, "snap_m": 0.0, "outside_grid": 0 }, "geometry": { "type": "Point", "coordinates": [ -0.322692543268204, 5.50933380126953 ] } },
{ "type": "Feature", "properties": { "seed_idx": 89, "delta_h": -15.690861521388888, "mean_lon": -0.32699999213218689, "mean_lat": 5.5079998970031738, "dx_m": -3925.1356324617518, "dy_m": 1351.6288550142199, "n_particles": 20, "snap_water": true, "snap_m": 55.775390625, "outside_grid": 0 }, "geometry": { "type": "Point", "coordinates": [ -0.326999992132187, 5.507999897003174 ] } },
{ "type": "Feature", "properties": { "seed_idx": 90, "delta_h": -15.690861521388888, "mean_lon": -0.32722381353378294, "mean_lat": 5.5082970619201657, "dx_m": -3892.9533102676505, "dy_m": 1342.3941802722402, "n_particles": 20, "snap_water": false, "snap_m": 0.0, "outside_grid": 0 }, "geometry": { "type": "Point", "coordinates": [ -0.327223813533784, 5.508297061920167 ] } },
{ "type": "Feature", "properties": { "seed_idx": 91, "delta_h": -15.690861521388888, "mean_lon": -0.32718921303749082, "mean_lat": 5.5082737922668459, "dx_m": -3814.7029864497017, "dy_m": 1357.662890440668, "n_particles": 20, "snap_water": false, "snap_m": 0.0, "outside_grid": 0 }, "geometry": { "type": "Point", "coordinates": [ -0.327189213037491, 5.508273792266845 ] } },
{ "type": "Feature", "properties": { "seed_idx": 92, "delta_h": -15.690861521388888, "mean_lon": -0.32744034379720688, "mean_lat": 5.5073823213577269, "dx_m": -3755.975631803507, "dy_m": 1266.5659457927104, "n_particles": 20, "snap_water": false, "snap_m": 0.0, "outside_grid": 0 }, "geometry": { "type": "Point", "coordinates": [ -0.327440343797208, 5.507382321357727 ] } },
{ "type": "Feature", "properties": { "seed_idx": 93, "delta_h": -15.690861521388888, "mean_lon": -0.32762350142002106, "mean_lat": 5.5074698686599728, "dx_m": -3776.3282605916029, "dy_m": 1276.1628770807292, "n_particles": 20, "snap_water": false, "snap_m": 0.0, "outside_grid": 0 }, "geometry": { "type": "Point", "coordinates": [ -0.327623501420021, 5.507469868659973 ] } },
{ "type": "Feature", "properties": { "seed_idx": 94, "delta_h": -15.690861521388888, "mean_lon": -0.32629253864288332, "mean_lat": 5.5059495210647587, "dx_m": -3525.7956939485157, "dy_m": 1116.3334469004767, "n_particles": 20, "snap_water": false, "snap_m": 0.0, "outside_grid": 0 }, "geometry": { "type": "Point", "coordinates": [ -0.326292538642884, 5.505949521064758 ] } },
{ "type": "Feature", "properties": { "seed_idx": 95, "delta_h": -15.690861521388888, "mean_lon": -0.32897447943687441, "mean_lat": 5.5062245607376097, "dx_m": -3904.8954929208849, "dy_m": 1099.8867390108062, "n_particles": 20, "snap_water": false, "snap_m": 0.0, "outside_grid": 0 }, "geometry": { "type": "Point", "coordinates": [ -0.328974479436875, 5.506224560737609 ] } },
{ "type": "Feature", "properties": { "seed_idx": 96, "delta_h": -15.690861521388888, "mean_lon": -0.33182584643363955, "mean_lat": 5.5069832563400265, "dx_m": -4243.3081555576064, "dy_m": 1173.5847567082383, "n_particles": 20, "snap_water": false, "snap_m": 0.0, "outside_grid": 0 }, "geometry": { "type": "Point", "coordinates": [ -0.33182584643364, 5.506983256340027 ] } },
{ "type": "Feature", "properties": { "seed_idx": 97, "delta_h": -15.690861521388888, "mean_lon": -0.33305220305919647, "mean_lat": 5.506848931312561, "dx_m": -4379.2244546597358, "dy_m": 1158.1125023722416, "n_particles": 20, "snap_water": false, "snap_m": 0.0, "outside_grid": 0 }, "geometry": { "type": "Point", "coordinates": [ -0.333052203059196, 5.506848931312562 ] } },
{ "type": "Feature", "properties": { "seed_idx": 98, "delta_h": -15.690861521388888, "mean_lon": -0.33297934234142301, "mean_lat": 5.5067892313003544, "dx_m": -4410.4613383455435, "dy_m": 1132.4171541618416, "n_particles": 20, "snap_water": false, "snap_m": 0.0, "outside_grid": 0 }, "geometry": { "type": "Point", "coordinates": [ -0.332979342341424, 5.506789231300353 ] } },
{ "type": "Feature", "properties": { "seed_idx": 99, "delta_h": -15.690861521388888, "mean_lon": -0.33399999141693115, "mean_lat": 5.505000114440918, "dx_m": -4679.0476243546, "dy_m": 940.50948396336753, "n_particles": 20, "snap_water": true, "snap_m": 60.584323883056641, "outside_grid": 0 }, "geometry": { "type": "Point", "coordinates": [ -0.333999991416931, 5.505000114440918 ] } },
{ "type": "Feature", "properties": { "seed_idx": 100, "delta_h": -15.690861521388888, "mean_lon": -0.33544731736183164, "mean_lat": 5.5049255609512331, "dx_m": -4727.9889479515841, "dy_m": 818.36597334069666, "n_particles": 20, "snap_water": false, "snap_m": 0.0, "outside_grid": 0 }, "geometry": { "type": "Point", "coordinates": [ -0.335447317361833, 5.504925560951233 ] } },
{ "type": "Feature", "properties": { "seed_idx": 101, "delta_h": -15.690861521388888, "mean_lon": -0.33626025319099428, "mean_lat": 5.504796481132507, "dx_m": -4785.8647091009188, "dy_m": 787.79361907113343, "n_particles": 20, "snap_water": false, "snap_m": 0.0, "outside_grid": 0 }, "geometry": { "type": "Point", "coordinates": [ -0.336260253190994, 5.504796481132506 ] } },
{ "type": "Feature", "properties": { "seed_idx": 102, "delta_h": -15.690861521388888, "mean_lon": -0.335999995470047, "mean_lat": 5.505000114440918, "dx_m": -4726.6626951131038, "dy_m": 860.14770077657886, "n_particles": 20, "snap_water": true, "snap_m": 78.625587463378906, "outside_grid": 0 }, "geometry": { "type": "Point", "coordinates": [ -0.335999995470046, 5.50500011444092 ] } },
{ "type": "Feature", "properties": { "seed_idx": 103, "delta_h": -15.690861521388888, "mean_lon": -0.33631528913974762, "mean_lat": 5.5047172784805296, "dx_m": -4761.4838943192735, "dy_m": 828.69347568415105, "n_particles": 20, "snap_water": false, "snap_m": 0.0, "outside_grid": 0 }, "geometry": { "type": "Point", "coordinates": [ -0.336315289139747, 5.50471727848053 ] } },
{ "type": "Feature", "properties": { "seed_idx": 104, "delta_h": -15.690861521388888, "mean_lon": -0.33650657534599304, "mean_lat": 5.5044785976409916, "dx_m": -4755.0992159742163, "dy_m": 862.06705806986429, "n_particles": 20, "snap_water": false, "snap_m": 0.0, "outside_grid": 0 }, "geometry": { "type": "Point", "coordinates": [ -0.336506575345993, 5.504478597640991 ] } },
{ "type": "Feature", "properties": { "seed_idx": 105, "delta_h": -15.690861521388888, "mean_lon": -0.33897387236356735, "mean_lat": 5.5047293663024899, "dx_m": -5028.8055114765884, "dy_m": 888.59637820429634, "n_particles": 20, "snap_water": false, "snap_m": 0.0, "outside_grid": 0 }, "geometry": { "type": "Point", "coordinates": [ -0.338973872363567, 5.50472936630249 ] } },
{ "type": "Feature", "properties": { "seed_idx": 106, "delta_h": -15.690861521388888, "mean_lon": -0.33914582133293153, "mean_lat": 5.5047361373901369, "dx_m": -4932.8980575571768, "dy_m": 977.22864984360058, "n_particles": 20, "snap_water": false, "snap_m": 0.0, "outside_grid": 0 }, "geometry": { "type": "Point", "coordinates": [ -0.339145821332931, 5.504736137390137 ] } },
{ "type": "Feature", "properties": { "seed_idx": 107, "delta_h": -15.690861521388888, "mean_lon": -0.33995354771614072, "mean_lat": 5.5051152467727658, "dx_m": -4992.0456083070021, "dy_m": 1033.4940006200923, "n_particles": 20, "snap_water": false, "snap_m": 0.0, "outside_grid": 0 }, "geometry": { "type": "Point", "coordinates": [ -0.33995354771614, 5.505115246772765 ] } },
{ "type": "Feature", "properties": { "seed_idx": 108, "delta_h": -15.690861521388888, "mean_lon": -0.34000000357627869, "mean_lat": 5.5053000926971434, "dx_m": -4971.1916724990588, "dy_m": 1096.3100899787387, "n_particles": 20, "snap_water": false, "snap_m": 0.0, "outside_grid": 0 }, "geometry": { "type": "Point", "coordinates": [ -0.340000003576279, 5.505300092697142 ] } },
{ "type": "Feature", "properties": { "seed_idx": 109, "delta_h": -15.690861521388888, "mean_lon": -0.339993579685688, "mean_lat": 5.5052694082260132, "dx_m": -5021.5788589174626, "dy_m": 1092.6865117675625, "n_particles": 20, "snap_water": false, "snap_m": 0.0, "outside_grid": 0 }, "geometry": { "type": "Point", "coordinates": [ -0.339993579685688, 5.505269408226011 ] } },
{ "type": "Feature", "properties": { "seed_idx": 110, "delta_h": -15.690861521388888, "mean_lon": -0.34011741727590561, "mean_lat": 5.5047320127487183, "dx_m": -5035.0453289700672, "dy_m": 1033.1581587881083, "n_particles": 20, "snap_water": false, "snap_m": 0.0, "outside_grid": 0 }, "geometry": { "type": "Point", "coordinates": [ -0.340117417275906, 5.504732012748717 ] } },
{ "type": "Feature", "properties": { "seed_idx": 111, "delta_h": -15.690861521388888, "mean_lon": -0.34006533175706866, "mean_lat": 5.5045140981674194, "dx_m": -5015.9065811503679, "dy_m": 984.35307888593525, "n_particles": 20, "snap_water": false, "snap_m": 0.0, "outside_grid": 0 }, "geometry": { "type": "Point", "coordinates": [ -0.34006533175707, 5.504514098167419 ] } },
{ "type": "Feature", "properties": { "seed_idx": 112, "delta_h": -15.690861521388888, "mean_lon": -0.34056649208068845, "mean_lat": 5.5024879693984987, "dx_m": -4985.6435628498439, "dy_m": 892.91045208158903, "n_particles": 20, "snap_water": false, "snap_m": 0.0, "outside_grid": 0 }, "geometry": { "type": "Point", "coordinates": [ -0.340566492080689, 5.502487969398498 ] } },
{ "type": "Feature", "properties": { "seed_idx": 113, "delta_h": -15.690861521388888, "mean_lon": -0.34243996292352674, "mean_lat": 5.5020771980285641, "dx_m": -5196.9118025862845, "dy_m": 864.73175951768644, "n_particles": 20, "snap_water": false, "snap_m": 0.0, "outside_grid": 0 }, "geometry": { "type": "Point", "coordinates": [ -0.342439962923528, 5.502077198028563 ] } },
{ "type": "Feature", "properties": { "seed_idx": 114, "delta_h": -15.690861521388888, "mean_lon": -0.34280359745025635, "mean_lat": 5.5020563840866092, "dx_m": -5378.0543028726242, "dy_m": 839.75014901033137, "n_particles": 20, "snap_water": false, "snap_m": 0.0, "outside_grid": 0 }, "geometry": { "type": "Point", "coordinates": [ -0.342803597450256, 5.502056384086607 ] } },
{ "type": "Feature", "properties": { "seed_idx": 115, "delta_h": -15.690861521388888, "mean_lon": -0.34599350690841674, "mean_lat": 5.5011399030685428, "dx_m": -5543.1532503037015, "dy_m": 628.30343215388712, "n_particles": 20, "snap_water": false, "snap_m": 0.0, "outside_grid": 0 }, "geometry": { "type": "Point", "coordinates": [ -0.345993506908417, 5.501139903068541 ] } },
{ "type": "Feature", "properties": { "seed_idx": 116, "delta_h": -15.690861521388888, "mean_lon": -0.34780914038419725, "mean_lat": 5.4992804288864132, "dx_m": -5763.1534963721642, "dy_m": 393.86425466975197, "n_particles": 20, "snap_water": false, "snap_m": 0.0, "outside_grid": 0 }, "geometry": { "type": "Point", "coordinates": [ -0.347809140384198, 5.499280428886412 ] } }
]
}
