{
"type": "FeatureCollection",
"name": "search_boxes_1km",
"crs": { "type": "name", "properties": { "name": "urn:ogc:def:crs:OGC:1.3:CRS84" } },
"features": [
{ "type": "Feature", "properties": { "seed_idx": 0, "delta_h": -15.690861521388888 }, "geometry": { "type": "Polygon", "coordinates": [ [ [ -0.31336284609488, 5.502608675808701 ], [ -0.31332223304438, 5.511645143231171 ], [ -0.32234048753518, 5.511685804189622 ], [ -0.322380964659481, 5.502649269706933 ], [ -0.31336284609488, 5.502608675808701 ] ] ] } },
{ "type": "Feature", "properties": { "seed_idx": 1, "delta_h": -15.690861521388888 }, "geometry": { "type": "Polygon", "coordinates": [ [ [ -0.31378492473347, 5.502853866232708 ], [ -0.313744316239816, 5.511890336725333 ], [ -0.322762577562782, 5.511930993092281 ], [ -0.322803050123907, 5.502894455549932 ], [ -0.31378492473347, 5.502853866232708 ] ] ] } },
{ "type": "Feature", "properties": { "seed_idx": 2, "delta_h": -15.690861521388888 }, "geometry": { "type": "Polygon", "coordinates": [ [ [ -0.314750272122153, 5.503257344282837 ], [ -0.3147096752193, 5.512293821842967 ], [ -0.323727949793397, 5.512334466550344 ], [ -0.323768410753179, 5.503297921964516 ], [ -0.314750272122153, 5.503257344282837 ] ] ] } },
{ "type": "Feature", "properties": { "seed_idx": 3, "delta_h": -15.690861521388888 }, "geometry": { "type": "Polygon", "coordinates": [ [ [ -0.317414935025738, 5.503979450342931 ], [ -0.317374373029745, 5.513015947516523 ], [ -0.326392678259736, 5.513056557153383 ], [ -0.326433104293376, 5.504019993020448 ], [ -0.317414935025738, 5.503979450342931 ] ] ] } },
{ "type": "Feature", "properties": { "seed_idx": 4, "delta_h": -15.690861521388888 }, "geometry": { "type": "Polygon", "coordinates": [ [ [ -0.317411940048041, 5.503947645404994 ], [ -0.317371378242429, 5.512984142565921 ], [ -0.326389682970235, 5.513024752014649 ], [ -0.326430108814292, 5.50398818789431 ], [ -0.317411940048041, 5.503947645404994 ] ] ] } },
{ "type": "Feature", "properties": { "seed_idx": 5, "delta_h": -15.690861521388888 }, "geometry": { "type": "Polygon", "coordinates": [ [ [ -0.311436868501127, 5.501924767130071 ], [ -0.311396231435348, 5.510961220405479 ], [ -0.320414461307144, 5.51100190550837 ], [ -0.320454962464723, 5.501965385124802 ], [ -0.311436868501127, 5.501924767130071 ] ] ] } },
{ "type": "Feature", "properties": { "seed_idx": 6, "delta_h": -15.690861521388888 }, "geometry": { "type": "Polygon", "coordinates": [ [ [ -0.311809128523778, 5.501813069849605 ], [ -0.311768497909828, 5.5108495259339 ], [ -0.32078672886153, 5.510890204576266 ], [ -0.320827223569912, 5.5018536813931 ], [ -0.311809128523778, 5.501813069849605 ] ] ] } },
{ "type": "Feature", "properties": { "seed_idx": 7, "delta_h": -15.690861521388888 }, "geometry": { "type": "Polygon", "coordinates": [ [ [ -0.311804358084549, 5.501978126430815 ], [ -0.311763726173146, 5.51101458242968 ], [ -0.320781959579431, 5.511055262358694 ], [ -0.320822455581133, 5.502018739260823 ], [ -0.311804358084549, 5.501978126430815 ] ] ] } },
{ "type": "Feature", "properties": { "seed_idx": 8, "delta_h": -15.690861521388888 }, "geometry": { "type": "Polygon", "coordinates": [ [ [ -0.312691014685218, 5.502026767054828 ], [ -0.31265039580492, 5.511063229647347 ], [ -0.32166863652907, 5.511103896503547 ], [ -0.321709119498051, 5.502067366834122 ], [ -0.312691014685218, 5.502026767054828 ] ] ] } },
{ "type": "Feature", "properties": { "seed_idx": 9, "delta_h": -15.690861521388888 }, "geometry": { "type": "Polygon", "coordinates": [ [ [ -0.310705794531914, 5.501910411575587 ], [ -0.3106651465307, 5.510946859404174 ], [ -0.3196833707548, 5.510987555475173 ], [ -0.319723882848499, 5.501951040520201 ], [ -0.310705794531914, 5.501910411575587 ] ] ] } },
{ "type": "Feature", "properties": { "seed_idx": 10, "delta_h": -15.690861521388888 }, "geometry": { "type": "Polygon", "coordinates": [ [ [ -0.312002330659158, 5.502896393106577 ], [ -0.311961694921094, 5.511932850303673 ], [ -0.320979943651847, 5.511973533989483 ], [ -0.321020443457109, 5.502937009698224 ], [ -0.312002330659158, 5.502896393106577 ] ] ] } },
{ "type": "Feature", "properties": { "seed_idx": 11, "delta_h": -15.690861521388888 }, "geometry": { "type": "Polygon", "coordinates": [ [ [ -0.313618166098368, 5.505221759039242 ], [ -0.313577537517748, 5.514258227573963 ], [ -0.322595833338837, 5.514298903877028 ], [ -0.322636325927661, 5.505262368288188 ], [ -0.313618166098368, 5.505221759039242 ] ] ] } },
{ "type": "Feature", "properties": { "seed_idx": 12, "delta_h": -15.690861521388888 }, "geometry": { "type": "Polygon", "coordinates": [ [ [ -0.314117910674914, 5.505732284864604 ], [ -0.314077285859944, 5.514768756967381 ], [ -0.323095593096575, 5.514809429449048 ], [ -0.323136081906731, 5.505772890304556 ], [ -0.314117910674914, 5.505732284864604 ] ] ] } },
{ "type": "Feature", "properties": { "seed_idx": 13, "delta_h": -15.690861521388888 }, "geometry": { "type": "Polygon", "coordinates": [ [ [ -0.313248904180028, 5.506104833077735 ], [ -0.313208263466125, 5.515141298594528 ], [ -0.322226569877535, 5.515181986987857 ], [ -0.322267074577675, 5.506145454407648 ], [ -0.313248904180028, 5.506104833077735 ] ] ] } },
{ "type": "Feature", "properties": { "seed_idx": 14, "delta_h": -15.690861521388888 }, "geometry": { "type": "Polygon", "coordinates": [ [ [ -0.313414445641575, 5.506009108992995 ], [ -0.313373808140159, 5.515045575772032 ], [ -0.32239211433516, 5.515086260952107 ], [ -0.322432615825139, 5.50604972711379 ], [ -0.313414445641575, 5.506009108992995 ] ] ] } },
{ "type": "Feature", "properties": { "seed_idx": 15, "delta_h": -15.690861521388888 }, "geometry": { "type": "Polygon", "coordinates": [ [ [ -0.312438680360193, 5.50615501689426 ], [ -0.31239802702691, 5.515191476358531 ], [ -0.321416328180774, 5.515232177402964 ], [ -0.321456845499398, 5.506195650855071 ], [ -0.312438680360193, 5.50615501689426 ] ] ] } },
{ "type": "Feature", "properties": { "seed_idx": 16, "delta_h": -15.690861521388888 }, "geometry": { "type": "Polygon", "coordinates": [ [ [ -0.312720266378292, 5.506035379956796 ], [ -0.312679618189255, 5.515071841555676 ], [ -0.321697919627635, 5.515112537451671 ], [ -0.321738431804886, 5.506076008776204 ], [ -0.312720266378292, 5.506035379956796 ] ] ] } },
{ "type": "Feature", "properties": { "seed_idx": 17, "delta_h": -15.690861521388888 }, "geometry": { "type": "Polygon", "coordinates": [ [ [ -0.313386323518221, 5.50587309156534 ], [ -0.313345686600965, 5.514909558175997 ], [ -0.32236399053376, 5.514950242782219 ], [ -0.322404491443, 5.505913709111596 ], [ -0.313386323518221, 5.50587309156534 ] ] ] } },
{ "type": "Feature", "properties": { "seed_idx": 18, "delta_h": -15.690861521388888 }, "geometry": { "type": "Polygon", "coordinates": [ [ [ -0.314172932360541, 5.505792843181843 ], [ -0.31413230792799, 5.514829315676104 ], [ -0.323150616487135, 5.514869987768924 ], [ -0.323191104913331, 5.505833448234313 ], [ -0.314172932360541, 5.505792843181843 ] ] ] } },
{ "type": "Feature", "properties": { "seed_idx": 19, "delta_h": -15.690861521388888 }, "geometry": { "type": "Polygon", "coordinates": [ [ [ -0.314453224176846, 5.505492294859917 ], [ -0.314412606209935, 5.514528769532488 ], [ -0.323430912311703, 5.514569435167607 ], [ -0.323471394279665, 5.505532893461705 ], [ -0.314453224176846, 5.505492294859917 ] ] ] } },
{ "type": "Feature", "properties": { "seed_idx": 20, "delta_h": -15.690861521388888 }, "geometry": { "type": "Polygon", "coordinates": [ [ [ -0.314041138954384, 5.505425154838978 ], [ -0.314000515257361, 5.514461626462814 ], [ -0.323018817287831, 5.514502297850377 ], [ -0.323059304987772, 5.505465759182943 ], [ -0.314041138954384, 5.505425154838978 ] ] ] } },
{ "type": "Feature", "properties": { "seed_idx": 21, "delta_h": -15.690861521388888 }, "geometry": { "type": "Polygon", "coordinates": [ [ [ -0.314156744607632, 5.505225027434492 ], [ -0.314116124142315, 5.51426149997986 ], [ -0.323134424009653, 5.51430216814408 ], [ -0.323174908482852, 5.505265628558017 ], [ -0.314156744607632, 5.505225027434492 ] ] ] } },
{ "type": "Feature", "properties": { "seed_idx": 22, "delta_h": -15.690861521388888 }, "geometry": { "type": "Polygon", "coordinates": [ [ [ -0.311181689614521, 5.502540909108291 ], [ -0.311141044119164, 5.511577360294988 ], [ -0.32015928139099, 5.511618053797407 ], [ -0.32019979096282, 5.502581535496122 ], [ -0.311181689614521, 5.502540909108291 ] ] ] } },
{ "type": "Feature", "properties": { "seed_idx": 23, "delta_h": -15.690861521388888 }, "geometry": { "type": "Polygon", "coordinates": [ [ [ -0.313845985435332, 5.504952800865526 ], [ -0.313805362293037, 5.513989271178581 ], [ -0.322823655745075, 5.51402994205142 ], [ -0.322864142902212, 5.504993404689951 ], [ -0.313845985435332, 5.504952800865526 ] ] ] } },
{ "type": "Feature", "properties": { "seed_idx": 24, "delta_h": -15.690861521388888 }, "geometry": { "type": "Polygon", "coordinates": [ [ [ -0.313715775568129, 5.504698909315459 ], [ -0.313675152341671, 5.513735378735349 ], [ -0.322693440995118, 5.513776049714947 ], [ -0.322733928242839, 5.504739513243424 ], [ -0.313715775568129, 5.504698909315459 ] ] ] } },
{ "type": "Feature", "properties": { "seed_idx": 25, "delta_h": -15.690861521388888 }, "geometry": { "type": "Polygon", "coordinates": [ [ [ -0.314297047665468, 5.505672466543557 ], [ -0.314256426001744, 5.514708939998576 ], [ -0.323274733664591, 5.514749609325235 ], [ -0.32331521932492, 5.505713068832973 ], [ -0.314297047665468, 5.505672466543557 ] ] ] } },
{ "type": "Feature", "properties": { "seed_idx": 26, "delta_h": -15.690861521388888 }, "geometry": { "type": "Polygon", "coordinates": [ [ [ -0.313752362136, 5.505824026603405 ], [ -0.313711731115354, 5.514860495955682 ], [ -0.322730037024205, 5.514901174652723 ], [ -0.322770532037901, 5.505864638249609 ], [ -0.313752362136, 5.505824026603405 ] ] ] } },
{ "type": "Feature", "properties": { "seed_idx": 27, "delta_h": -15.690861521388888 }, "geometry": { "type": "Polygon", "coordinates": [ [ [ -0.313273595000172, 5.505359896950964 ], [ -0.313232960187038, 5.514396362876941 ], [ -0.322251255535797, 5.514437045418215 ], [ -0.322291754353825, 5.505400512429513 ], [ -0.313273595000172, 5.505359896950964 ] ] ] } },
{ "type": "Feature", "properties": { "seed_idx": 28, "delta_h": -15.690861521388888 }, "geometry": { "type": "Polygon", "coordinates": [ [ [ -0.31349218545879, 5.504882871581962 ], [ -0.313451557488617, 5.513919339280638 ], [ -0.322469847259284, 5.513960015001352 ], [ -0.322510339246209, 5.504923480245448 ], [ -0.31349218545879, 5.504882871581962 ] ] ] } },
{ "type": "Feature", "properties": { "seed_idx": 29, "delta_h": -15.690861521388888 }, "geometry": { "type": "Polygon", "coordinates": [ [ [ -0.31239759962157, 5.503870140348739 ], [ -0.312356962626996, 5.512906600197585 ], [ -0.321375228986773, 5.512947285057763 ], [ -0.321415730023966, 5.503910758124507 ], [ -0.31239759962157, 5.503870140348739 ] ] ] } },
{ "type": "Feature", "properties": { "seed_idx": 30, "delta_h": -15.690861521388888 }, "geometry": { "type": "Polygon", "coordinates": [ [ [ -0.311826874623163, 5.502459825713742 ], [ -0.311786239475676, 5.511496281734903 ], [ -0.320804480316451, 5.511536964866882 ], [ -0.320844979542155, 5.502500441747228 ], [ -0.311826874623163, 5.502459825713742 ] ] ] } },
{ "type": "Feature", "properties": { "seed_idx": 31, "delta_h": -15.690861521388888 }, "geometry": { "type": "Polygon", "coordinates": [ [ [ -0.310264856939371, 5.501342498834083 ], [ -0.310224206496976, 5.510378943545739 ], [ -0.319242418877655, 5.510419642114943 ], [ -0.319282933426962, 5.501383130265967 ], [ -0.310264856939371, 5.501342498834083 ] ] ] } },
{ "type": "Feature", "properties": { "seed_idx": 32, "delta_h": -15.690861521388888 }, "geometry": { "type": "Polygon", "coordinates": [ [ [ -0.310272479538917, 5.50114847450913 ], [ -0.310231830652921, 5.510184919336256 ], [ -0.319250040163583, 5.510225616361677 ], [ -0.319290553161351, 5.501189104397441 ], [ -0.310272479538917, 5.50114847450913 ] ] ] } },
{ "type": "Feature", "properties": { "seed_idx": 33, "delta_h": -15.690861521388888 }, "geometry": { "type": "Polygon", "coordinates": [ [ [ -0.314780219393271, 5.503451917114229 ], [ -0.314739621499905, 5.512488394838549 ], [ -0.323757899232261, 5.512529040522159 ], [ -0.323798361177665, 5.503492495772871 ], [ -0.314780219393271, 5.503451917114229 ] ] ] } },
{ "type": "Feature", "properties": { "seed_idx": 34, "delta_h": -15.690861521388888 }, "geometry": { "type": "Polygon", "coordinates": [ [ [ -0.313642642505829, 5.502878065086154 ], [ -0.313602031683257, 5.511914534511599 ], [ -0.322620292315377, 5.511955193212018 ], [ -0.322660767204875, 5.502918656733301 ], [ -0.313642642505829, 5.502878065086154 ] ] ] } },
{ "type": "Feature", "properties": { "seed_idx": 35, "delta_h": -15.690861521388888 }, "geometry": { "type": "Polygon", "coordinates": [ [ [ -0.311608090053048, 5.501872983455001 ], [ -0.311567455957858, 5.51090943802253 ], [ -0.320585686320242, 5.510950120150861 ], [ -0.320626184508452, 5.501913598479442 ], [ -0.311608090053048, 5.501872983455001 ] ] ] } },
{ "type": "Feature", "properties": { "seed_idx": 36, "delta_h": -15.690861521388888 }, "geometry": { "type": "Polygon", "coordinates": [ [ [ -0.310666381456613, 5.501117147930006 ], [ -0.31062573875189, 5.51015359570433 ], [ -0.319643950716971, 5.510194286533475 ], [ -0.319684457534076, 5.501157771631864 ], [ -0.310666381456613, 5.501117147930006 ] ] ] } },
{ "type": "Feature", "properties": { "seed_idx": 37, "delta_h": -15.690861521388888 }, "geometry": { "type": "Polygon", "coordinates": [ [ [ -0.311992714778201, 5.502577485504135 ], [ -0.311952081262329, 5.511613942725924 ], [ -0.320970325109941, 5.511654624211245 ], [ -0.321010822701008, 5.502618099895086 ], [ -0.311992714778201, 5.502577485504135 ] ] ] } },
{ "type": "Feature", "properties": { "seed_idx": 38, "delta_h": -15.690861521388888 }, "geometry": { "type": "Polygon", "coordinates": [ [ [ -0.311425340944681, 5.502742682974969 ], [ -0.311384697631608, 5.511779135917292 ], [ -0.320402939757701, 5.511819827213392 ], [ -0.320443447142081, 5.502783307162535 ], [ -0.311425340944681, 5.502742682974969 ] ] ] } },
{ "type": "Feature", "properties": { "seed_idx": 39, "delta_h": -15.690861521388888 }, "geometry": { "type": "Polygon", "coordinates": [ [ [ -0.311946442875569, 5.50331667567928 ], [ -0.31190580317315, 5.512353132332782 ], [ -0.320924057830575, 5.512393819957315 ], [ -0.320964561589685, 5.50335729620821 ], [ -0.311946442875569, 5.50331667567928 ] ] ] } },
{ "type": "Feature", "properties": { "seed_idx": 40, "delta_h": -15.690861521388888 }, "geometry": { "type": "Polygon", "coordinates": [ [ [ -0.312561671254111, 5.504317984857638 ], [ -0.312521033414593, 5.513354445793857 ], [ -0.321539307751461, 5.51339513146196 ], [ -0.321579809622302, 5.504358603445374 ], [ -0.312561671254111, 5.504317984857638 ] ] ] } },
{ "type": "Feature", "properties": { "seed_idx": 41, "delta_h": -15.690861521388888 }, "geometry": { "type": "Polygon", "coordinates": [ [ [ -0.312610080938488, 5.504880150227198 ], [ -0.312569439658085, 5.51391661135424 ], [ -0.321587722839342, 5.513957300423577 ], [ -0.321628228136958, 5.504920772217317 ], [ -0.312610080938488, 5.504880150227198 ] ] ] } },
{ "type": "Feature", "properties": { "seed_idx": 42, "delta_h": -15.690861521388888 }, "geometry": { "type": "Polygon", "coordinates": [ [ [ -0.312792328691916, 5.505356652618488 ], [ -0.312751686629296, 5.514393114959562 ], [ -0.321769978356355, 5.514433804771384 ], [ -0.321810484424166, 5.505397275355588 ], [ -0.312792328691916, 5.505356652618488 ] ] ] } },
{ "type": "Feature", "properties": { "seed_idx": 43, "delta_h": -15.690861521388888 }, "geometry": { "type": "Polygon", "coordinates": [ [ [ -0.311280394808955, 5.5050016904777 ], [ -0.311239732531751, 5.514038141656592 ], [ -0.320258007672532, 5.514078851772209 ], [ -0.320298533964497, 5.505042333480938 ], [ -0.311280394808955, 5.5050016904777 ] ] ] } },
{ "type": "Feature", "properties": { "seed_idx": 44, "delta_h": -15.690861521388888 }, "geometry": { "type": "Polygon", "coordinates": [ [ [ -0.311964341569235, 5.505362061516943 ], [ -0.311923686952784, 5.514398517685604 ], [ -0.320941972613355, 5.514439220086755 ], [ -0.320982491235232, 5.505402696822729 ], [ -0.311964341569235, 5.505362061516943 ] ] ] } },
{ "type": "Feature", "properties": { "seed_idx": 45, "delta_h": -15.690861521388888 }, "geometry": { "type": "Polygon", "coordinates": [ [ [ -0.312247060898319, 5.505413322417646 ], [ -0.312206410174203, 5.514449780678057 ], [ -0.321224698708103, 5.514490479171204 ], [ -0.321265213436233, 5.505453953822469 ], [ -0.312247060898319, 5.505413322417646 ] ] ] } },
{ "type": "Feature", "properties": { "seed_idx": 46, "delta_h": -15.690861521388888 }, "geometry": { "type": "Polygon", "coordinates": [ [ [ -0.312389743949708, 5.505392318363683 ], [ -0.312349095537941, 5.514428777693849 ], [ -0.321367384814276, 5.514469473869871 ], [ -0.32140789723052, 5.505432947454942 ], [ -0.312389743949708, 5.505392318363683 ] ] ] } },
{ "type": "Feature", "properties": { "seed_idx": 47, "delta_h": -15.690861521388888 }, "geometry": { "type": "Polygon", "coordinates": [ [ [ -0.312444803872975, 5.505973700228415 ], [ -0.31240415197807, 5.515010159793147 ], [ -0.32142245043999, 5.515050859411058 ], [ -0.321462966324777, 5.506014332762879 ], [ -0.312444803872975, 5.505973700228415 ] ] ] } },
{ "type": "Feature", "properties": { "seed_idx": 48, "delta_h": -15.690861521388888 }, "geometry": { "type": "Polygon", "coordinates": [ [ [ -0.312355914437173, 5.506114843187103 ], [ -0.312315260151033, 5.515151302046692 ], [ -0.321333560083804, 5.515192004050252 ], [ -0.321374078356328, 5.506155478104982 ], [ -0.312355914437173, 5.506114843187103 ] ] ] } },
{ "type": "Feature", "properties": { "seed_idx": 49, "delta_h": -15.690861521388888 }, "geometry": { "type": "Polygon", "coordinates": [ [ [ -0.312640848361207, 5.506085828844549 ], [ -0.312600198597318, 5.515122289836358 ], [ -0.321618500207701, 5.515162987307269 ], [ -0.321659013958574, 5.506126459236888 ], [ -0.312640848361207, 5.506085828844549 ] ] ] } },
{ "type": "Feature", "properties": { "seed_idx": 50, "delta_h": -15.690861521388888 }, "geometry": { "type": "Polygon", "coordinates": [ [ [ -0.312443925519046, 5.506152608895288 ], [ -0.312403272282919, 5.515189068399377 ], [ -0.321421573439375, 5.515229769346589 ], [ -0.3214620906609, 5.506193242759008 ], [ -0.312443925519046, 5.506152608895288 ] ] ] } },
{ "type": "Feature", "properties": { "seed_idx": 51, "delta_h": -15.690861521388888 }, "geometry": { "type": "Polygon", "coordinates": [ [ [ -0.311974366667268, 5.506215930840157 ], [ -0.311933705863406, 5.515252386825376 ], [ -0.320952004488993, 5.515293095356417 ], [ -0.320992529276876, 5.506256572275995 ], [ -0.311974366667268, 5.506215930840157 ] ] ] } },
{ "type": "Feature", "properties": { "seed_idx": 52, "delta_h": -15.690861521388888 }, "geometry": { "type": "Polygon", "coordinates": [ [ [ -0.311397344707503, 5.506311987127303 ], [ -0.311356674468277, 5.515348438781973 ], [ -0.320374970258387, 5.515389156766932 ], [ -0.320415504479485, 5.506352638002666 ], [ -0.311397344707503, 5.506311987127303 ] ] ] } },
{ "type": "Feature", "properties": { "seed_idx": 53, "delta_h": -15.690861521388888 }, "geometry": { "type": "Polygon", "coordinates": [ [ [ -0.311322821687672, 5.50635702395127 ], [ -0.311282149987532, 5.51539347503671 ], [ -0.320300445904041, 5.515434194482797 ], [ -0.320340981584957, 5.506397676285898 ], [ -0.311322821687672, 5.50635702395127 ] ] ] } },
{ "type": "Feature", "properties": { "seed_idx": 54, "delta_h": -15.690861521388888 }, "geometry": { "type": "Polygon", "coordinates": [ [ [ -0.310958845863833, 5.50627686650846 ], [ -0.310918169257087, 5.515313314904271 ], [ -0.319936461259455, 5.515354039278082 ], [ -0.319977001849148, 5.506317523761748 ], [ -0.310958845863833, 5.50627686650846 ] ] ] } },
{ "type": "Feature", "properties": { "seed_idx": 55, "delta_h": -15.690861521388888 }, "geometry": { "type": "Polygon", "coordinates": [ [ [ -0.311867921212254, 5.506270694985013 ], [ -0.311827258392818, 5.515307150160228 ], [ -0.320845557054693, 5.515347860707789 ], [ -0.320886083856825, 5.506311338434712 ], [ -0.311867921212254, 5.506270694985013 ] ] ] } },
{ "type": "Feature", "properties": { "seed_idx": 56, "delta_h": -15.690861521388888 }, "geometry": { "type": "Polygon", "coordinates": [ [ [ -0.312251692036805, 5.506214882868847 ], [ -0.312211035432701, 5.515251340921424 ], [ -0.321229336101924, 5.515292045240771 ], [ -0.321269856689952, 5.506255520099906 ], [ -0.312251692036805, 5.506214882868847 ] ] ] } },
{ "type": "Feature", "properties": { "seed_idx": 57, "delta_h": -15.690861521388888 }, "geometry": { "type": "Polygon", "coordinates": [ [ [ -0.313208957896582, 5.506026727273127 ], [ -0.313168317158447, 5.515063192515921 ], [ -0.322186622094135, 5.515103880940433 ], [ -0.322227126820484, 5.506067348633235 ], [ -0.313208957896582, 5.506026727273127 ] ] ] } },
{ "type": "Feature", "properties": { "seed_idx": 58, "delta_h": -15.690861521388888 }, "geometry": { "type": "Polygon", "coordinates": [ [ [ -0.314003240844033, 5.505921969575681 ], [ -0.313962612888782, 5.514958440767037 ], [ -0.322980922138104, 5.514999116381277 ], [ -0.323021414083839, 5.505962578145328 ], [ -0.314003240844033, 5.505921969575681 ] ] ] } },
{ "type": "Feature", "properties": { "seed_idx": 59, "delta_h": -15.690861521388888 }, "geometry": { "type": "Polygon", "coordinates": [ [ [ -0.314087617059535, 5.505705152809423 ], [ -0.314046991987958, 5.514741624694778 ], [ -0.323065298590193, 5.514782297436175 ], [ -0.323105787657649, 5.505745758508352 ], [ -0.314087617059535, 5.505705152809423 ] ] ] } },
{ "type": "Feature", "properties": { "seed_idx": 60, "delta_h": -15.690861521388888 }, "geometry": { "type": "Polygon", "coordinates": [ [ [ -0.31429190521599, 5.505314148505119 ], [ -0.314251286132317, 5.514350622030168 ], [ -0.32326958834789, 5.514391288800936 ], [ -0.323310071437151, 5.505354748238551 ], [ -0.31429190521599, 5.505314148505119 ] ] ] } },
{ "type": "Feature", "properties": { "seed_idx": 61, "delta_h": -15.690861521388888 }, "geometry": { "type": "Polygon", "coordinates": [ [ [ -0.315747674799073, 5.503978824038433 ], [ -0.315707087616051, 5.513015308805966 ], [ -0.324725380475923, 5.513055943702149 ], [ -0.324765831697349, 5.504019391933712 ], [ -0.315747674799073, 5.503978824038433 ] ] ] } },
{ "type": "Feature", "properties": { "seed_idx": 62, "delta_h": -15.690861521388888 }, "geometry": { "type": "Polygon", "coordinates": [ [ [ -0.31155204721401, 5.501926102711661 ], [ -0.311511411877962, 5.510962556845343 ], [ -0.320529642625431, 5.511003240213419 ], [ -0.320570142053194, 5.501966718974445 ], [ -0.31155204721401, 5.501926102711661 ] ] ] } },
{ "type": "Feature", "properties": { "seed_idx": 63, "delta_h": -15.690861521388888 }, "geometry": { "type": "Polygon", "coordinates": [ [ [ -0.310953685924855, 5.501921308217781 ], [ -0.310913041586829, 5.510957757891612 ], [ -0.319931267817059, 5.510998450287941 ], [ -0.319971776247187, 5.501961933493903 ], [ -0.310953685924855, 5.501921308217781 ] ] ] } },
{ "type": "Feature", "properties": { "seed_idx": 64, "delta_h": -15.690861521388888 }, "geometry": { "type": "Polygon", "coordinates": [ [ [ -0.310544917268762, 5.501177562518424 ], [ -0.310504272280994, 5.510214009368658 ], [ -0.319522484254842, 5.510254702482088 ], [ -0.319562993353531, 5.501218188501533 ], [ -0.310544917268762, 5.501177562518424 ] ] ] } },
{ "type": "Feature", "properties": { "seed_idx": 65, "delta_h": -15.690861521388888 }, "geometry": { "type": "Polygon", "coordinates": [ [ [ -0.313817513648107, 5.504294791640949 ], [ -0.313776894957077, 5.513331261940833 ], [ -0.322795178266199, 5.51337192840758 ], [ -0.322835660988575, 5.50433539105864 ], [ -0.313817513648107, 5.504294791640949 ] ] ] } },
{ "type": "Feature", "properties": { "seed_idx": 66, "delta_h": -15.690861521388888 }, "geometry": { "type": "Polygon", "coordinates": [ [ [ -0.313458551049715, 5.504464376797317 ], [ -0.313417925676337, 5.513500844371936 ], [ -0.32243620888078, 5.513541517525261 ], [ -0.322476698281414, 5.504504982892622 ], [ -0.313458551049715, 5.504464376797317 ] ] ] } },
{ "type": "Feature", "properties": { "seed_idx": 67, "delta_h": -15.690861521388888 }, "geometry": { "type": "Polygon", "coordinates": [ [ [ -0.314747649488359, 5.50560580667835 ], [ -0.31470703512951, 5.514642283509066 ], [ -0.323725345129271, 5.514682945515792 ], [ -0.323765823486196, 5.505646401659073 ], [ -0.314747649488359, 5.50560580667835 ] ] ] } },
{ "type": "Feature", "properties": { "seed_idx": 68, "delta_h": -15.690861521388888 }, "geometry": { "type": "Polygon", "coordinates": [ [ [ -0.313984574702751, 5.505835090080099 ], [ -0.313943947109852, 5.514871561158694 ], [ -0.322962254909041, 5.514912236417192 ], [ -0.323002746494609, 5.50587569829355 ], [ -0.313984574702751, 5.505835090080099 ] ] ] } },
{ "type": "Feature", "properties": { "seed_idx": 69, "delta_h": -15.690861521388888 }, "geometry": { "type": "Polygon", "coordinates": [ [ [ -0.313915729118461, 5.505839023707821 ], [ -0.3138751004558, 5.514875494272438 ], [ -0.322893407803467, 5.514916170603418 ], [ -0.322933900458729, 5.505879632992036 ], [ -0.313915729118461, 5.505839023707821 ] ] ] } },
{ "type": "Feature", "properties": { "seed_idx": 70, "delta_h": -15.690861521388888 }, "geometry": { "type": "Polygon", "coordinates": [ [ [ -0.312012510149859, 5.506236792538891 ], [ -0.311971849767693, 5.515273248802119 ], [ -0.320990148991519, 5.515313956908416 ], [ -0.321030673357166, 5.506277433550935 ], [ -0.312012510149859, 5.506236792538891 ] ] ] } },
{ "type": "Feature", "properties": { "seed_idx": 71, "delta_h": -15.690861521388888 }, "geometry": { "type": "Polygon", "coordinates": [ [ [ -0.311033871946265, 5.506386133645844 ], [ -0.310993195662147, 5.515422582568052 ], [ -0.320011489871631, 5.515463306608678 ], [ -0.320052030135925, 5.506426790567804 ], [ -0.311033871946265, 5.506386133645844 ] ] ] } },
{ "type": "Feature", "properties": { "seed_idx": 72, "delta_h": -15.690861521388888 }, "geometry": { "type": "Polygon", "coordinates": [ [ [ -0.305221393660138, 5.504488306147019 ], [ -0.305180643638035, 5.513524712255603 ], [ -0.31419886597032, 5.513565510412951 ], [ -0.314239480022754, 5.504529037040995 ], [ -0.305221393660138, 5.504488306147019 ] ] ] } },
{ "type": "Feature", "properties": { "seed_idx": 73, "delta_h": -15.690861521388888 }, "geometry": { "type": "Polygon", "coordinates": [ [ [ -0.304250512330019, 5.504012062999429 ], [ -0.304209751182692, 5.51304846199567 ], [ -0.313227959097691, 5.513089271352193 ], [ -0.313268584287718, 5.504052805068426 ], [ -0.304250512330019, 5.504012062999429 ] ] ] } },
{ "type": "Feature", "properties": { "seed_idx": 74, "delta_h": -15.690861521388888 }, "geometry": { "type": "Polygon", "coordinates": [ [ [ -0.305321729197552, 5.506127023151168 ], [ -0.305280968496096, 5.515163429514088 ], [ -0.314299216312187, 5.51520423823669 ], [ -0.314339841002863, 5.506167764612732 ], [ -0.305321729197552, 5.506127023151168 ] ] ] } },
{ "type": "Feature", "properties": { "seed_idx": 75, "delta_h": -15.690861521388888 }, "geometry": { "type": "Polygon", "coordinates": [ [ [ -0.309943013368138, 5.50173164302898 ], [ -0.309902355174122, 5.51076808522242 ], [ -0.318920571033137, 5.510808791531241 ], [ -0.318961093324458, 5.501772282192418 ], [ -0.309943013368138, 5.50173164302898 ] ] ] } },
{ "type": "Feature", "properties": { "seed_idx": 76, "delta_h": -15.690861521388888 }, "geometry": { "type": "Polygon", "coordinates": [ [ [ -0.31394928095721, 5.504084555386386 ], [ -0.313908665816834, 5.513121026731294 ], [ -0.3229269469309, 5.513161689655711 ], [ -0.322967426107831, 5.504125151265053 ], [ -0.31394928095721, 5.504084555386386 ] ] ] } },
{ "type": "Feature", "properties": { "seed_idx": 77, "delta_h": -15.690861521388888 }, "geometry": { "type": "Polygon", "coordinates": [ [ [ -0.314897655616789, 5.50500609127678 ], [ -0.314857047972445, 5.514042569405746 ], [ -0.323875350032142, 5.514083224731519 ], [ -0.323915821689524, 5.505046679580352 ], [ -0.314897655616789, 5.50500609127678 ] ] ] } },
{ "type": "Feature", "properties": { "seed_idx": 78, "delta_h": -15.690861521388888 }, "geometry": { "type": "Polygon", "coordinates": [ [ [ -0.315056896332459, 5.505457297459567 ], [ -0.315016287748827, 5.514493776637758 ], [ -0.324034597800822, 5.514534432865791 ], [ -0.324075070386113, 5.505497886669324 ], [ -0.315056896332459, 5.505457297459567 ] ] ] } },
{ "type": "Feature", "properties": { "seed_idx": 79, "delta_h": -15.690861521388888 }, "geometry": { "type": "Polygon", "coordinates": [ [ [ -0.314284893644065, 5.505873667225996 ], [ -0.314244270304259, 5.514910140529664 ], [ -0.323262580914374, 5.51495081151949 ], [ -0.323303068245748, 5.505914271178255 ], [ -0.314284893644065, 5.505873667225996 ] ] ] } },
{ "type": "Feature", "properties": { "seed_idx": 80, "delta_h": -15.690861521388888 }, "geometry": { "type": "Polygon", "coordinates": [ [ [ -0.314063381267767, 5.505918107439793 ], [ -0.314022754250185, 5.514954579080251 ], [ -0.323041063887492, 5.514995253754476 ], [ -0.323081554895628, 5.505958715070924 ], [ -0.314063381267767, 5.505918107439793 ] ] ] } },
{ "type": "Feature", "properties": { "seed_idx": 81, "delta_h": -15.690861521388888 }, "geometry": { "type": "Polygon", "coordinates": [ [ [ -0.314464466335912, 5.505659354212338 ], [ -0.314423847299852, 5.51469582891812 ], [ -0.323442156006975, 5.514736495610743 ], [ -0.323482639039894, 5.505699953871892 ], [ -0.314464466335912, 5.505659354212338 ] ] ] } },
{ "type": "Feature", "properties": { "seed_idx": 82, "delta_h": -15.690861521388888 }, "geometry": { "type": "Polygon", "coordinates": [ [ [ -0.315011674800665, 5.505456582032269 ], [ -0.314971065538875, 5.514493060873986 ], [ -0.323989375244614, 5.514533717782184 ], [ -0.324029848508101, 5.505497171921063 ], [ -0.315011674800665, 5.505456582032269 ] ] ] } },
{ "type": "Feature", "properties": { "seed_idx": 83, "delta_h": -15.690861521388888 }, "geometry": { "type": "Polygon", "coordinates": [ [ [ -0.314939427140219, 5.50550726936533 ], [ -0.314898816410625, 5.514543747653797 ], [ -0.323917126345583, 5.514584406029543 ], [ -0.323957601075636, 5.505547860719864 ], [ -0.314939427140219, 5.50550726936533 ] ] ] } },
{ "type": "Feature", "properties": { "seed_idx": 84, "delta_h": -15.690861521388888 }, "geometry": { "type": "Polygon", "coordinates": [ [ [ -0.314762020532598, 5.505468525799958 ], [ -0.314721407409038, 5.514505002779188 ], [ -0.323739715443026, 5.51454566355917 ], [ -0.323780192568095, 5.50550911955431 ], [ -0.314762020532598, 5.505468525799958 ] ] ] } },
{ "type": "Feature", "properties": { "seed_idx": 85, "delta_h": -15.690861521388888 }, "geometry": { "type": "Polygon", "coordinates": [ [ [ -0.314501203082489, 5.505701697344046 ], [ -0.314460584287628, 5.514738172310602 ], [ -0.323478893906549, 5.514778838757605 ], [ -0.323519376697194, 5.505742296758894 ], [ -0.314501203082489, 5.505701697344046 ] ] ] } },
{ "type": "Feature", "properties": { "seed_idx": 86, "delta_h": -15.690861521388888 }, "geometry": { "type": "Polygon", "coordinates": [ [ [ -0.314499647309714, 5.504174917826157 ], [ -0.314459039815113, 5.513211393242679 ], [ -0.323477326376807, 5.513252048491439 ], [ -0.323517797905453, 5.504215506042878 ], [ -0.314499647309714, 5.504174917826157 ] ] ] } },
{ "type": "Feature", "properties": { "seed_idx": 87, "delta_h": -15.690861521388888 }, "geometry": { "type": "Polygon", "coordinates": [ [ [ -0.31100625961662, 5.50152968344476 ], [ -0.310965618980996, 5.510566133628931 ], [ -0.319983839694016, 5.510606822346706 ], [ -0.320024344431531, 5.501570305043679 ], [ -0.31100625961662, 5.50152968344476 ] ] ] } },
{ "type": "Feature", "properties": { "seed_idx": 88, "delta_h": -15.690861521388888 }, "geometry": { "type": "Polygon", "coordinates": [ [ [ -0.318203693630343, 5.504795247359659 ], [ -0.318163137509976, 5.513831750153204 ], [ -0.327181460897639, 5.513872353825858 ], [ -0.327221881034857, 5.504835784092551 ], [ -0.318203693630343, 5.504795247359659 ] ] ] } },
{ "type": "Feature", "properties": { "seed_idx": 89, "delta_h": -15.690861521388888 }, "geometry": { "type": "Polygon", "coordinates": [ [ [ -0.32251109912909, 5.503461364392833 ], [ -0.322470617965474, 5.512497899596331 ], [ -0.331488953111101, 5.512538428214441 ], [ -0.331529298323082, 5.503501826178706 ], [ -0.32251109912909, 5.503461364392833 ] ] ] } },
{ "type": "Feature", "properties": { "seed_idx": 90, "delta_h": -15.690861521388888 }, "geometry": { "type": "Polygon", "coordinates": [ [ [ -0.322734916870434, 5.503758529128412 ], [ -0.322694436891077, 5.512795065903798 ], [ -0.331712778176723, 5.512835593308172 ], [ -0.331753122196898, 5.503798989706095 ], [ -0.322734916870434, 5.503758529128412 ] ] ] } },
{ "type": "Feature", "properties": { "seed_idx": 91, "delta_h": -15.690861521388888 }, "geometry": { "type": "Polygon", "coordinates": [ [ [ -0.322700316852898, 5.503735259423419 ], [ -0.322659836522824, 5.512771795948964 ], [ -0.331678177201376, 5.512812323707103 ], [ -0.331718521572866, 5.503775720354006 ], [ -0.322700316852898, 5.503735259423419 ] ] ] } },
{ "type": "Feature", "properties": { "seed_idx": 92, "delta_h": -15.690861521388888 }, "geometry": { "type": "Polygon", "coordinates": [ [ [ -0.322951448211689, 5.502843792617101 ], [ -0.322910978266942, 5.511880331276415 ], [ -0.331929307350902, 5.511920848697662 ], [ -0.331969641359296, 5.502884243217151 ], [ -0.322951448211689, 5.502843792617101 ] ] ] } },
{ "type": "Feature", "properties": { "seed_idx": 93, "delta_h": -15.690861521388888 }, "geometry": { "type": "Polygon", "coordinates": [ [ [ -0.323134603437477, 5.502931340318044 ], [ -0.323094135612345, 5.511967880310498 ], [ -0.332112467371881, 5.512008395598362 ], [ -0.332152799258384, 5.502971788789268 ], [ -0.323134603437477, 5.502931340318044 ] ] ] } },
{ "type": "Feature", "properties": { "seed_idx": 94, "delta_h": -15.690861521388888 }, "geometry": { "type": "Polygon", "coordinates": [ [ [ -0.32180366147246, 5.501410992937342 ], [ -0.321763184786373, 5.510447523507221 ], [ -0.330781483763277, 5.510488047814887 ], [ -0.330821824549427, 5.501451450395342 ], [ -0.32180366147246, 5.501410992937342 ] ] ] } },
{ "type": "Feature", "properties": { "seed_idx": 95, "delta_h": -15.690861521388888 }, "geometry": { "type": "Polygon", "coordinates": [ [ [ -0.324485571041042, 5.501686041983347 ], [ -0.324445132826424, 5.510722592377713 ], [ -0.33346345578672, 5.510763078079267 ], [ -0.333503758093318, 5.501726460902068 ], [ -0.324485571041042, 5.501686041983347 ] ] ] } },
{ "type": "Feature", "properties": { "seed_idx": 96, "delta_h": -15.690861521388888 }, "geometry": { "type": "Polygon", "coordinates": [ [ [ -0.327336903054757, 5.502444745927831 ], [ -0.327296502304763, 5.511481317236286 ], [ -0.336314857776672, 5.511521765299132 ], [ -0.336355122598369, 5.502485127278852 ], [ -0.327336903054757, 5.502444745927831 ] ] ] } },
{ "type": "Feature", "properties": { "seed_idx": 97, "delta_h": -15.690861521388888 }, "geometry": { "type": "Polygon", "coordinates": [ [ [ -0.328563246408476, 5.502310426109374 ], [ -0.328522865174039, 5.511347006545129 ], [ -0.337541227672653, 5.511387435048151 ], [ -0.337581472981616, 5.502350787931158 ], [ -0.328563246408476, 5.502310426109374 ] ] ] } },
{ "type": "Feature", "properties": { "seed_idx": 98, "delta_h": -15.690861521388888 }, "geometry": { "type": "Polygon", "coordinates": [ [ [ -0.328490386739592, 5.502250726025058 ], [ -0.328450004845071, 5.511287305939108 ], [ -0.337468365905229, 5.511327735109338 ], [ -0.337508611875804, 5.502291088512239 ], [ -0.328490386739592, 5.502250726025058 ] ] ] } },
{ "type": "Feature", "properties": { "seed_idx": 99, "delta_h": -15.690861521388888 }, "geometry": { "type": "Polygon", "coordinates": [ [ [ -0.329511031226077, 5.500461619383583 ], [ -0.329470677943511, 5.50949820739775 ], [ -0.338489019547567, 5.509538608030441 ], [ -0.338529236950573, 5.500501953358854 ], [ -0.329511031226077, 5.500461619383583 ] ] ] } },
{ "type": "Feature", "properties": { "seed_idx": 100, "delta_h": -15.690861521388888 }, "geometry": { "type": "Polygon", "coordinates": [ [ [ -0.330958341193182, 5.500387071747345 ], [ -0.330918010314618, 5.509423670498855 ], [ -0.339936361469651, 5.509464048669659 ], [ -0.339976556469882, 5.500427383296818 ], [ -0.330958341193182, 5.500387071747345 ] ] ] } },
{ "type": "Feature", "properties": { "seed_idx": 101, "delta_h": -15.690861521388888 }, "geometry": { "type": "Polygon", "coordinates": [ [ [ -0.331771268385044, 5.50025799552306 ], [ -0.331730950732751, 5.509294600329332 ], [ -0.340749305934672, 5.509334965247128 ], [ -0.340789487711508, 5.500298293839806 ], [ -0.331771268385044, 5.50025799552306 ] ] ] } },
{ "type": "Feature", "properties": { "seed_idx": 102, "delta_h": -15.690861521388888 }, "geometry": { "type": "Polygon", "coordinates": [ [ [ -0.331511012804312, 5.50046162711195 ], [ -0.331470689721575, 5.509498229930984 ], [ -0.340489046076002, 5.509538600277032 ], [ -0.340529233278294, 5.500501930850437 ], [ -0.331511012804312, 5.50046162711195 ] ] ] } },
{ "type": "Feature", "properties": { "seed_idx": 103, "delta_h": -15.690861521388888 }, "geometry": { "type": "Polygon", "coordinates": [ [ [ -0.331826304020376, 5.500178793361314 ], [ -0.331785987782723, 5.509215398598716 ], [ -0.340804342195867, 5.50925576210473 ], [ -0.340844522560023, 5.500219090267659 ], [ -0.331826304020376, 5.500178793361314 ] ] ] } },
{ "type": "Feature", "properties": { "seed_idx": 104, "delta_h": -15.690861521388888 }, "geometry": { "type": "Polygon", "coordinates": [ [ [ -0.332017588996427, 5.499940114097378 ], [ -0.33197727740571, 5.508976720822112 ], [ -0.340995629629358, 5.509017079688697 ], [ -0.341035805352477, 5.499980406369085 ], [ -0.332017588996427, 5.499940114097378 ] ] ] } },
{ "type": "Feature", "properties": { "seed_idx": 105, "delta_h": -15.690861521388888 }, "geometry": { "type": "Polygon", "coordinates": [ [ [ -0.334484857332727, 5.500190891422956 ], [ -0.334444581148398, 5.509227516317169 ], [ -0.343462955331894, 5.50926783965364 ], [ -0.343503095641248, 5.500231148226034 ], [ -0.334484857332727, 5.500190891422956 ] ] ] } },
{ "type": "Feature", "properties": { "seed_idx": 106, "delta_h": -15.690861521388888 }, "geometry": { "type": "Polygon", "coordinates": [ [ [ -0.33465680434476, 5.500197663152256 ], [ -0.334616530706878, 5.509234289315328 ], [ -0.343634906258713, 5.509274610097439 ], [ -0.343675044021374, 5.500237917405262 ], [ -0.33465680434476, 5.500197663152256 ] ] ] } },
{ "type": "Feature", "properties": { "seed_idx": 107, "delta_h": -15.690861521388888 }, "geometry": { "type": "Polygon", "coordinates": [ [ [ -0.335464520195011, 5.500576774334613 ], [ -0.335424255963357, 5.509613406352104 ], [ -0.344442643179809, 5.509653717667831 ], [ -0.344482771526385, 5.500617019141336 ], [ -0.335464520195011, 5.500576774334613 ] ] ] } },
{ "type": "Feature", "properties": { "seed_idx": 108, "delta_h": -15.690861521388888 }, "geometry": { "type": "Polygon", "coordinates": [ [ [ -0.335510974820709, 5.500761619792176 ], [ -0.335470709930322, 5.509798252097069 ], [ -0.344489100276714, 5.509838564057278 ], [ -0.34452922927737, 5.500801865244518 ], [ -0.335510974820709, 5.500761619792176 ] ] ] } },
{ "type": "Feature", "properties": { "seed_idx": 109, "delta_h": -15.690861521388888 }, "geometry": { "type": "Polygon", "coordinates": [ [ [ -0.335504551120577, 5.500730935403521 ], [ -0.335464286358983, 5.50976756767022 ], [ -0.344482676195279, 5.509807879503946 ], [ -0.344522805067913, 5.500771180729223 ], [ -0.335504551120577, 5.500730935403521 ] ] ] } },
{ "type": "Feature", "properties": { "seed_idx": 110, "delta_h": -15.690861521388888 }, "geometry": { "type": "Polygon", "coordinates": [ [ [ -0.335628389391958, 5.500193542285593 ], [ -0.335588130454759, 5.509230175629603 ], [ -0.344606513097627, 5.509270481669124 ], [ -0.34464663615928, 5.500233781820231 ], [ -0.335628389391958, 5.500193542285593 ] ] ] } },
{ "type": "Feature", "properties": { "seed_idx": 111, "delta_h": -15.690861521388888 }, "geometry": { "type": "Polygon", "coordinates": [ [ [ -0.335576305298099, 5.499975628265005 ], [ -0.335536047177979, 5.509012261290017 ], [ -0.344554426151073, 5.509052566529141 ], [ -0.344594548401131, 5.500015866997969 ], [ -0.335576305298099, 5.499975628265005 ] ] ] } },
{ "type": "Feature", "properties": { "seed_idx": 112, "delta_h": -15.690861521388888 }, "geometry": { "type": "Polygon", "coordinates": [ [ [ -0.336077467802918, 5.497949508522697 ], [ -0.336037232156067, 5.506986145862056 ], [ -0.345055584268213, 5.507026428740107 ], [ -0.345095684095558, 5.497989724907289 ], [ -0.336077467802918, 5.497949508522697 ] ] ] } },
{ "type": "Feature", "properties": { "seed_idx": 113, "delta_h": -15.690861521388888 }, "geometry": { "type": "Polygon", "coordinates": [ [ [ -0.337950919199618, 5.49753874583838 ], [ -0.337910714849071, 5.506575397136234 ], [ -0.346929074552457, 5.506615648663685 ], [ -0.346969143092966, 5.497578930919123 ], [ -0.337950919199618, 5.49753874583838 ] ] ] } },
{ "type": "Feature", "properties": { "seed_idx": 114, "delta_h": -15.690861521388888 }, "geometry": { "type": "Polygon", "coordinates": [ [ [ -0.338314549725566, 5.497517933376709 ], [ -0.338274351015959, 5.506554587364943 ], [ -0.347292713079786, 5.506594833237022 ], [ -0.347332775979716, 5.497558112811149 ], [ -0.338314549725566, 5.497517933376709 ] ] ] } },
{ "type": "Feature", "properties": { "seed_idx": 115, "delta_h": -15.690861521388888 }, "geometry": { "type": "Polygon", "coordinates": [ [ [ -0.341504426928389, 5.496601467912632 ], [ -0.341464283089372, 5.505638145707544 ], [ -0.350482654782503, 5.505678336630805 ], [ -0.350522662833405, 5.496641592477873 ], [ -0.341504426928389, 5.496601467912632 ] ] ] } },
{ "type": "Feature", "properties": { "seed_idx": 116, "delta_h": -15.690861521388888 }, "geometry": { "type": "Polygon", "coordinates": [ [ [ -0.343320047217469, 5.49474200725242 ], [ -0.343279944418261, 5.503778698988812 ], [ -0.352298301422084, 5.503818848915748 ], [ -0.352338268478979, 5.494782090866792 ], [ -0.343320047217469, 5.49474200725242 ] ] ] } }
]
}
