{
"type": "FeatureCollection",
"name": "drift_vectors",
"crs": { "type": "name", "properties": { "name": "urn:ogc:def:crs:OGC:1.3:CRS84" } },
"features": [
{ "type": "Feature", "properties": { "seed_idx": 0, "delta_h": -15.690861521388888, "dx_m": -7472.296740444096, "dy_m": -852.41704580531245, "uo_ms": 0.039674062281847, "vo_ms": -0.035401470959186554, "vsdx_ms": 0.01, "vsdy_ms": 0.01, "u10_ms": 2.7536392211914062, "v10_ms": 1.3497314453125, "u_total_ms": 0.1322832389175892, "v_total_ms": 0.015090472400188445, "speed_ms": 0.13314119443578998, "wind_source": "era5" }, "geometry": { "type": "LineString", "coordinates": [ [ -0.331624120690846, 5.489725970877636 ], [ -0.399044736710551, 5.482319870371611 ] ] } },
{ "type": "Feature", "properties": { "seed_idx": 1, "delta_h": -15.690861521388888, "dx_m": -7472.296740444096, "dy_m": -852.41704580531245, "uo_ms": 0.039674062281847, "vo_ms": -0.035401470959186554, "vsdx_ms": 0.01, "vsdy_ms": 0.01, "u10_ms": 2.7536392211914062, "v10_ms": 1.3497314453125, "u_total_ms": 0.1322832389175892, "v_total_ms": 0.015090472400188445, "speed_ms": 0.13314119443578998, "wind_source": "era5" }, "geometry": { "type": "LineString", "coordinates": [ [ -0.330359793236617, 5.492070244699019 ], [ -0.39778063425762, 5.484664421716098 ] ] } },
{ "type": "Feature", "properties": { "seed_idx": 2, "delta_h": -15.690861521388888, "dx_m": -7472.296740444096, "dy_m": -852.41704580531245, "uo_ms": 0.039674062281847, "vo_ms": -0.035401470959186554, "vsdx_ms": 0.01, "vsdy_ms": 0.01, "u10_ms": 2.7536392211914062, "v10_ms": 1.3497314453125, "u_total_ms": 0.1322832389175892, "v_total_ms": 0.015090472400188445, "speed_ms": 0.13314119443578998, "wind_source": "era5" }, "geometry": { "type": "LineString", "coordinates": [ [ -0.329023030355323, 5.494058926423903 ], [ -0.396444051308046, 5.486653370408334 ] ] } },
{ "type": "Feature", "properties": { "seed_idx": 3, "delta_h": -15.690861521388888, "dx_m": -7472.296740444096, "dy_m": -852.41704580531245, "uo_ms": 0.039674062281847, "vo_ms": -0.035401470959186554, "vsdx_ms": 0.01, "vsdy_ms": 0.01, "u10_ms": 2.7536392211914062, "v10_ms": 1.3497314453125, "u_total_ms": 0.1322832389175892, "v_total_ms": 0.015090472400188445, "speed_ms": 0.13314119443578998, "wind_source": "era5" }, "geometry": { "type": "LineString", "coordinates": [ [ -0.328792553996479, 5.49419721223921 ], [ -0.396213581729432, 5.486791691158007 ] ] } },
{ "type": "Feature", "properties": { "seed_idx": 4, "delta_h": -15.690861521388888, "dx_m": -7472.296740444096, "dy_m": -852.41704580531245, "uo_ms": 0.039674062281847, "vo_ms": -0.035401470959186554, "vsdx_ms": 0.01, "vsdy_ms": 0.01, "u10_ms": 2.7536392211914062, "v10_ms": 1.3497314453125, "u_total_ms": 0.1322832389175892, "v_total_ms": 0.015090472400188445, "speed_ms": 0.13314119443578998, "wind_source": "era5" }, "geometry": { "type": "LineString", "coordinates": [ [ -0.327403110804591, 5.4948227909275 ], [ -0.394824154734755, 5.487417469179202 ] ] } },
{ "type": "Feature", "properties": { "seed_idx": 5, "delta_h": -15.690861521388888, "dx_m": -7472.296740444096, "dy_m": -852.41704580531245, "uo_ms": 0.039674062281847, "vo_ms": -0.035401470959186554, "vsdx_ms": 0.01, "vsdy_ms": 0.01, "u10_ms": 2.7536392211914062, "v10_ms": 1.3497314453125, "u_total_ms": 0.1322832389175892, "v_total_ms": 0.015090472400188445, "speed_ms": 0.13314119443578998, "wind_source": "era5" }, "geometry": { "type": "LineString", "coordinates": [ [ -0.326099273117418, 5.495626165664041 ], [ -0.393520357869066, 5.488221042759361 ] ] } },
{ "type": "Feature", "properties": { "seed_idx": 6, "delta_h": -15.690861521388888, "dx_m": -7472.296740444096, "dy_m": -852.41704580531245, "uo_ms": 0.039674062281847, "vo_ms": -0.035401470959186554, "vsdx_ms": 0.01, "vsdy_ms": 0.01, "u10_ms": 2.7536392211914062, "v10_ms": 1.3497314453125, "u_total_ms": 0.1322832389175892, "v_total_ms": 0.015090472400188445, "speed_ms": 0.13314119443578998, "wind_source": "era5" }, "geometry": { "type": "LineString", "coordinates": [ [ -0.32575026605974, 5.4957512814017 ], [ -0.393171351073563, 5.488346206843509 ] ] } },
{ "type": "Feature", "properties": { "seed_idx": 7, "delta_h": -15.690861521388888, "dx_m": -7472.296740444096, "dy_m": -852.41704580531245, "uo_ms": 0.039674062281847, "vo_ms": -0.035401470959186554, "vsdx_ms": 0.01, "vsdy_ms": 0.01, "u10_ms": 2.7536392211914062, "v10_ms": 1.3497314453125, "u_total_ms": 0.1322832389175892, "v_total_ms": 0.015090472400188445, "speed_ms": 0.13314119443578998, "wind_source": "era5" }, "geometry": { "type": "LineString", "coordinates": [ [ -0.324446428372566, 5.495619580625218 ], [ -0.391867443314414, 5.488214654125207 ] ] } },
{ "type": "Feature", "properties": { "seed_idx": 8, "delta_h": -15.690861521388888, "dx_m": -7472.296740444096, "dy_m": -852.41704580531245, "uo_ms": 0.039674062281847, "vo_ms": -0.035401470959186554, "vsdx_ms": 0.01, "vsdy_ms": 0.01, "u10_ms": 2.7536392211914062, "v10_ms": 1.3497314453125, "u_total_ms": 0.1322832389175892, "v_total_ms": 0.015090472400188445, "speed_ms": 0.13314119443578998, "wind_source": "era5" }, "geometry": { "type": "LineString", "coordinates": [ [ -0.324439843333742, 5.495316668839308 ], [ -0.391860822088667, 5.487911726653143 ] ] } },
{ "type": "Feature", "properties": { "seed_idx": 9, "delta_h": -15.690861521388888, "dx_m": -7472.296740444096, "dy_m": -852.41704580531245, "uo_ms": 0.039674062281847, "vo_ms": -0.035401470959186554, "vsdx_ms": 0.01, "vsdy_ms": 0.01, "u10_ms": 2.7536392211914062, "v10_ms": 1.3497314453125, "u_total_ms": 0.1322832389175892, "v_total_ms": 0.015090472400188445, "speed_ms": 0.13314119443578998, "wind_source": "era5" }, "geometry": { "type": "LineString", "coordinates": [ [ -0.323056985180678, 5.494671335034545 ], [ -0.390477829634232, 5.487266522359886 ] ] } },
{ "type": "Feature", "properties": { "seed_idx": 10, "delta_h": -15.690861521388888, "dx_m": -7472.296740444096, "dy_m": -852.41704580531245, "uo_ms": 0.039674062281847, "vo_ms": -0.035401470959186554, "vsdx_ms": 0.01, "vsdy_ms": 0.01, "u10_ms": 2.7536392211914062, "v10_ms": 1.3497314453125, "u_total_ms": 0.1322832389175892, "v_total_ms": 0.015090472400188445, "speed_ms": 0.13314119443578998, "wind_source": "era5" }, "geometry": { "type": "LineString", "coordinates": [ [ -0.322372141142971, 5.494763525578083 ], [ -0.389792967885795, 5.487358799437745 ] ] } },
{ "type": "Feature", "properties": { "seed_idx": 11, "delta_h": -15.690861521388888, "dx_m": -7472.296740444096, "dy_m": -852.41704580531245, "uo_ms": 0.039674062281847, "vo_ms": -0.035401470959186554, "vsdx_ms": 0.01, "vsdy_ms": 0.01, "u10_ms": 2.7536392211914062, "v10_ms": 1.3497314453125, "u_total_ms": 0.1322832389175892, "v_total_ms": 0.015090472400188445, "speed_ms": 0.13314119443578998, "wind_source": "era5" }, "geometry": { "type": "LineString", "coordinates": [ [ -0.321160493999335, 5.49434208309334 ], [ -0.388581220089603, 5.486937478238461 ] ] } },
{ "type": "Feature", "properties": { "seed_idx": 12, "delta_h": -15.690861521388888, "dx_m": -7472.296740444096, "dy_m": -852.41704580531245, "uo_ms": 0.039674062281847, "vo_ms": -0.035401470959186554, "vsdx_ms": 0.01, "vsdy_ms": 0.01, "u10_ms": 2.7536392211914062, "v10_ms": 1.3497314453125, "u_total_ms": 0.1322832389175892, "v_total_ms": 0.015090472400188445, "speed_ms": 0.13314119443578998, "wind_source": "era5" }, "geometry": { "type": "LineString", "coordinates": [ [ -0.319296928012111, 5.494684505112193 ], [ -0.38671761666614, 5.487280140732153 ] ] } },
{ "type": "Feature", "properties": { "seed_idx": 13, "delta_h": -15.690861521388888, "dx_m": -7472.296740444096, "dy_m": -852.41704580531245, "uo_ms": 0.039674062281847, "vo_ms": -0.035401470959186554, "vsdx_ms": 0.01, "vsdy_ms": 0.01, "u10_ms": 2.7536392211914062, "v10_ms": 1.3497314453125, "u_total_ms": 0.1322832389175892, "v_total_ms": 0.015090472400188445, "speed_ms": 0.13314119443578998, "wind_source": "era5" }, "geometry": { "type": "LineString", "coordinates": [ [ -0.319105961886212, 5.494730600383962 ], [ -0.386526648005058, 5.487326261247773 ] ] } },
{ "type": "Feature", "properties": { "seed_idx": 14, "delta_h": -15.690861521388888, "dx_m": -7472.296740444096, "dy_m": -852.41704580531245, "uo_ms": 0.039674062281847, "vo_ms": -0.035401470959186554, "vsdx_ms": 0.01, "vsdy_ms": 0.01, "u10_ms": 2.7536392211914062, "v10_ms": 1.3497314453125, "u_total_ms": 0.1322832389175892, "v_total_ms": 0.015090472400188445, "speed_ms": 0.13314119443578998, "wind_source": "era5" }, "geometry": { "type": "LineString", "coordinates": [ [ -0.318868900488544, 5.494763525578083 ], [ -0.386289580578893, 5.487359216455872 ] ] } },
{ "type": "Feature", "properties": { "seed_idx": 15, "delta_h": -15.690861521388888, "dx_m": -7472.296740444096, "dy_m": -852.41704580531245, "uo_ms": 0.039674062281847, "vo_ms": -0.035401470959186554, "vsdx_ms": 0.01, "vsdy_ms": 0.01, "u10_ms": 2.7536392211914062, "v10_ms": 1.3497314453125, "u_total_ms": 0.1322832389175892, "v_total_ms": 0.015090472400188445, "speed_ms": 0.13314119443578998, "wind_source": "era5" }, "geometry": { "type": "LineString", "coordinates": [ [ -0.318598913896756, 5.494803035811027 ], [ -0.386019587358519, 5.487398760981588 ] ] } },
{ "type": "Feature", "properties": { "seed_idx": 16, "delta_h": -15.690861521388888, "dx_m": -7472.296740444096, "dy_m": -852.41704580531245, "uo_ms": 0.039674062281847, "vo_ms": -0.035401470959186554, "vsdx_ms": 0.01, "vsdy_ms": 0.01, "u10_ms": 2.7536392211914062, "v10_ms": 1.3497314453125, "u_total_ms": 0.1322832389175892, "v_total_ms": 0.015090472400188445, "speed_ms": 0.13314119443578998, "wind_source": "era5" }, "geometry": { "type": "LineString", "coordinates": [ [ -0.318058940713179, 5.494974246820454 ], [ -0.385479611843463, 5.487570045603048 ] ] } },
{ "type": "Feature", "properties": { "seed_idx": 17, "delta_h": -15.690861521388888, "dx_m": -7472.296740444096, "dy_m": -852.41704580531245, "uo_ms": 0.039674062281847, "vo_ms": -0.035401470959186554, "vsdx_ms": 0.01, "vsdy_ms": 0.01, "u10_ms": 2.7536392211914062, "v10_ms": 1.3497314453125, "u_total_ms": 0.1322832389175892, "v_total_ms": 0.015090472400188445, "speed_ms": 0.13314119443578998, "wind_source": "era5" }, "geometry": { "type": "LineString", "coordinates": [ [ -0.319994942127467, 5.497601677311276 ], [ -0.387416005932455, 5.490197388720151 ] ] } },
{ "type": "Feature", "properties": { "seed_idx": 18, "delta_h": -15.690861521388888, "dx_m": -7472.296740444096, "dy_m": -852.41704580531245, "uo_ms": 0.039674062281847, "vo_ms": -0.035401470959186554, "vsdx_ms": 0.01, "vsdy_ms": 0.01, "u10_ms": 2.7536392211914062, "v10_ms": 1.3497314453125, "u_total_ms": 0.1322832389175892, "v_total_ms": 0.015090472400188445, "speed_ms": 0.13314119443578998, "wind_source": "era5" }, "geometry": { "type": "LineString", "coordinates": [ [ -0.31811655980289, 5.498105432781318 ], [ -0.385537604681542, 5.490701395360174 ] ] } },
{ "type": "Feature", "properties": { "seed_idx": 19, "delta_h": -15.690861521388888, "dx_m": -7472.296740444096, "dy_m": -852.41704580531245, "uo_ms": 0.039674062281847, "vo_ms": -0.035401470959186554, "vsdx_ms": 0.01, "vsdy_ms": 0.01, "u10_ms": 2.7536392211914062, "v10_ms": 1.3497314453125, "u_total_ms": 0.1322832389175892, "v_total_ms": 0.015090472400188445, "speed_ms": 0.13314119443578998, "wind_source": "era5" }, "geometry": { "type": "LineString", "coordinates": [ [ -0.317273674833403, 5.498039582393077 ], [ -0.384694676571109, 5.4906356417803 ] ] } },
{ "type": "Feature", "properties": { "seed_idx": 20, "delta_h": -15.690861521388888, "dx_m": -7472.296740444096, "dy_m": -852.41704580531245, "uo_ms": 0.039674062281847, "vo_ms": -0.035401470959186554, "vsdx_ms": 0.01, "vsdy_ms": 0.01, "u10_ms": 2.7536392211914062, "v10_ms": 1.3497314453125, "u_total_ms": 0.1322832389175892, "v_total_ms": 0.015090472400188445, "speed_ms": 0.13314119443578998, "wind_source": "era5" }, "geometry": { "type": "LineString", "coordinates": [ [ -0.317039905955147, 5.498744181547258 ], [ -0.384460981480441, 5.491340307196816 ] ] } },
{ "type": "Feature", "properties": { "seed_idx": 21, "delta_h": -15.690861521388888, "dx_m": -7472.296740444096, "dy_m": -852.41704580531245, "uo_ms": 0.039674062281847, "vo_ms": -0.035401470959186554, "vsdx_ms": 0.01, "vsdy_ms": 0.01, "u10_ms": 2.7536392211914062, "v10_ms": 1.3497314453125, "u_total_ms": 0.1322832389175892, "v_total_ms": 0.015090472400188445, "speed_ms": 0.13314119443578998, "wind_source": "era5" }, "geometry": { "type": "LineString", "coordinates": [ [ -0.315719605670913, 5.498866004765507 ], [ -0.383140640275672, 5.491462294346639 ] ] } },
{ "type": "Feature", "properties": { "seed_idx": 22, "delta_h": -15.690861521388888, "dx_m": -7472.296740444096, "dy_m": -852.41704580531245, "uo_ms": 0.039674062281847, "vo_ms": -0.035401470959186554, "vsdx_ms": 0.01, "vsdy_ms": 0.01, "u10_ms": 2.7536392211914062, "v10_ms": 1.3497314453125, "u_total_ms": 0.1322832389175892, "v_total_ms": 0.015090472400188445, "speed_ms": 0.13314119443578998, "wind_source": "era5" }, "geometry": { "type": "LineString", "coordinates": [ [ -0.31494586360908, 5.49970559721558 ], [ -0.382366965368945, 5.492302024789367 ] ] } },
{ "type": "Feature", "properties": { "seed_idx": 23, "delta_h": -15.690861521388888, "dx_m": -7472.296740444096, "dy_m": -852.41704580531245, "uo_ms": 0.039674062281847, "vo_ms": -0.035401470959186554, "vsdx_ms": 0.01, "vsdy_ms": 0.01, "u10_ms": 2.7536392211914062, "v10_ms": 1.3497314453125, "u_total_ms": 0.1322832389175892, "v_total_ms": 0.015090472400188445, "speed_ms": 0.13314119443578998, "wind_source": "era5" }, "geometry": { "type": "LineString", "coordinates": [ [ -0.313809944411921, 5.499791202720293 ], [ -0.381231008644786, 5.492387770315696 ] ] } },
{ "type": "Feature", "properties": { "seed_idx": 24, "delta_h": -15.690861521388888, "dx_m": -7472.296740444096, "dy_m": -852.41704580531245, "uo_ms": 0.039674062281847, "vo_ms": -0.035401470959186554, "vsdx_ms": 0.01, "vsdy_ms": 0.01, "u10_ms": 2.7536392211914062, "v10_ms": 1.3497314453125, "u_total_ms": 0.1322832389175892, "v_total_ms": 0.015090472400188445, "speed_ms": 0.13314119443578998, "wind_source": "era5" }, "geometry": { "type": "LineString", "coordinates": [ [ -0.313711168829559, 5.49968913461852 ], [ -0.38113221680234, 5.492285708411565 ] ] } },
{ "type": "Feature", "properties": { "seed_idx": 25, "delta_h": -15.690861521388888, "dx_m": -6907.4257256740957, "dy_m": -287.54603103531235, "uo_ms": 0.039674062281847, "vo_ms": -0.035401470959186554, "vsdx_ms": 0.0, "vsdy_ms": 0.0, "u10_ms": 2.7536392211914062, "v10_ms": 1.3497314453125, "u_total_ms": 0.12228323891758919, "v_total_ms": 0.0050904724001884435, "speed_ms": 0.1223891475149381, "wind_source": "era5" }, "geometry": { "type": "LineString", "coordinates": [ [ -0.312901209054194, 5.500001923962665 ], [ -0.375205659318537, 5.497680931541493 ] ] } },
{ "type": "Feature", "properties": { "seed_idx": 26, "delta_h": -15.690861521388888, "dx_m": -7472.296740444096, "dy_m": -852.41704580531245, "uo_ms": 0.039674062281847, "vo_ms": -0.035401470959186554, "vsdx_ms": 0.01, "vsdy_ms": 0.01, "u10_ms": 2.7536392211914062, "v10_ms": 1.3497314453125, "u_total_ms": 0.1322832389175892, "v_total_ms": 0.015090472400188445, "speed_ms": 0.13314119443578998, "wind_source": "era5" }, "geometry": { "type": "LineString", "coordinates": [ [ -0.312779385835948, 5.499952536171484 ], [ -0.380200425929255, 5.492549235376178 ] ] } },
{ "type": "Feature", "properties": { "seed_idx": 27, "delta_h": -15.690861521388888, "dx_m": -7472.296740444096, "dy_m": -852.41704580531245, "uo_ms": 0.039674062281847, "vo_ms": -0.035401470959186554, "vsdx_ms": 0.01, "vsdy_ms": 0.01, "u10_ms": 2.7536392211914062, "v10_ms": 1.3497314453125, "u_total_ms": 0.1322832389175892, "v_total_ms": 0.015090472400188445, "speed_ms": 0.13314119443578998, "wind_source": "era5" }, "geometry": { "type": "LineString", "coordinates": [ [ -0.312657562617702, 5.499880100744419 ], [ -0.380078588996545, 5.492476810509864 ] ] } },
{ "type": "Feature", "properties": { "seed_idx": 28, "delta_h": -15.690861521388888, "dx_m": -6907.4257256740957, "dy_m": -287.54603103531235, "uo_ms": 0.039674062281847, "vo_ms": -0.035401470959186554, "vsdx_ms": 0.0, "vsdy_ms": 0.0, "u10_ms": 2.7536392211914062, "v10_ms": 1.3497314453125, "u_total_ms": 0.12228323891758919, "v_total_ms": 0.0050904724001884435, "speed_ms": 0.1223891475149381, "wind_source": "era5" }, "geometry": { "type": "LineString", "coordinates": [ [ -0.309529669176249, 5.501832564755771 ], [ -0.371834157047548, 5.499512023823939 ] ] } },
{ "type": "Feature", "properties": { "seed_idx": 29, "delta_h": -15.690861521388888, "dx_m": -6907.4257256740957, "dy_m": -287.54603103531235, "uo_ms": 0.039674062281847, "vo_ms": -0.035401470959186554, "vsdx_ms": 0.0, "vsdy_ms": 0.0, "u10_ms": 2.7536392211914062, "v10_ms": 1.3497314453125, "u_total_ms": 0.12228323891758919, "v_total_ms": 0.0050904724001884435, "speed_ms": 0.1223891475149381, "wind_source": "era5" }, "geometry": { "type": "LineString", "coordinates": [ [ -0.308686784206763, 5.50221449700757 ], [ -0.370991273419988, 5.499894065164724 ] ] } },
{ "type": "Feature", "properties": { "seed_idx": 30, "delta_h": -15.690861521388888, "dx_m": -6907.4257256740957, "dy_m": -287.54603103531235, "uo_ms": 0.039674062281847, "vo_ms": -0.035401470959186554, "vsdx_ms": 0.0, "vsdy_ms": 0.0, "u10_ms": 2.7536392211914062, "v10_ms": 1.3497314453125, "u_total_ms": 0.12228323891758919, "v_total_ms": 0.0050904724001884435, "speed_ms": 0.1223891475149381, "wind_source": "era5" }, "geometry": { "type": "LineString", "coordinates": [ [ -0.306750782792475, 5.501951095454605 ], [ -0.369055153979363, 5.499630856626708 ] ] } },
{ "type": "Feature", "properties": { "seed_idx": 31, "delta_h": -15.690861521388888, "dx_m": -6907.4257256740957, "dy_m": -287.54603103531235, "uo_ms": 0.039674062281847, "vo_ms": -0.035401470959186554, "vsdx_ms": 0.0, "vsdy_ms": 0.0, "u10_ms": 2.7536392211914062, "v10_ms": 1.3497314453125, "u_total_ms": 0.12228323891758919, "v_total_ms": 0.0050904724001884435, "speed_ms": 0.1223891475149381, "wind_source": "era5" }, "geometry": { "type": "LineString", "coordinates": [ [ -0.305578645881783, 5.502398878094644 ], [ -0.367883010026215, 5.500078786794784 ] ] } },
{ "type": "Feature", "properties": { "seed_idx": 32, "delta_h": -15.690861521388888, "dx_m": -6907.4257256740957, "dy_m": -287.54603103531235, "uo_ms": 0.039674062281847, "vo_ms": -0.035401470959186554, "vsdx_ms": 0.0, "vsdy_ms": 0.0, "u10_ms": 2.7536392211914062, "v10_ms": 1.3497314453125, "u_total_ms": 0.12228323891758919, "v_total_ms": 0.0050904724001884435, "speed_ms": 0.1223891475149381, "wind_source": "era5" }, "geometry": { "type": "LineString", "coordinates": [ [ -0.305407434872356, 5.502135476541681 ], [ -0.367711763087503, 5.499815390181194 ] ] } },
{ "type": "Feature", "properties": { "seed_idx": 33, "delta_h": -15.690861521388888, "dx_m": -6907.4257256740957, "dy_m": -287.54603103531235, "uo_ms": 0.039674062281847, "vo_ms": -0.035401470959186554, "vsdx_ms": 0.0, "vsdy_ms": 0.0, "u10_ms": 2.7536392211914062, "v10_ms": 1.3497314453125, "u_total_ms": 0.12228323891758919, "v_total_ms": 0.0050904724001884435, "speed_ms": 0.1223891475149381, "wind_source": "era5" }, "geometry": { "type": "LineString", "coordinates": [ [ -0.305223053785281, 5.501937925376957 ], [ -0.367527352447188, 5.499617848684594 ] ] } },
{ "type": "Feature", "properties": { "seed_idx": 34, "delta_h": -15.690861521388888, "dx_m": -6907.4257256740957, "dy_m": -287.54603103531235, "uo_ms": 0.039674062281847, "vo_ms": -0.035401470959186554, "vsdx_ms": 0.0, "vsdy_ms": 0.0, "u10_ms": 2.7536392211914062, "v10_ms": 1.3497314453125, "u_total_ms": 0.12228323891758919, "v_total_ms": 0.0050904724001884435, "speed_ms": 0.1223891475149381, "wind_source": "era5" }, "geometry": { "type": "LineString", "coordinates": [ [ -0.304985992387613, 5.501845734833419 ], [ -0.367290270224373, 5.49952567874515 ] ] } },
{ "type": "Feature", "properties": { "seed_idx": 35, "delta_h": -15.690861521388888, "dx_m": -6907.4257256740957, "dy_m": -287.54603103531235, "uo_ms": 0.039674062281847, "vo_ms": -0.035401470959186554, "vsdx_ms": 0.0, "vsdy_ms": 0.0, "u10_ms": 2.7536392211914062, "v10_ms": 1.3497314453125, "u_total_ms": 0.12228323891758919, "v_total_ms": 0.0050904724001884435, "speed_ms": 0.1223891475149381, "wind_source": "era5" }, "geometry": { "type": "LineString", "coordinates": [ [ -0.305005747504085, 5.502249068461395 ], [ -0.367310069067878, 5.499929030647492 ] ] } },
{ "type": "Feature", "properties": { "seed_idx": 36, "delta_h": -15.690861521388888, "dx_m": -6907.4257256740957, "dy_m": -287.54603103531235, "uo_ms": 0.039674062281847, "vo_ms": -0.035401470959186554, "vsdx_ms": 0.0, "vsdy_ms": 0.0, "u10_ms": 2.7536392211914062, "v10_ms": 1.3497314453125, "u_total_ms": 0.12228323891758919, "v_total_ms": 0.0050904724001884435, "speed_ms": 0.1223891475149381, "wind_source": "era5" }, "geometry": { "type": "LineString", "coordinates": [ [ -0.304867461688779, 5.50242192573053 ], [ -0.367171795158375, 5.500101911388333 ] ] } },
{ "type": "Feature", "properties": { "seed_idx": 37, "delta_h": -15.690861521388888, "dx_m": -6907.4257256740957, "dy_m": -287.54603103531235, "uo_ms": 0.039674062281847, "vo_ms": -0.035401470959186554, "vsdx_ms": 0.0, "vsdy_ms": 0.0, "u10_ms": 2.7536392211914062, "v10_ms": 1.3497314453125, "u_total_ms": 0.12228323891758919, "v_total_ms": 0.0050904724001884435, "speed_ms": 0.1223891475149381, "wind_source": "era5" }, "geometry": { "type": "LineString", "coordinates": [ [ -0.304985992387613, 5.5026326469729 ], [ -0.367290353744434, 5.500312630645784 ] ] } },
{ "type": "Feature", "properties": { "seed_idx": 38, "delta_h": -15.690861521388888, "dx_m": -6907.4257256740957, "dy_m": -287.54603103531235, "uo_ms": 0.039674062281847, "vo_ms": -0.035401470959186554, "vsdx_ms": 0.0, "vsdy_ms": 0.0, "u10_ms": 2.7536392211914062, "v10_ms": 1.3497314453125, "u_total_ms": 0.12228323891758919, "v_total_ms": 0.0050904724001884435, "speed_ms": 0.1223891475149381, "wind_source": "era5" }, "geometry": { "type": "LineString", "coordinates": [ [ -0.304959652232317, 5.501401244712792 ], [ -0.367263881670878, 5.499081168971929 ] ] } },
{ "type": "Feature", "properties": { "seed_idx": 39, "delta_h": -15.690861521388888, "dx_m": -6907.4257256740957, "dy_m": -287.54603103531235, "uo_ms": 0.039674062281847, "vo_ms": -0.035401470959186554, "vsdx_ms": 0.0, "vsdy_ms": 0.0, "u10_ms": 2.7536392211914062, "v10_ms": 1.3497314453125, "u_total_ms": 0.12228323891758919, "v_total_ms": 0.0050904724001884435, "speed_ms": 0.1223891475149381, "wind_source": "era5" }, "geometry": { "type": "LineString", "coordinates": [ [ -0.304748930989945, 5.501124673082179 ], [ -0.36705312126402, 5.498804605818703 ] ] } },
{ "type": "Feature", "properties": { "seed_idx": 40, "delta_h": -15.690861521388888, "dx_m": -7472.296740444096, "dy_m": -852.41704580531245, "uo_ms": 0.039674062281847, "vo_ms": -0.035401470959186554, "vsdx_ms": 0.01, "vsdy_ms": 0.01, "u10_ms": 2.7536392211914062, "v10_ms": 1.3497314453125, "u_total_ms": 0.1322832389175892, "v_total_ms": 0.015090472400188445, "speed_ms": 0.13314119443578998, "wind_source": "era5" }, "geometry": { "type": "LineString", "coordinates": [ [ -0.303319977565113, 5.499932781055016 ], [ -0.370740616977127, 5.492530606479958 ] ] } },
{ "type": "Feature", "properties": { "seed_idx": 41, "delta_h": -15.690861521388888, "dx_m": -7472.296740444096, "dy_m": -852.41704580531245, "uo_ms": 0.039674062281847, "vo_ms": -0.035401470959186554, "vsdx_ms": 0.01, "vsdy_ms": 0.01, "u10_ms": 2.7536392211914062, "v10_ms": 1.3497314453125, "u_total_ms": 0.1322832389175892, "v_total_ms": 0.015090472400188445, "speed_ms": 0.13314119443578998, "wind_source": "era5" }, "geometry": { "type": "LineString", "coordinates": [ [ -0.302938045313315, 5.499735229890292 ], [ -0.370358645154959, 5.492333090006971 ] ] } },
{ "type": "Feature", "properties": { "seed_idx": 42, "delta_h": -15.690861521388888, "dx_m": -6907.4257256740957, "dy_m": -287.54603103531235, "uo_ms": 0.039674062281847, "vo_ms": -0.035401470959186554, "vsdx_ms": 0.0, "vsdy_ms": 0.0, "u10_ms": 2.7536392211914062, "v10_ms": 1.3497314453125, "u_total_ms": 0.12228323891758919, "v_total_ms": 0.0050904724001884435, "speed_ms": 0.1223891475149381, "wind_source": "era5" }, "geometry": { "type": "LineString", "coordinates": [ [ -0.298670940155291, 5.504713519241327 ], [ -0.360975227923519, 5.50239428136272 ] ] } },
{ "type": "Feature", "properties": { "seed_idx": 43, "delta_h": -15.690861521388888, "dx_m": -6907.4257256740957, "dy_m": -287.54603103531235, "uo_ms": 0.039674062281847, "vo_ms": -0.035401470959186554, "vsdx_ms": 0.0, "vsdy_ms": 0.0, "u10_ms": 2.7536392211914062, "v10_ms": 1.3497314453125, "u_total_ms": 0.12228323891758919, "v_total_ms": 0.0050904724001884435, "speed_ms": 0.1223891475149381, "wind_source": "era5" }, "geometry": { "type": "LineString", "coordinates": [ [ -0.298987022018849, 5.503271395738847 ], [ -0.361291171429048, 5.500952051127894 ] ] } },
{ "type": "Feature", "properties": { "seed_idx": 44, "delta_h": -15.690861521388888, "dx_m": -6907.4257256740957, "dy_m": -287.54603103531235, "uo_ms": 0.039674062281847, "vo_ms": -0.035401470959186554, "vsdx_ms": 0.0, "vsdy_ms": 0.0, "u10_ms": 2.7536392211914062, "v10_ms": 1.3497314453125, "u_total_ms": 0.12228323891758919, "v_total_ms": 0.0050904724001884435, "speed_ms": 0.1223891475149381, "wind_source": "era5" }, "geometry": { "type": "LineString", "coordinates": [ [ -0.298479974029392, 5.502836783176456 ], [ -0.360784053625861, 5.500517470600257 ] ] } },
{ "type": "Feature", "properties": { "seed_idx": 45, "delta_h": -15.690861521388888, "dx_m": -6907.4257256740957, "dy_m": -287.54603103531235, "uo_ms": 0.039674062281847, "vo_ms": -0.035401470959186554, "vsdx_ms": 0.0, "vsdy_ms": 0.0, "u10_ms": 2.7536392211914062, "v10_ms": 1.3497314453125, "u_total_ms": 0.12228323891758919, "v_total_ms": 0.0050904724001884435, "speed_ms": 0.1223891475149381, "wind_source": "era5" }, "geometry": { "type": "LineString", "coordinates": [ [ -0.29930968892123, 5.501901707663431 ], [ -0.361613708007329, 5.499582259303356 ] ] } },
{ "type": "Feature", "properties": { "seed_idx": 46, "delta_h": -15.690861521388888, "dx_m": -6907.4257256740957, "dy_m": -287.54603103531235, "uo_ms": 0.039674062281847, "vo_ms": -0.035401470959186554, "vsdx_ms": 0.0, "vsdy_ms": 0.0, "u10_ms": 2.7536392211914062, "v10_ms": 1.3497314453125, "u_total_ms": 0.12228323891758919, "v_total_ms": 0.0050904724001884435, "speed_ms": 0.1223891475149381, "wind_source": "era5" }, "geometry": { "type": "LineString", "coordinates": [ [ -0.299467729853009, 5.501414414790447 ], [ -0.361771704601012, 5.499094924915417 ] ] } },
{ "type": "Feature", "properties": { "seed_idx": 47, "delta_h": -15.690861521388888, "dx_m": -6907.4257256740957, "dy_m": -287.54603103531235, "uo_ms": 0.039674062281847, "vo_ms": -0.035401470959186554, "vsdx_ms": 0.0, "vsdy_ms": 0.0, "u10_ms": 2.7536392211914062, "v10_ms": 1.3497314453125, "u_total_ms": 0.12228323891758919, "v_total_ms": 0.0050904724001884435, "speed_ms": 0.1223891475149381, "wind_source": "era5" }, "geometry": { "type": "LineString", "coordinates": [ [ -0.299908927454224, 5.500051311753856 ], [ -0.362212778156129, 5.497731705859427 ] ] } },
{ "type": "Feature", "properties": { "seed_idx": 48, "delta_h": -15.690861521388888, "dx_m": -7754.7322478290962, "dy_m": -852.41704580531245, "uo_ms": 0.039674062281847, "vo_ms": -0.035401470959186554, "vsdx_ms": 0.015, "vsdy_ms": 0.01, "u10_ms": 2.7536392211914062, "v10_ms": 1.3497314453125, "u_total_ms": 0.1372832389175892, "v_total_ms": 0.015090472400188445, "speed_ms": 0.1381101373721883, "wind_source": "era5" }, "geometry": { "type": "LineString", "coordinates": [ [ -0.299428219620064, 5.499570603919695 ], [ -0.369395748436424, 5.492180102515404 ] ] } },
{ "type": "Feature", "properties": { "seed_idx": 49, "delta_h": -15.690861521388888, "dx_m": -7754.7322478290962, "dy_m": -852.41704580531245, "uo_ms": 0.039674062281847, "vo_ms": -0.035401470959186554, "vsdx_ms": 0.015, "vsdy_ms": 0.01, "u10_ms": 2.7536392211914062, "v10_ms": 1.3497314453125, "u_total_ms": 0.1372832389175892, "v_total_ms": 0.015090472400188445, "speed_ms": 0.1381101373721883, "wind_source": "era5" }, "geometry": { "type": "LineString", "coordinates": [ [ -0.298190232321131, 5.498207500883106 ], [ -0.36815753865244, 5.490817074681996 ] ] } },
{ "type": "Feature", "properties": { "seed_idx": 50, "delta_h": -15.690861521388888, "dx_m": -7754.7322478290962, "dy_m": -852.41704580531245, "uo_ms": 0.039674062281847, "vo_ms": -0.035401470959186554, "vsdx_ms": 0.015, "vsdy_ms": 0.01, "u10_ms": 2.7536392211914062, "v10_ms": 1.3497314453125, "u_total_ms": 0.1372832389175892, "v_total_ms": 0.015090472400188445, "speed_ms": 0.1381101373721883, "wind_source": "era5" }, "geometry": { "type": "LineString", "coordinates": [ [ -0.298321933097613, 5.497917759174845 ], [ -0.368289209659724, 5.490527300219441 ] ] } },
{ "type": "Feature", "properties": { "seed_idx": 51, "delta_h": -15.690861521388888, "dx_m": -7754.7322478290962, "dy_m": -852.41704580531245, "uo_ms": 0.039674062281847, "vo_ms": -0.035401470959186554, "vsdx_ms": 0.015, "vsdy_ms": 0.01, "u10_ms": 2.7536392211914062, "v10_ms": 1.3497314453125, "u_total_ms": 0.1372832389175892, "v_total_ms": 0.015090472400188445, "speed_ms": 0.1381101373721883, "wind_source": "era5" }, "geometry": { "type": "LineString", "coordinates": [ [ -0.29849314410704, 5.497680697777176 ], [ -0.36846039912932, 5.490290204192911 ] ] } },
{ "type": "Feature", "properties": { "seed_idx": 52, "delta_h": -15.690861521388888, "dx_m": -7754.7322478290962, "dy_m": -852.41704580531245, "uo_ms": 0.039674062281847, "vo_ms": -0.035401470959186554, "vsdx_ms": 0.015, "vsdy_ms": 0.01, "u10_ms": 2.7536392211914062, "v10_ms": 1.3497314453125, "u_total_ms": 0.1372832389175892, "v_total_ms": 0.015090472400188445, "speed_ms": 0.1381101373721883, "wind_source": "era5" }, "geometry": { "type": "LineString", "coordinates": [ [ -0.297479048128127, 5.496482220711188 ], [ -0.367446110857347, 5.489091784008831 ] ] } },
{ "type": "Feature", "properties": { "seed_idx": 53, "delta_h": -15.690861521388888, "dx_m": -7754.7322478290962, "dy_m": -852.41704580531245, "uo_ms": 0.039674062281847, "vo_ms": -0.035401470959186554, "vsdx_ms": 0.015, "vsdy_ms": 0.01, "u10_ms": 2.7536392211914062, "v10_ms": 1.3497314453125, "u_total_ms": 0.1372832389175892, "v_total_ms": 0.015090472400188445, "speed_ms": 0.1381101373721883, "wind_source": "era5" }, "geometry": { "type": "LineString", "coordinates": [ [ -0.297202476497515, 5.496442710478244 ], [ -0.36716952209253, 5.48905230565055 ] ] } },
{ "type": "Feature", "properties": { "seed_idx": 54, "delta_h": -15.690861521388888, "dx_m": -7754.7322478290962, "dy_m": -852.41704580531245, "uo_ms": 0.039674062281847, "vo_ms": -0.035401470959186554, "vsdx_ms": 0.015, "vsdy_ms": 0.01, "u10_ms": 2.7536392211914062, "v10_ms": 1.3497314453125, "u_total_ms": 0.1372832389175892, "v_total_ms": 0.015090472400188445, "speed_ms": 0.1381101373721883, "wind_source": "era5" }, "geometry": { "type": "LineString", "coordinates": [ [ -0.296991755255143, 5.496429540400595 ], [ -0.366958789875161, 5.489039160822903 ] ] } },
{ "type": "Feature", "properties": { "seed_idx": 55, "delta_h": -15.690861521388888, "dx_m": -7754.7322478290962, "dy_m": -852.41704580531245, "uo_ms": 0.039674062281847, "vo_ms": -0.035401470959186554, "vsdx_ms": 0.015, "vsdy_ms": 0.01, "u10_ms": 2.7536392211914062, "v10_ms": 1.3497314453125, "u_total_ms": 0.1372832389175892, "v_total_ms": 0.015090472400188445, "speed_ms": 0.1381101373721883, "wind_source": "era5" }, "geometry": { "type": "LineString", "coordinates": [ [ -0.298914586591783, 5.496521730944133 ], [ -0.368881717884041, 5.48913111936621 ] ] } },
{ "type": "Feature", "properties": { "seed_idx": 56, "delta_h": -15.690861521388888, "dx_m": -7754.7322478290962, "dy_m": -852.41704580531245, "uo_ms": 0.039674062281847, "vo_ms": -0.035401470959186554, "vsdx_ms": 0.015, "vsdy_ms": 0.01, "u10_ms": 2.7536392211914062, "v10_ms": 1.3497314453125, "u_total_ms": 0.1372832389175892, "v_total_ms": 0.015090472400188445, "speed_ms": 0.1381101373721883, "wind_source": "era5" }, "geometry": { "type": "LineString", "coordinates": [ [ -0.29516111446204, 5.496890493118284 ], [ -0.365128124403024, 5.489500365702541 ] ] } },
{ "type": "Feature", "properties": { "seed_idx": 57, "delta_h": -15.690861521388888, "dx_m": -7754.7322478290962, "dy_m": -852.41704580531245, "uo_ms": 0.039674062281847, "vo_ms": -0.035401470959186554, "vsdx_ms": 0.015, "vsdy_ms": 0.01, "u10_ms": 2.7536392211914062, "v10_ms": 1.3497314453125, "u_total_ms": 0.1372832389175892, "v_total_ms": 0.015090472400188445, "speed_ms": 0.1381101373721883, "wind_source": "era5" }, "geometry": { "type": "LineString", "coordinates": [ [ -0.294818692443186, 5.497048534050063 ], [ -0.364785706587466, 5.489658457901277 ] ] } },
{ "type": "Feature", "properties": { "seed_idx": 58, "delta_h": -15.690861521388888, "dx_m": -7754.7322478290962, "dy_m": -852.41704580531245, "uo_ms": 0.039674062281847, "vo_ms": -0.035401470959186554, "vsdx_ms": 0.015, "vsdy_ms": 0.01, "u10_ms": 2.7536392211914062, "v10_ms": 1.3497314453125, "u_total_ms": 0.1372832389175892, "v_total_ms": 0.015090472400188445, "speed_ms": 0.1381101373721883, "wind_source": "era5" }, "geometry": { "type": "LineString", "coordinates": [ [ -0.294384079880795, 5.497259255292434 ], [ -0.364351100602666, 5.489869244794696 ] ] } },
{ "type": "Feature", "properties": { "seed_idx": 59, "delta_h": -15.690861521388888, "dx_m": -7754.7322478290962, "dy_m": -852.41704580531245, "uo_ms": 0.039674062281847, "vo_ms": -0.035401470959186554, "vsdx_ms": 0.015, "vsdy_ms": 0.01, "u10_ms": 2.7536392211914062, "v10_ms": 1.3497314453125, "u_total_ms": 0.1372832389175892, "v_total_ms": 0.015090472400188445, "speed_ms": 0.1381101373721883, "wind_source": "era5" }, "geometry": { "type": "LineString", "coordinates": [ [ -0.293870446852515, 5.497509486767751 ], [ -0.363837475491607, 5.490119553931474 ] ] } },
{ "type": "Feature", "properties": { "seed_idx": 60, "delta_h": -15.690861521388888, "dx_m": -7754.7322478290962, "dy_m": -852.41704580531245, "uo_ms": 0.039674062281847, "vo_ms": -0.035401470959186554, "vsdx_ms": 0.015, "vsdy_ms": 0.01, "u10_ms": 2.7536392211914062, "v10_ms": 1.3497314453125, "u_total_ms": 0.1372832389175892, "v_total_ms": 0.015090472400188445, "speed_ms": 0.1381101373721883, "wind_source": "era5" }, "geometry": { "type": "LineString", "coordinates": [ [ -0.293264623280696, 5.497930929252494 ], [ -0.363231676777918, 5.490541095230357 ] ] } },
{ "type": "Feature", "properties": { "seed_idx": 61, "delta_h": -15.690861521388888, "dx_m": -7754.7322478290962, "dy_m": -852.41704580531245, "uo_ms": 0.039674062281847, "vo_ms": -0.035401470959186554, "vsdx_ms": 0.015, "vsdy_ms": 0.01, "u10_ms": 2.7536392211914062, "v10_ms": 1.3497314453125, "u_total_ms": 0.1372832389175892, "v_total_ms": 0.015090472400188445, "speed_ms": 0.1381101373721883, "wind_source": "era5" }, "geometry": { "type": "LineString", "coordinates": [ [ -0.29301439180538, 5.498128480417217 ], [ -0.36298145845522, 5.490738688552585 ] ] } },
{ "type": "Feature", "properties": { "seed_idx": 62, "delta_h": -15.690861521388888, "dx_m": -7754.7322478290962, "dy_m": -852.41704580531245, "uo_ms": 0.039674062281847, "vo_ms": -0.035401470959186554, "vsdx_ms": 0.015, "vsdy_ms": 0.01, "u10_ms": 2.7536392211914062, "v10_ms": 1.3497314453125, "u_total_ms": 0.1372832389175892, "v_total_ms": 0.015090472400188445, "speed_ms": 0.1381101373721883, "wind_source": "era5" }, "geometry": { "type": "LineString", "coordinates": [ [ -0.292671969786526, 5.498273351271347 ], [ -0.362639039010821, 5.490883609939989 ] ] } },
{ "type": "Feature", "properties": { "seed_idx": 63, "delta_h": -15.690861521388888, "dx_m": -7754.7322478290962, "dy_m": -852.41704580531245, "uo_ms": 0.039674062281847, "vo_ms": -0.035401470959186554, "vsdx_ms": 0.015, "vsdy_ms": 0.01, "u10_ms": 2.7536392211914062, "v10_ms": 1.3497314453125, "u_total_ms": 0.1372832389175892, "v_total_ms": 0.015090472400188445, "speed_ms": 0.1381101373721883, "wind_source": "era5" }, "geometry": { "type": "LineString", "coordinates": [ [ -0.292408568233562, 5.498260181193699 ], [ -0.362375624118383, 5.490870471624121 ] ] } },
{ "type": "Feature", "properties": { "seed_idx": 64, "delta_h": -15.690861521388888, "dx_m": -7754.7322478290962, "dy_m": -852.41704580531245, "uo_ms": 0.039674062281847, "vo_ms": -0.035401470959186554, "vsdx_ms": 0.015, "vsdy_ms": 0.01, "u10_ms": 2.7536392211914062, "v10_ms": 1.3497314453125, "u_total_ms": 0.1372832389175892, "v_total_ms": 0.015090472400188445, "speed_ms": 0.1381101373721883, "wind_source": "era5" }, "geometry": { "type": "LineString", "coordinates": [ [ -0.292224187146487, 5.49781239855366 ], [ -0.36219117978145, 5.490422686186294 ] ] } },
{ "type": "Feature", "properties": { "seed_idx": 65, "delta_h": -15.690861521388888, "dx_m": -7754.7322478290962, "dy_m": -852.41704580531245, "uo_ms": 0.039674062281847, "vo_ms": -0.035401470959186554, "vsdx_ms": 0.015, "vsdy_ms": 0.01, "u10_ms": 2.7536392211914062, "v10_ms": 1.3497314453125, "u_total_ms": 0.1372832389175892, "v_total_ms": 0.015090472400188445, "speed_ms": 0.1381101373721883, "wind_source": "era5" }, "geometry": { "type": "LineString", "coordinates": [ [ -0.292026635981764, 5.497259255292434 ], [ -0.361993551833812, 5.489869535735361 ] ] } },
{ "type": "Feature", "properties": { "seed_idx": 66, "delta_h": -15.690861521388888, "dx_m": -7754.7322478290962, "dy_m": -852.41704580531245, "uo_ms": 0.039674062281847, "vo_ms": -0.035401470959186554, "vsdx_ms": 0.015, "vsdy_ms": 0.01, "u10_ms": 2.7536392211914062, "v10_ms": 1.3497314453125, "u_total_ms": 0.1372832389175892, "v_total_ms": 0.015090472400188445, "speed_ms": 0.1381101373721883, "wind_source": "era5" }, "geometry": { "type": "LineString", "coordinates": [ [ -0.291842254894688, 5.496903663195932 ], [ -0.361809118834689, 5.489513946096184 ] ] } },
{ "type": "Feature", "properties": { "seed_idx": 67, "delta_h": -15.690861521388888, "dx_m": -9064.8978742989639, "dy_m": -990.32921701266685, "uo_ms": 0.062868129462003708, "vo_ms": -0.032959990203380585, "vsdx_ms": 0.015, "vsdy_ms": 0.01, "u10_ms": 2.7536392211914062, "v10_ms": 1.3497314453125, "u_total_ms": 0.16047730609774591, "v_total_ms": 0.017531953155994415, "speed_ms": 0.16143213792133715, "wind_source": "era5" }, "geometry": { "type": "LineString", "coordinates": [ [ -0.291420812409945, 5.496640261642968 ], [ -0.373208525030411, 5.488056360197289 ] ] } },
{ "type": "Feature", "properties": { "seed_idx": 68, "delta_h": -15.690861521388888, "dx_m": -9064.8978742989639, "dy_m": -990.32921701266685, "uo_ms": 0.062868129462003708, "vo_ms": -0.032959990203380585, "vsdx_ms": 0.015, "vsdy_ms": 0.01, "u10_ms": 2.7536392211914062, "v10_ms": 1.3497314453125, "u_total_ms": 0.16047730609774591, "v_total_ms": 0.017531953155994415, "speed_ms": 0.16143213792133715, "wind_source": "era5" }, "geometry": { "type": "LineString", "coordinates": [ [ -0.29086766914872, 5.496429540400596 ], [ -0.372655322750232, 5.487845704672704 ] ] } },
{ "type": "Feature", "properties": { "seed_idx": 69, "delta_h": -15.690861521388888, "dx_m": -9064.8978742989639, "dy_m": -990.32921701266685, "uo_ms": 0.062868129462003708, "vo_ms": -0.032959990203380585, "vsdx_ms": 0.015, "vsdy_ms": 0.01, "u10_ms": 2.7536392211914062, "v10_ms": 1.3497314453125, "u_total_ms": 0.16047730609774591, "v_total_ms": 0.017531953155994415, "speed_ms": 0.16143213792133715, "wind_source": "era5" }, "geometry": { "type": "LineString", "coordinates": [ [ -0.2906437778287, 5.495942247527612 ], [ -0.372431349821152, 5.487358411622067 ] ] } },
{ "type": "Feature", "properties": { "seed_idx": 70, "delta_h": -15.690861521388888, "dx_m": -9064.8978742989639, "dy_m": -990.32921701266685, "uo_ms": 0.062868129462003708, "vo_ms": -0.032959990203380585, "vsdx_ms": 0.015, "vsdy_ms": 0.01, "u10_ms": 2.7536392211914062, "v10_ms": 1.3497314453125, "u_total_ms": 0.16047730609774591, "v_total_ms": 0.017531953155994415, "speed_ms": 0.16143213792133715, "wind_source": "era5" }, "geometry": { "type": "LineString", "coordinates": [ [ -0.290433056586329, 5.495599825508759 ], [ -0.372220568457032, 5.487015997172015 ] ] } },
{ "type": "Feature", "properties": { "seed_idx": 71, "delta_h": -15.690861521388888, "dx_m": -9064.8978742989639, "dy_m": -990.32921701266685, "uo_ms": 0.062868129462003708, "vo_ms": -0.032959990203380585, "vsdx_ms": 0.015, "vsdy_ms": 0.01, "u10_ms": 2.7536392211914062, "v10_ms": 1.3497314453125, "u_total_ms": 0.16047730609774591, "v_total_ms": 0.017531953155994415, "speed_ms": 0.16143213792133715, "wind_source": "era5" }, "geometry": { "type": "LineString", "coordinates": [ [ -0.290182825111013, 5.49544178457698 ], [ -0.371970301275476, 5.486857981784178 ] ] } },
{ "type": "Feature", "properties": { "seed_idx": 72, "delta_h": -15.690861521388888, "dx_m": -9064.8978742989639, "dy_m": -990.32921701266685, "uo_ms": 0.062868129462003708, "vo_ms": -0.032959990203380585, "vsdx_ms": 0.015, "vsdy_ms": 0.01, "u10_ms": 2.7536392211914062, "v10_ms": 1.3497314453125, "u_total_ms": 0.16047730609774591, "v_total_ms": 0.017531953155994415, "speed_ms": 0.16143213792133715, "wind_source": "era5" }, "geometry": { "type": "LineString", "coordinates": [ [ -0.289958933790993, 5.495283743645201 ], [ -0.37174637561858, 5.486699962597623 ] ] } },
{ "type": "Feature", "properties": { "seed_idx": 73, "delta_h": -15.690861521388888, "dx_m": -9064.8978742989639, "dy_m": -990.32921701266685, "uo_ms": 0.062868129462003708, "vo_ms": -0.032959990203380585, "vsdx_ms": 0.015, "vsdy_ms": 0.01, "u10_ms": 2.7536392211914062, "v10_ms": 1.3497314453125, "u_total_ms": 0.16047730609774591, "v_total_ms": 0.017531953155994415, "speed_ms": 0.16143213792133715, "wind_source": "era5" }, "geometry": { "type": "LineString", "coordinates": [ [ -0.289050198433266, 5.495046682247533 ], [ -0.370837558936311, 5.486463016395321 ] ] } },
{ "type": "Feature", "properties": { "seed_idx": 74, "delta_h": -15.690861521388888, "dx_m": -9064.8978742989639, "dy_m": -990.32921701266685, "uo_ms": 0.062868129462003708, "vo_ms": -0.032959990203380585, "vsdx_ms": 0.015, "vsdy_ms": 0.01, "u10_ms": 2.7536392211914062, "v10_ms": 1.3497314453125, "u_total_ms": 0.16047730609774591, "v_total_ms": 0.017531953155994415, "speed_ms": 0.16143213792133715, "wind_source": "era5" }, "geometry": { "type": "LineString", "coordinates": [ [ -0.290907179381665, 5.495375934188739 ], [ -0.372694683770577, 5.486792022593205 ] ] } },
{ "type": "Feature", "properties": { "seed_idx": 75, "delta_h": -15.690861521388888, "dx_m": -9064.8978742989639, "dy_m": -990.32921701266685, "uo_ms": 0.062868129462003708, "vo_ms": -0.032959990203380585, "vsdx_ms": 0.015, "vsdy_ms": 0.01, "u10_ms": 2.7536392211914062, "v10_ms": 1.3497314453125, "u_total_ms": 0.16047730609774591, "v_total_ms": 0.017531953155994415, "speed_ms": 0.16143213792133715, "wind_source": "era5" }, "geometry": { "type": "LineString", "coordinates": [ [ -0.291275941555815, 5.495270573567553 ], [ -0.373063449996091, 5.486686601799232 ] ] } },
{ "type": "Feature", "properties": { "seed_idx": 76, "delta_h": -15.690861521388888, "dx_m": -9064.8978742989639, "dy_m": -990.32921701266685, "uo_ms": 0.062868129462003708, "vo_ms": -0.032959990203380585, "vsdx_ms": 0.015, "vsdy_ms": 0.01, "u10_ms": 2.7536392211914062, "v10_ms": 1.3497314453125, "u_total_ms": 0.16047730609774591, "v_total_ms": 0.017531953155994415, "speed_ms": 0.16143213792133715, "wind_source": "era5" }, "geometry": { "type": "LineString", "coordinates": [ [ -0.291539343108779, 5.495046682247533 ], [ -0.373326833104777, 5.486462657603218 ] ] } },
{ "type": "Feature", "properties": { "seed_idx": 77, "delta_h": -15.690861521388888, "dx_m": -7754.7322478290962, "dy_m": -852.41704580531245, "uo_ms": 0.039674062281847, "vo_ms": -0.035401470959186554, "vsdx_ms": 0.015, "vsdy_ms": 0.01, "u10_ms": 2.7536392211914062, "v10_ms": 1.3497314453125, "u_total_ms": 0.1372832389175892, "v_total_ms": 0.015090472400188445, "speed_ms": 0.1381101373721883, "wind_source": "era5" }, "geometry": { "type": "LineString", "coordinates": [ [ -0.291894935205281, 5.494822790927514 ], [ -0.361861545790574, 5.487432948545823 ] ] } },
{ "type": "Feature", "properties": { "seed_idx": 78, "delta_h": -15.690861521388888, "dx_m": -7754.7322478290962, "dy_m": -852.41704580531245, "uo_ms": 0.039674062281847, "vo_ms": -0.035401470959186554, "vsdx_ms": 0.015, "vsdy_ms": 0.01, "u10_ms": 2.7536392211914062, "v10_ms": 1.3497314453125, "u_total_ms": 0.1372832389175892, "v_total_ms": 0.015090472400188445, "speed_ms": 0.1381101373721883, "wind_source": "era5" }, "geometry": { "type": "LineString", "coordinates": [ [ -0.292184676913542, 5.494704260228679 ], [ -0.362151285834424, 5.487314375337884 ] ] } },
{ "type": "Feature", "properties": { "seed_idx": 79, "delta_h": -15.690861521388888, "dx_m": -7754.7322478290962, "dy_m": -852.41704580531245, "uo_ms": 0.039674062281847, "vo_ms": -0.035401470959186554, "vsdx_ms": 0.015, "vsdy_ms": 0.01, "u10_ms": 2.7536392211914062, "v10_ms": 1.3497314453125, "u_total_ms": 0.1372832389175892, "v_total_ms": 0.015090472400188445, "speed_ms": 0.1381101373721883, "wind_source": "era5" }, "geometry": { "type": "LineString", "coordinates": [ [ -0.292434908388858, 5.494519879141604 ], [ -0.362401505795694, 5.48712995285914 ] ] } },
{ "type": "Feature", "properties": { "seed_idx": 80, "delta_h": -15.690861521388888, "dx_m": -7754.7322478290962, "dy_m": -852.41704580531245, "uo_ms": 0.039674062281847, "vo_ms": -0.035401470959186554, "vsdx_ms": 0.015, "vsdy_ms": 0.01, "u10_ms": 2.7536392211914062, "v10_ms": 1.3497314453125, "u_total_ms": 0.1372832389175892, "v_total_ms": 0.015090472400188445, "speed_ms": 0.1381101373721883, "wind_source": "era5" }, "geometry": { "type": "LineString", "coordinates": [ [ -0.29279050048536, 5.494480368908659 ], [ -0.362757108863459, 5.487090396506927 ] ] } },
{ "type": "Feature", "properties": { "seed_idx": 81, "delta_h": -15.690861521388888, "dx_m": -7754.7322478290962, "dy_m": -852.41704580531245, "uo_ms": 0.039674062281847, "vo_ms": -0.035401470959186554, "vsdx_ms": 0.015, "vsdy_ms": 0.01, "u10_ms": 2.7536392211914062, "v10_ms": 1.3497314453125, "u_total_ms": 0.1372832389175892, "v_total_ms": 0.015090472400188445, "speed_ms": 0.1381101373721883, "wind_source": "era5" }, "geometry": { "type": "LineString", "coordinates": [ [ -0.293119752426566, 5.494440858675715 ], [ -0.363086370601376, 5.487050843404758 ] ] } },
{ "type": "Feature", "properties": { "seed_idx": 82, "delta_h": -15.690861521388888, "dx_m": -7754.7322478290962, "dy_m": -852.41704580531245, "uo_ms": 0.039674062281847, "vo_ms": -0.035401470959186554, "vsdx_ms": 0.015, "vsdy_ms": 0.01, "u10_ms": 2.7536392211914062, "v10_ms": 1.3497314453125, "u_total_ms": 0.1372832389175892, "v_total_ms": 0.015090472400188445, "speed_ms": 0.1381101373721883, "wind_source": "era5" }, "geometry": { "type": "LineString", "coordinates": [ [ -0.293554364988957, 5.494414518520419 ], [ -0.363520999263063, 5.487024448135883 ] ] } },
{ "type": "Feature", "properties": { "seed_idx": 83, "delta_h": -15.690861521388888, "dx_m": -7754.7322478290962, "dy_m": -852.41704580531245, "uo_ms": 0.039674062281847, "vo_ms": -0.035401470959186554, "vsdx_ms": 0.015, "vsdy_ms": 0.01, "u10_ms": 2.7536392211914062, "v10_ms": 1.3497314453125, "u_total_ms": 0.1372832389175892, "v_total_ms": 0.015090472400188445, "speed_ms": 0.1381101373721883, "wind_source": "era5" }, "geometry": { "type": "LineString", "coordinates": [ [ -0.294094338172534, 5.494454028753363 ], [ -0.36406100131705, 5.48706389401567 ] ] } },
{ "type": "Feature", "properties": { "seed_idx": 84, "delta_h": -15.690861521388888, "dx_m": -7754.7322478290962, "dy_m": -852.41704580531245, "uo_ms": 0.039674062281847, "vo_ms": -0.035401470959186554, "vsdx_ms": 0.015, "vsdy_ms": 0.01, "u10_ms": 2.7536392211914062, "v10_ms": 1.3497314453125, "u_total_ms": 0.1372832389175892, "v_total_ms": 0.015090472400188445, "speed_ms": 0.1381101373721883, "wind_source": "era5" }, "geometry": { "type": "LineString", "coordinates": [ [ -0.294015317706645, 5.494691090151031 ], [ -0.363982006459519, 5.487300978681996 ] ] } },
{ "type": "Feature", "properties": { "seed_idx": 85, "delta_h": -15.690861521388888, "dx_m": -7754.7322478290962, "dy_m": -852.41704580531245, "uo_ms": 0.039674062281847, "vo_ms": -0.035401470959186554, "vsdx_ms": 0.015, "vsdy_ms": 0.01, "u10_ms": 2.7536392211914062, "v10_ms": 1.3497314453125, "u_total_ms": 0.1372832389175892, "v_total_ms": 0.015090472400188445, "speed_ms": 0.1381101373721883, "wind_source": "era5" }, "geometry": { "type": "LineString", "coordinates": [ [ -0.293699235843088, 5.494822790927514 ], [ -0.363665926717632, 5.487432725962294 ] ] } },
{ "type": "Feature", "properties": { "seed_idx": 86, "delta_h": -15.690861521388888, "dx_m": -7754.7322478290962, "dy_m": -852.41704580531245, "uo_ms": 0.039674062281847, "vo_ms": -0.035401470959186554, "vsdx_ms": 0.015, "vsdy_ms": 0.01, "u10_ms": 2.7536392211914062, "v10_ms": 1.3497314453125, "u_total_ms": 0.1372832389175892, "v_total_ms": 0.015090472400188445, "speed_ms": 0.1381101373721883, "wind_source": "era5" }, "geometry": { "type": "LineString", "coordinates": [ [ -0.293304133513641, 5.495020342092237 ], [ -0.363270831083217, 5.487630337138047 ] ] } },
{ "type": "Feature", "properties": { "seed_idx": 87, "delta_h": -15.690861521388888, "dx_m": -7754.7322478290962, "dy_m": -852.41704580531245, "uo_ms": 0.039674062281847, "vo_ms": -0.035401470959186554, "vsdx_ms": 0.015, "vsdy_ms": 0.01, "u10_ms": 2.7536392211914062, "v10_ms": 1.3497314453125, "u_total_ms": 0.1372832389175892, "v_total_ms": 0.015090472400188445, "speed_ms": 0.1381101373721883, "wind_source": "era5" }, "geometry": { "type": "LineString", "coordinates": [ [ -0.292592949320637, 5.495086192480477 ], [ -0.362559623336491, 5.487696279020594 ] ] } },
{ "type": "Feature", "properties": { "seed_idx": 88, "delta_h": -15.690861521388888, "dx_m": -7754.7322478290962, "dy_m": -852.41704580531245, "uo_ms": 0.039674062281847, "vo_ms": -0.035401470959186554, "vsdx_ms": 0.015, "vsdy_ms": 0.01, "u10_ms": 2.7536392211914062, "v10_ms": 1.3497314453125, "u_total_ms": 0.1372832389175892, "v_total_ms": 0.015090472400188445, "speed_ms": 0.1381101373721883, "wind_source": "era5" }, "geometry": { "type": "LineString", "coordinates": [ [ -0.292211017068839, 5.495389104266387 ], [ -0.362177711303953, 5.487999255214048 ] ] } },
{ "type": "Feature", "properties": { "seed_idx": 89, "delta_h": -15.690861521388888, "dx_m": -9064.8978742989639, "dy_m": -990.32921701266685, "uo_ms": 0.062868129462003708, "vo_ms": -0.032959990203380585, "vsdx_ms": 0.015, "vsdy_ms": 0.01, "u10_ms": 2.7536392211914062, "v10_ms": 1.3497314453125, "u_total_ms": 0.16047730609774591, "v_total_ms": 0.017531953155994415, "speed_ms": 0.16143213792133715, "wind_source": "era5" }, "geometry": { "type": "LineString", "coordinates": [ [ -0.291657873807613, 5.495626165664055 ], [ -0.373445453153667, 5.487042162518208 ] ] } },
{ "type": "Feature", "properties": { "seed_idx": 90, "delta_h": -15.690861521388888, "dx_m": -7754.7322478290962, "dy_m": -852.41704580531245, "uo_ms": 0.039674062281847, "vo_ms": -0.035401470959186554, "vsdx_ms": 0.015, "vsdy_ms": 0.01, "u10_ms": 2.7536392211914062, "v10_ms": 1.3497314453125, "u_total_ms": 0.1372832389175892, "v_total_ms": 0.015090472400188445, "speed_ms": 0.1381101373721883, "wind_source": "era5" }, "geometry": { "type": "LineString", "coordinates": [ [ -0.292171506835894, 5.496008097915853 ], [ -0.362138275372376, 5.488618289068007 ] ] } },
{ "type": "Feature", "properties": { "seed_idx": 91, "delta_h": -15.690861521388888, "dx_m": -7754.7322478290962, "dy_m": -852.41704580531245, "uo_ms": 0.039674062281847, "vo_ms": -0.035401470959186554, "vsdx_ms": 0.015, "vsdy_ms": 0.01, "u10_ms": 2.7536392211914062, "v10_ms": 1.3497314453125, "u_total_ms": 0.1372832389175892, "v_total_ms": 0.015090472400188445, "speed_ms": 0.1381101373721883, "wind_source": "era5" }, "geometry": { "type": "LineString", "coordinates": [ [ -0.292843180795953, 5.495850056984075 ], [ -0.36280995980339, 5.488460156241173 ] ] } },
{ "type": "Feature", "properties": { "seed_idx": 92, "delta_h": -15.690861521388888, "dx_m": -7754.7322478290962, "dy_m": -852.41704580531245, "uo_ms": 0.039674062281847, "vo_ms": -0.035401470959186554, "vsdx_ms": 0.015, "vsdy_ms": 0.01, "u10_ms": 2.7536392211914062, "v10_ms": 1.3497314453125, "u_total_ms": 0.1372832389175892, "v_total_ms": 0.015090472400188445, "speed_ms": 0.1381101373721883, "wind_source": "era5" }, "geometry": { "type": "LineString", "coordinates": [ [ -0.293620215377198, 5.495784206595833 ], [ -0.363587020861266, 5.48839420622313 ] ] } },
{ "type": "Feature", "properties": { "seed_idx": 93, "delta_h": -15.690861521388888, "dx_m": -7754.7322478290962, "dy_m": -852.41704580531245, "uo_ms": 0.039674062281847, "vo_ms": -0.035401470959186554, "vsdx_ms": 0.015, "vsdy_ms": 0.01, "u10_ms": 2.7536392211914062, "v10_ms": 1.3497314453125, "u_total_ms": 0.1372832389175892, "v_total_ms": 0.015090472400188445, "speed_ms": 0.1381101373721883, "wind_source": "era5" }, "geometry": { "type": "LineString", "coordinates": [ [ -0.293620215377198, 5.495784206595833 ], [ -0.363587020861266, 5.48839420622313 ] ] } },
{ "type": "Feature", "properties": { "seed_idx": 94, "delta_h": -15.690861521388888, "dx_m": -7754.7322478290962, "dy_m": -852.41704580531245, "uo_ms": 0.039674062281847, "vo_ms": -0.035401470959186554, "vsdx_ms": 0.015, "vsdy_ms": 0.01, "u10_ms": 2.7536392211914062, "v10_ms": 1.3497314453125, "u_total_ms": 0.1372832389175892, "v_total_ms": 0.015090472400188445, "speed_ms": 0.1381101373721883, "wind_source": "era5" }, "geometry": { "type": "LineString", "coordinates": [ [ -0.294542120812574, 5.495718356207592 ], [ -0.364508959201731, 5.488328238334756 ] ] } },
{ "type": "Feature", "properties": { "seed_idx": 95, "delta_h": -15.690861521388888, "dx_m": -7754.7322478290962, "dy_m": -852.41704580531245, "uo_ms": 0.039674062281847, "vo_ms": -0.035401470959186554, "vsdx_ms": 0.015, "vsdy_ms": 0.01, "u10_ms": 2.7536392211914062, "v10_ms": 1.3497314453125, "u_total_ms": 0.1372832389175892, "v_total_ms": 0.015090472400188445, "speed_ms": 0.1381101373721883, "wind_source": "era5" }, "geometry": { "type": "LineString", "coordinates": [ [ -0.293804596464273, 5.496126628614688 ], [ -0.36377145222543, 5.488736625025138 ] ] } },
{ "type": "Feature", "properties": { "seed_idx": 96, "delta_h": -15.690861521388888, "dx_m": -7754.7322478290962, "dy_m": -852.41704580531245, "uo_ms": 0.039674062281847, "vo_ms": -0.035401470959186554, "vsdx_ms": 0.015, "vsdy_ms": 0.01, "u10_ms": 2.7536392211914062, "v10_ms": 1.3497314453125, "u_total_ms": 0.1372832389175892, "v_total_ms": 0.015090472400188445, "speed_ms": 0.1381101373721883, "wind_source": "era5" }, "geometry": { "type": "LineString", "coordinates": [ [ -0.29360704529955, 5.496205649080577 ], [ -0.363573901984674, 5.488815674374334 ] ] } },
{ "type": "Feature", "properties": { "seed_idx": 97, "delta_h": -15.690861521388888, "dx_m": -7754.7322478290962, "dy_m": -852.41704580531245, "uo_ms": 0.039674062281847, "vo_ms": -0.035401470959186554, "vsdx_ms": 0.015, "vsdy_ms": 0.01, "u10_ms": 2.7536392211914062, "v10_ms": 1.3497314453125, "u_total_ms": 0.1372832389175892, "v_total_ms": 0.015090472400188445, "speed_ms": 0.1381101373721883, "wind_source": "era5" }, "geometry": { "type": "LineString", "coordinates": [ [ -0.29360704529955, 5.496205649080577 ], [ -0.363573901984674, 5.488815674374334 ] ] } },
{ "type": "Feature", "properties": { "seed_idx": 98, "delta_h": -15.690861521388888, "dx_m": -7754.7322478290962, "dy_m": -852.41704580531245, "uo_ms": 0.039674062281847, "vo_ms": -0.035401470959186554, "vsdx_ms": 0.015, "vsdy_ms": 0.01, "u10_ms": 2.7536392211914062, "v10_ms": 1.3497314453125, "u_total_ms": 0.1372832389175892, "v_total_ms": 0.015090472400188445, "speed_ms": 0.1381101373721883, "wind_source": "era5" }, "geometry": { "type": "LineString", "coordinates": [ [ -0.293251453203048, 5.496376860090003 ], [ -0.363218315110319, 5.488986939028681 ] ] } },
{ "type": "Feature", "properties": { "seed_idx": 99, "delta_h": -15.690861521388888, "dx_m": -7754.7322478290962, "dy_m": -852.41704580531245, "uo_ms": 0.039674062281847, "vo_ms": -0.035401470959186554, "vsdx_ms": 0.015, "vsdy_ms": 0.01, "u10_ms": 2.7536392211914062, "v10_ms": 1.3497314453125, "u_total_ms": 0.1372832389175892, "v_total_ms": 0.015090472400188445, "speed_ms": 0.1381101373721883, "wind_source": "era5" }, "geometry": { "type": "LineString", "coordinates": [ [ -0.291842254894688, 5.496311009701762 ], [ -0.361809045999234, 5.488921258771427 ] ] } },
{ "type": "Feature", "properties": { "seed_idx": 100, "delta_h": -15.690861521388888, "dx_m": -7754.7322478290962, "dy_m": -852.41704580531245, "uo_ms": 0.039674062281847, "vo_ms": -0.035401470959186554, "vsdx_ms": 0.015, "vsdy_ms": 0.01, "u10_ms": 2.7536392211914062, "v10_ms": 1.3497314453125, "u_total_ms": 0.1372832389175892, "v_total_ms": 0.015090472400188445, "speed_ms": 0.1381101373721883, "wind_source": "era5" }, "geometry": { "type": "LineString", "coordinates": [ [ -0.292843180795953, 5.497338275758324 ], [ -0.362810142697518, 5.489948459936138 ] ] } },
{ "type": "Feature", "properties": { "seed_idx": 101, "delta_h": -15.690861521388888, "dx_m": -7754.7322478290962, "dy_m": -852.41704580531245, "uo_ms": 0.039674062281847, "vo_ms": -0.035401470959186554, "vsdx_ms": 0.015, "vsdy_ms": 0.01, "u10_ms": 2.7536392211914062, "v10_ms": 1.3497314453125, "u_total_ms": 0.1372832389175892, "v_total_ms": 0.015090472400188445, "speed_ms": 0.1381101373721883, "wind_source": "era5" }, "geometry": { "type": "LineString", "coordinates": [ [ -0.293132922504214, 5.497483146612455 ], [ -0.363099915102417, 5.490093303297288 ] ] } },
{ "type": "Feature", "properties": { "seed_idx": 102, "delta_h": -15.690861521388888, "dx_m": -7754.7322478290962, "dy_m": -852.41704580531245, "uo_ms": 0.039674062281847, "vo_ms": -0.035401470959186554, "vsdx_ms": 0.015, "vsdy_ms": 0.01, "u10_ms": 2.7536392211914062, "v10_ms": 1.3497314453125, "u_total_ms": 0.1372832389175892, "v_total_ms": 0.015090472400188445, "speed_ms": 0.1381101373721883, "wind_source": "era5" }, "geometry": { "type": "LineString", "coordinates": [ [ -0.293409494134827, 5.497035363972414 ], [ -0.36337644399972, 5.489645460977309 ] ] } },
{ "type": "Feature", "properties": { "seed_idx": 103, "delta_h": -15.690861521388888, "dx_m": -7754.7322478290962, "dy_m": -852.41704580531245, "uo_ms": 0.039674062281847, "vo_ms": -0.035401470959186554, "vsdx_ms": 0.015, "vsdy_ms": 0.01, "u10_ms": 2.7536392211914062, "v10_ms": 1.3497314453125, "u_total_ms": 0.1372832389175892, "v_total_ms": 0.015090472400188445, "speed_ms": 0.1381101373721883, "wind_source": "era5" }, "geometry": { "type": "LineString", "coordinates": [ [ -0.293409494134827, 5.497035363972414 ], [ -0.36337644399972, 5.489645460977309 ] ] } },
{ "type": "Feature", "properties": { "seed_idx": 104, "delta_h": -15.690861521388888, "dx_m": -7754.7322478290962, "dy_m": -852.41704580531245, "uo_ms": 0.039674062281847, "vo_ms": -0.035401470959186554, "vsdx_ms": 0.015, "vsdy_ms": 0.01, "u10_ms": 2.7536392211914062, "v10_ms": 1.3497314453125, "u_total_ms": 0.1372832389175892, "v_total_ms": 0.015090472400188445, "speed_ms": 0.1381101373721883, "wind_source": "era5" }, "geometry": { "type": "LineString", "coordinates": [ [ -0.293659725610143, 5.496495390788837 ], [ -0.363626620244015, 5.48910542611057 ] ] } },
{ "type": "Feature", "properties": { "seed_idx": 105, "delta_h": -15.690861521388888, "dx_m": -7754.7322478290962, "dy_m": -852.41704580531245, "uo_ms": 0.039674062281847, "vo_ms": -0.035401470959186554, "vsdx_ms": 0.015, "vsdy_ms": 0.01, "u10_ms": 2.7536392211914062, "v10_ms": 1.3497314453125, "u_total_ms": 0.1372832389175892, "v_total_ms": 0.015090472400188445, "speed_ms": 0.1381101373721883, "wind_source": "era5" }, "geometry": { "type": "LineString", "coordinates": [ [ -0.293659725610143, 5.496495390788837 ], [ -0.363626620244015, 5.48910542611057 ] ] } },
{ "type": "Feature", "properties": { "seed_idx": 106, "delta_h": -15.690861521388888, "dx_m": -7754.7322478290962, "dy_m": -852.41704580531245, "uo_ms": 0.039674062281847, "vo_ms": -0.035401470959186554, "vsdx_ms": 0.015, "vsdy_ms": 0.01, "u10_ms": 2.7536392211914062, "v10_ms": 1.3497314453125, "u_total_ms": 0.1372832389175892, "v_total_ms": 0.015090472400188445, "speed_ms": 0.1381101373721883, "wind_source": "era5" }, "geometry": { "type": "LineString", "coordinates": [ [ -0.294700161744352, 5.495705186129944 ], [ -0.364667005541414, 5.488315048007396 ] ] } },
{ "type": "Feature", "properties": { "seed_idx": 107, "delta_h": -15.690861521388888, "dx_m": -7754.7322478290962, "dy_m": -852.41704580531245, "uo_ms": 0.039674062281847, "vo_ms": -0.035401470959186554, "vsdx_ms": 0.015, "vsdy_ms": 0.01, "u10_ms": 2.7536392211914062, "v10_ms": 1.3497314453125, "u_total_ms": 0.1372832389175892, "v_total_ms": 0.015090472400188445, "speed_ms": 0.1381101373721883, "wind_source": "era5" }, "geometry": { "type": "LineString", "coordinates": [ [ -0.294976733374965, 5.495573485353462 ], [ -0.364943573284501, 5.488183305599221 ] ] } },
{ "type": "Feature", "properties": { "seed_idx": 108, "delta_h": -15.690861521388888, "dx_m": -7754.7322478290962, "dy_m": -852.41704580531245, "uo_ms": 0.039674062281847, "vo_ms": -0.035401470959186554, "vsdx_ms": 0.015, "vsdy_ms": 0.01, "u10_ms": 2.7536392211914062, "v10_ms": 1.3497314453125, "u_total_ms": 0.1372832389175892, "v_total_ms": 0.015090472400188445, "speed_ms": 0.1381101373721883, "wind_source": "era5" }, "geometry": { "type": "LineString", "coordinates": [ [ -0.295213794772633, 5.495191553101663 ], [ -0.365180598293632, 5.487801322325727 ] ] } },
{ "type": "Feature", "properties": { "seed_idx": 109, "delta_h": -15.690861521388888, "dx_m": -7754.7322478290962, "dy_m": -852.41704580531245, "uo_ms": 0.039674062281847, "vo_ms": -0.035401470959186554, "vsdx_ms": 0.015, "vsdy_ms": 0.01, "u10_ms": 2.7536392211914062, "v10_ms": 1.3497314453125, "u_total_ms": 0.1372832389175892, "v_total_ms": 0.015090472400188445, "speed_ms": 0.1381101373721883, "wind_source": "era5" }, "geometry": { "type": "LineString", "coordinates": [ [ -0.294752842054945, 5.495191553101663 ], [ -0.364719625086098, 5.487801379191454 ] ] } },
{ "type": "Feature", "properties": { "seed_idx": 110, "delta_h": -15.690861521388888, "dx_m": -7754.7322478290962, "dy_m": -852.41704580531245, "uo_ms": 0.039674062281847, "vo_ms": -0.035401470959186554, "vsdx_ms": 0.015, "vsdy_ms": 0.01, "u10_ms": 2.7536392211914062, "v10_ms": 1.3497314453125, "u_total_ms": 0.1372832389175892, "v_total_ms": 0.015090472400188445, "speed_ms": 0.1381101373721883, "wind_source": "era5" }, "geometry": { "type": "LineString", "coordinates": [ [ -0.294752842054945, 5.495191553101663 ], [ -0.364719625086098, 5.487801379191454 ] ] } },
{ "type": "Feature", "properties": { "seed_idx": 111, "delta_h": -15.690861521388888, "dx_m": -7754.7322478290962, "dy_m": -852.41704580531245, "uo_ms": 0.039674062281847, "vo_ms": -0.035401470959186554, "vsdx_ms": 0.015, "vsdy_ms": 0.01, "u10_ms": 2.7536392211914062, "v10_ms": 1.3497314453125, "u_total_ms": 0.1372832389175892, "v_total_ms": 0.015090472400188445, "speed_ms": 0.1381101373721883, "wind_source": "era5" }, "geometry": { "type": "LineString", "coordinates": [ [ -0.294871372753779, 5.495415444421684 ], [ -0.364838188561969, 5.488025268654864 ] ] } },
{ "type": "Feature", "properties": { "seed_idx": 112, "delta_h": -15.690861521388888, "dx_m": -7754.7322478290962, "dy_m": -852.41704580531245, "uo_ms": 0.039674062281847, "vo_ms": -0.035401470959186554, "vsdx_ms": 0.015, "vsdy_ms": 0.01, "u10_ms": 2.7536392211914062, "v10_ms": 1.3497314453125, "u_total_ms": 0.1372832389175892, "v_total_ms": 0.015090472400188445, "speed_ms": 0.1381101373721883, "wind_source": "era5" }, "geometry": { "type": "LineString", "coordinates": [ [ -0.2956418222962, 5.494216967355698 ], [ -0.365608525113943, 5.486826628222349 ] ] } },
{ "type": "Feature", "properties": { "seed_idx": 113, "delta_h": -15.690861521388888, "dx_m": -7754.7322478290962, "dy_m": -852.41704580531245, "uo_ms": 0.039674062281847, "vo_ms": -0.035401470959186554, "vsdx_ms": 0.015, "vsdy_ms": 0.01, "u10_ms": 2.7536392211914062, "v10_ms": 1.3497314453125, "u_total_ms": 0.1372832389175892, "v_total_ms": 0.015090472400188445, "speed_ms": 0.1381101373721883, "wind_source": "era5" }, "geometry": { "type": "LineString", "coordinates": [ [ -0.29560889710208, 5.494052341385095 ], [ -0.365575578234758, 5.486661996928619 ] ] } },
{ "type": "Feature", "properties": { "seed_idx": 114, "delta_h": -15.690861521388888, "dx_m": -7754.7322478290962, "dy_m": -852.41704580531245, "uo_ms": 0.039674062281847, "vo_ms": -0.035401470959186554, "vsdx_ms": 0.015, "vsdy_ms": 0.01, "u10_ms": 2.7536392211914062, "v10_ms": 1.3497314453125, "u_total_ms": 0.1372832389175892, "v_total_ms": 0.015090472400188445, "speed_ms": 0.1381101373721883, "wind_source": "era5" }, "geometry": { "type": "LineString", "coordinates": [ [ -0.294337984609026, 5.494249892549818 ], [ -0.364304633511626, 5.486859716115958 ] ] } },
{ "type": "Feature", "properties": { "seed_idx": 115, "delta_h": -15.690861521388888, "dx_m": -7754.7322478290962, "dy_m": -852.41704580531245, "uo_ms": 0.039674062281847, "vo_ms": -0.035401470959186554, "vsdx_ms": 0.015, "vsdy_ms": 0.01, "u10_ms": 2.7536392211914062, "v10_ms": 1.3497314453125, "u_total_ms": 0.1372832389175892, "v_total_ms": 0.015090472400188445, "speed_ms": 0.1381101373721883, "wind_source": "era5" }, "geometry": { "type": "LineString", "coordinates": [ [ -0.296030339586823, 5.495237648373434 ], [ -0.365997185056088, 5.48784731949228 ] ] } },
{ "type": "Feature", "properties": { "seed_idx": 116, "delta_h": -15.690861521388888, "dx_m": -7754.7322478290962, "dy_m": -852.41704580531245, "uo_ms": 0.039674062281847, "vo_ms": -0.035401470959186554, "vsdx_ms": 0.015, "vsdy_ms": 0.01, "u10_ms": 2.7536392211914062, "v10_ms": 1.3497314453125, "u_total_ms": 0.1372832389175892, "v_total_ms": 0.015090472400188445, "speed_ms": 0.1381101373721883, "wind_source": "era5" }, "geometry": { "type": "LineString", "coordinates": [ [ -0.295852543538572, 5.495487879848751 ], [ -0.365819411852041, 5.48809758716403 ] ] } }
]
}
