{
"type": "FeatureCollection",
"name": "predicted_seed_polygons",
"crs": { "type": "name", "properties": { "name": "urn:ogc:def:crs:OGC:1.3:CRS84" } },
"features": [
{ "type": "Feature", "properties": { "seed_idx": 0, "delta_h": -15.690861521388888, "mean_lon": -0.32425574809312818, "mean_lat": 5.5097131967544559, "dx_m": 807.150857365923, "dy_m": 2215.4239089841722, "n_particles": 20 }, "geometry": { "type": "Point", "coordinates": [ -0.32425574809313, 5.509713196754455 ] } },
{ "type": "Feature", "properties": { "seed_idx": 1, "delta_h": -15.690861521388888, "mean_lon": -0.32407212853431699, "mean_lat": 5.5096348762512211, "dx_m": 688.51032081851736, "dy_m": 1946.8083517074119, "n_particles": 20 }, "geometry": { "type": "Point", "coordinates": [ -0.324072128534317, 5.509634876251221 ] } },
{ "type": "Feature", "properties": { "seed_idx": 2, "delta_h": -15.690861521388888, "mean_lon": -0.32260728180408477, "mean_lat": 5.5085807561874391, "dx_m": 704.21559955389239, "dy_m": 1610.1616381973727, "n_particles": 20 }, "geometry": { "type": "Point", "coordinates": [ -0.322607281804084, 5.508580756187438 ] } },
{ "type": "Feature", "properties": { "seed_idx": 3, "delta_h": -15.690861521388888, "mean_lon": -0.32374414950609209, "mean_lat": 5.5083382368087772, "dx_m": 552.78721932333428, "dy_m": 1567.3420435753651, "n_particles": 20 }, "geometry": { "type": "Point", "coordinates": [ -0.323744149506093, 5.508338236808775 ] } },
{ "type": "Feature", "properties": { "seed_idx": 4, "delta_h": -15.690861521388888, "mean_lon": -0.32395595610141753, "mean_lat": 5.5084057331085203, "dx_m": 375.50695250742137, "dy_m": 1504.7913320357911, "n_particles": 20 }, "geometry": { "type": "Point", "coordinates": [ -0.323955956101418, 5.508405733108521 ] } },
{ "type": "Feature", "properties": { "seed_idx": 5, "delta_h": -15.690861521388888, "mean_lon": -0.32336724698543551, "mean_lat": 5.5095781087875366, "dx_m": 296.02300182788167, "dy_m": 1545.2715600578813, "n_particles": 20 }, "geometry": { "type": "Point", "coordinates": [ -0.323367246985436, 5.509578108787537 ] } },
{ "type": "Feature", "properties": { "seed_idx": 6, "delta_h": -15.690861521388888, "mean_lon": -0.32324456274509428, "mean_lat": 5.5093862771987911, "dx_m": 271.08385319879744, "dy_m": 1510.0862889303826, "n_particles": 20 }, "geometry": { "type": "Point", "coordinates": [ -0.323244562745095, 5.509386277198792 ] } },
{ "type": "Feature", "properties": { "seed_idx": 7, "delta_h": -15.690861521388888, "mean_lon": -0.32328199595212936, "mean_lat": 5.5095139265060427, "dx_m": 122.22678543720394, "dy_m": 1538.1202975423075, "n_particles": 20 }, "geometry": { "type": "Point", "coordinates": [ -0.32328199595213, 5.509513926506042 ] } },
{ "type": "Feature", "properties": { "seed_idx": 8, "delta_h": -15.690861521388888, "mean_lon": -0.32374670952558515, "mean_lat": 5.5093127250671383, "dx_m": 69.917270916863345, "dy_m": 1549.1409386327723, "n_particles": 20 }, "geometry": { "type": "Point", "coordinates": [ -0.323746709525585, 5.509312725067138 ] } },
{ "type": "Feature", "properties": { "seed_idx": 9, "delta_h": -15.690861521388888, "mean_lon": -0.3232486516237259, "mean_lat": 5.509944272041321, "dx_m": -28.829839880345389, "dy_m": 1690.0014793408336, "n_particles": 20 }, "geometry": { "type": "Point", "coordinates": [ -0.323248651623726, 5.509944272041321 ] } },
{ "type": "Feature", "properties": { "seed_idx": 10, "delta_h": -15.690861521388888, "mean_lon": -0.32329113185405733, "mean_lat": 5.5098661422729496, "dx_m": -109.39579498360399, "dy_m": 1670.7927238094853, "n_particles": 20 }, "geometry": { "type": "Point", "coordinates": [ -0.323291131854057, 5.509866142272949 ] } },
{ "type": "Feature", "properties": { "seed_idx": 11, "delta_h": -15.690861521388888, "mean_lon": -0.32252041697502137, "mean_lat": 5.5107419729232792, "dx_m": -158.93575313373003, "dy_m": 1814.1304231911199, "n_particles": 20 }, "geometry": { "type": "Point", "coordinates": [ -0.322520416975021, 5.510741972923279 ] } },
{ "type": "Feature", "properties": { "seed_idx": 12, "delta_h": -15.690861521388888, "mean_lon": -0.32232412099838259, "mean_lat": 5.5108026266098022, "dx_m": -343.67516923462972, "dy_m": 1782.1216244447278, "n_particles": 20 }, "geometry": { "type": "Point", "coordinates": [ -0.322324120998382, 5.5108026266098 ] } },
{ "type": "Feature", "properties": { "seed_idx": 13, "delta_h": -15.690861521388888, "mean_lon": -0.32217958420515058, "mean_lat": 5.5112352132797238, "dx_m": -349.01620260812342, "dy_m": 1824.8676750413142, "n_particles": 20 }, "geometry": { "type": "Point", "coordinates": [ -0.32217958420515, 5.511235213279723 ] } },
{ "type": "Feature", "properties": { "seed_idx": 14, "delta_h": -15.690861521388888, "mean_lon": -0.32233964055776598, "mean_lat": 5.5112819671630859, "dx_m": -393.05776353843976, "dy_m": 1826.2003561957972, "n_particles": 20 }, "geometry": { "type": "Point", "coordinates": [ -0.322339640557767, 5.511281967163086 ] } },
{ "type": "Feature", "properties": { "seed_idx": 15, "delta_h": -15.690861521388888, "mean_lon": -0.32203142493963244, "mean_lat": 5.5117391586303714, "dx_m": -389.02738062874414, "dy_m": 1872.4400940454798, "n_particles": 20 }, "geometry": { "type": "Point", "coordinates": [ -0.322031424939633, 5.511739158630372 ] } },
{ "type": "Feature", "properties": { "seed_idx": 16, "delta_h": -15.690861521388888, "mean_lon": -0.32194881588220597, "mean_lat": 5.5114578008651733, "dx_m": -439.51856287533883, "dy_m": 1822.1315170013113, "n_particles": 20 }, "geometry": { "type": "Point", "coordinates": [ -0.321948815882205, 5.511457800865173 ] } },
{ "type": "Feature", "properties": { "seed_idx": 17, "delta_h": -15.690861521388888, "mean_lon": -0.32089199423789977, "mean_lat": 5.5103182315826418, "dx_m": -105.78671327128541, "dy_m": 1406.76514338376, "n_particles": 20 }, "geometry": { "type": "Point", "coordinates": [ -0.320891994237899, 5.510318231582643 ] } },
{ "type": "Feature", "properties": { "seed_idx": 18, "delta_h": -15.690861521388888, "mean_lon": -0.32211340367794039, "mean_lat": 5.5106758117675785, "dx_m": -449.4360537645407, "dy_m": 1389.0464417813346, "n_particles": 20 }, "geometry": { "type": "Point", "coordinates": [ -0.322113403677941, 5.510675811767578 ] } },
{ "type": "Feature", "properties": { "seed_idx": 19, "delta_h": -15.690861521388888, "mean_lon": -0.32244814336299898, "mean_lat": 5.5103574991226196, "dx_m": -579.89232657977846, "dy_m": 1360.5228284124751, "n_particles": 20 }, "geometry": { "type": "Point", "coordinates": [ -0.322448143362999, 5.51035749912262 ] } },
{ "type": "Feature", "properties": { "seed_idx": 20, "delta_h": -15.690861521388888, "mean_lon": -0.32227280288934707, "mean_lat": 5.510459995269775, "dx_m": -586.07257178716827, "dy_m": 1293.8649321722332, "n_particles": 20 }, "geometry": { "type": "Point", "coordinates": [ -0.322272802889348, 5.510459995269774 ] } },
{ "type": "Feature", "properties": { "seed_idx": 21, "delta_h": -15.690861521388888, "mean_lon": -0.32248523831367493, "mean_lat": 5.5103341341018677, "dx_m": -755.90856905211695, "dy_m": 1265.6928247996839, "n_particles": 20 }, "geometry": { "type": "Point", "coordinates": [ -0.322485238313675, 5.510334134101867 ] } },
{ "type": "Feature", "properties": { "seed_idx": 22, "delta_h": -15.690861521388888, "mean_lon": -0.32290364503860475, "mean_lat": 5.5099787235260012, "dx_m": -887.50652519636787, "dy_m": 1132.8598174882354, "n_particles": 20 }, "geometry": { "type": "Point", "coordinates": [ -0.322903645038606, 5.509978723525999 ] } },
{ "type": "Feature", "properties": { "seed_idx": 23, "delta_h": -15.690861521388888, "mean_lon": -0.32219133377075193, "mean_lat": 5.5100621700286867, "dx_m": -934.47967889823485, "dy_m": 1132.4092369532445, "n_particles": 20 }, "geometry": { "type": "Point", "coordinates": [ -0.322191333770752, 5.510062170028685 ] } },
{ "type": "Feature", "properties": { "seed_idx": 24, "delta_h": -15.690861521388888, "mean_lon": -0.32208852618932726, "mean_lat": 5.5099193572998049, "dx_m": -934.0126735442318, "dy_m": 1127.9024666354526, "n_particles": 20 }, "geometry": { "type": "Point", "coordinates": [ -0.322088526189327, 5.509919357299805 ] } },
{ "type": "Feature", "properties": { "seed_idx": 25, "delta_h": -15.690861521388888, "mean_lon": -0.32148616909980776, "mean_lat": 5.5100301504135132, "dx_m": -956.93400656071026, "dy_m": 1105.445448496379, "n_particles": 20 }, "geometry": { "type": "Point", "coordinates": [ -0.321486169099808, 5.510030150413514 ] } },
{ "type": "Feature", "properties": { "seed_idx": 26, "delta_h": -15.690861521388888, "mean_lon": -0.3210433006286621, "mean_lat": 5.5102418899536136, "dx_m": -921.46542010665871, "dy_m": 1134.5016255317023, "n_particles": 20 }, "geometry": { "type": "Point", "coordinates": [ -0.321043300628662, 5.510241889953615 ] } },
{ "type": "Feature", "properties": { "seed_idx": 27, "delta_h": -15.690861521388888, "mean_lon": -0.32063747495412825, "mean_lat": 5.5098240375518799, "dx_m": -889.80270617909264, "dy_m": 1096.419324726332, "n_particles": 20 }, "geometry": { "type": "Point", "coordinates": [ -0.320637474954128, 5.50982403755188 ] } },
{ "type": "Feature", "properties": { "seed_idx": 28, "delta_h": -15.690861521388888, "mean_lon": -0.32105801552534102, "mean_lat": 5.509621262550354, "dx_m": -1282.2017827308737, "dy_m": 856.14830106170848, "n_particles": 20 }, "geometry": { "type": "Point", "coordinates": [ -0.321058015525342, 5.509621262550353 ] } },
{ "type": "Feature", "properties": { "seed_idx": 29, "delta_h": -15.690861521388888, "mean_lon": -0.32115831673145295, "mean_lat": 5.5094208955764774, "dx_m": -1386.4981111744419, "dy_m": 791.2396402428858, "n_particles": 20 }, "geometry": { "type": "Point", "coordinates": [ -0.321158316731452, 5.509420895576478 ] } },
{ "type": "Feature", "properties": { "seed_idx": 30, "delta_h": -15.690861521388888, "mean_lon": -0.32224959582090379, "mean_lat": 5.5090332269668583, "dx_m": -1722.1190405599773, "dy_m": 775.97721865284257, "n_particles": 20 }, "geometry": { "type": "Point", "coordinates": [ -0.322249595820904, 5.509033226966858 ] } },
{ "type": "Feature", "properties": { "seed_idx": 31, "delta_h": -15.690861521388888, "mean_lon": -0.32206796109676361, "mean_lat": 5.5091151714324953, "dx_m": -1831.7702889950015, "dy_m": 734.99710724200122, "n_particles": 20 }, "geometry": { "type": "Point", "coordinates": [ -0.322067961096763, 5.509115171432494 ] } },
{ "type": "Feature", "properties": { "seed_idx": 32, "delta_h": -15.690861521388888, "mean_lon": -0.32225227653980254, "mean_lat": 5.5090552091598513, "dx_m": -1871.2947180190822, "dy_m": 757.33257808536291, "n_particles": 20 }, "geometry": { "type": "Point", "coordinates": [ -0.322252276539802, 5.509055209159852 ] } },
{ "type": "Feature", "properties": { "seed_idx": 33, "delta_h": -15.690861521388888, "mean_lon": -0.32259120196104052, "mean_lat": 5.5087140083312987, "dx_m": -1929.250727212755, "dy_m": 741.1756595306797, "n_particles": 20 }, "geometry": { "type": "Point", "coordinates": [ -0.32259120196104, 5.508714008331299 ] } },
{ "type": "Feature", "properties": { "seed_idx": 34, "delta_h": -15.690861521388888, "mean_lon": -0.32221298366785051, "mean_lat": 5.5086252927780155, "dx_m": -1913.6013047121232, "dy_m": 741.62999119586311, "n_particles": 20 }, "geometry": { "type": "Point", "coordinates": [ -0.322212983667851, 5.508625292778015 ] } },
{ "type": "Feature", "properties": { "seed_idx": 35, "delta_h": -15.690861521388888, "mean_lon": -0.32182833105325698, "mean_lat": 5.5086802244186401, "dx_m": -1868.5846939685289, "dy_m": 703.27672571723815, "n_particles": 20 }, "geometry": { "type": "Point", "coordinates": [ -0.321828331053257, 5.508680224418639 ] } },
{ "type": "Feature", "properties": { "seed_idx": 36, "delta_h": -15.690861521388888, "mean_lon": -0.32175586223602293, "mean_lat": 5.5085013151168827, "dx_m": -1875.7078847545199, "dy_m": 664.31694956531283, "n_particles": 20 }, "geometry": { "type": "Point", "coordinates": [ -0.321755862236023, 5.508501315116884 ] } },
{ "type": "Feature", "properties": { "seed_idx": 37, "delta_h": -15.690861521388888, "mean_lon": -0.32117692679166793, "mean_lat": 5.508622097969055, "dx_m": -1798.3243619183777, "dy_m": 654.71170855930541, "n_particles": 20 }, "geometry": { "type": "Point", "coordinates": [ -0.321176926791668, 5.508622097969054 ] } },
{ "type": "Feature", "properties": { "seed_idx": 38, "delta_h": -15.690861521388888, "mean_lon": -0.32086334079504014, "mean_lat": 5.5089411258697512, "dx_m": -1767.2470133713214, "dy_m": 826.42673530685715, "n_particles": 20 }, "geometry": { "type": "Point", "coordinates": [ -0.32086334079504, 5.508941125869752 ] } },
{ "type": "Feature", "properties": { "seed_idx": 39, "delta_h": -15.690861521388888, "mean_lon": -0.32079332321882248, "mean_lat": 5.509111380577087, "dx_m": -1783.072191906278, "dy_m": 875.80226846749429, "n_particles": 20 }, "geometry": { "type": "Point", "coordinates": [ -0.320793323218823, 5.509111380577086 ] } },
{ "type": "Feature", "properties": { "seed_idx": 40, "delta_h": -15.690861521388888, "mean_lon": -0.32030523270368577, "mean_lat": 5.5092142105102537, "dx_m": -1888.0498876752099, "dy_m": 1018.6056749960408, "n_particles": 20 }, "geometry": { "type": "Point", "coordinates": [ -0.320305232703686, 5.509214210510254 ] } },
{ "type": "Feature", "properties": { "seed_idx": 41, "delta_h": -15.690861521388888, "mean_lon": -0.32005781233310698, "mean_lat": 5.5095496416091922, "dx_m": -1903.2318914231146, "dy_m": 1077.5178017157596, "n_particles": 20 }, "geometry": { "type": "Point", "coordinates": [ -0.320057812333108, 5.509549641609192 ] } },
{ "type": "Feature", "properties": { "seed_idx": 42, "delta_h": -15.690861521388888, "mean_lon": -0.31973089426755907, "mean_lat": 5.5096101522445675, "dx_m": -2337.689116628957, "dy_m": 531.33250229968689, "n_particles": 20 }, "geometry": { "type": "Point", "coordinates": [ -0.319730894267559, 5.509610152244568 ] } },
{ "type": "Feature", "properties": { "seed_idx": 43, "delta_h": -15.690861521388888, "mean_lon": -0.31811873465776441, "mean_lat": 5.5092514514923092, "dx_m": -2124.4202815321041, "dy_m": 652.18893864681013, "n_particles": 20 }, "geometry": { "type": "Point", "coordinates": [ -0.318118734657764, 5.509251451492308 ] } },
{ "type": "Feature", "properties": { "seed_idx": 44, "delta_h": -15.690861521388888, "mean_lon": -0.31889588385820389, "mean_lat": 5.5096086502075199, "dx_m": -2267.2144658582984, "dy_m": 739.16965252126101, "n_particles": 20 }, "geometry": { "type": "Point", "coordinates": [ -0.318895883858205, 5.50960865020752 ] } },
{ "type": "Feature", "properties": { "seed_idx": 45, "delta_h": -15.690861521388888, "mean_lon": -0.31920993924140928, "mean_lat": 5.509657621383667, "dx_m": -2210.5258116193581, "dy_m": 848.32554547500331, "n_particles": 20 }, "geometry": { "type": "Point", "coordinates": [ -0.319209939241408, 5.509657621383666 ] } },
{ "type": "Feature", "properties": { "seed_idx": 46, "delta_h": -15.690861521388888, "mean_lon": -0.31954708248376845, "mean_lat": 5.5096937417984009, "dx_m": -2230.6467451048084, "dy_m": 906.15848708024714, "n_particles": 20 }, "geometry": { "type": "Point", "coordinates": [ -0.319547082483768, 5.509693741798401 ] } },
{ "type": "Feature", "properties": { "seed_idx": 47, "delta_h": -15.690861521388888, "mean_lon": -0.31968764364719393, "mean_lat": 5.5102811574935915, "dx_m": -2198.2835853684228, "dy_m": 1122.1562521264423, "n_particles": 20 }, "geometry": { "type": "Point", "coordinates": [ -0.319687643647195, 5.510281157493591 ] } },
{ "type": "Feature", "properties": { "seed_idx": 48, "delta_h": -15.690861521388888, "mean_lon": -0.31987787485122682, "mean_lat": 5.5105260133743288, "dx_m": -2273.0440917912638, "dy_m": 1202.1121310854796, "n_particles": 20 }, "geometry": { "type": "Point", "coordinates": [ -0.319877874851226, 5.51052601337433 ] } },
{ "type": "Feature", "properties": { "seed_idx": 49, "delta_h": -15.690861521388888, "mean_lon": -0.32061056792736053, "mean_lat": 5.5107781171798704, "dx_m": -2492.3733482265379, "dy_m": 1379.8674483193317, "n_particles": 20 }, "geometry": { "type": "Point", "coordinates": [ -0.320610567927361, 5.510778117179869 ] } },
{ "type": "Feature", "properties": { "seed_idx": 50, "delta_h": -15.690861521388888, "mean_lon": -0.32100314795970919, "mean_lat": 5.5111965179443363, "dx_m": -2521.653099634219, "dy_m": 1458.1013359784847, "n_particles": 20 }, "geometry": { "type": "Point", "coordinates": [ -0.32100314795971, 5.511196517944337 ] } },
{ "type": "Feature", "properties": { "seed_idx": 51, "delta_h": -15.690861521388888, "mean_lon": -0.32095907628536224, "mean_lat": 5.5114755392074581, "dx_m": -2498.0383332504425, "dy_m": 1515.3192019212293, "n_particles": 20 }, "geometry": { "type": "Point", "coordinates": [ -0.320959076285363, 5.511475539207458 ] } },
{ "type": "Feature", "properties": { "seed_idx": 52, "delta_h": -15.690861521388888, "mean_lon": -0.32127723991870882, "mean_lat": 5.5120655298233032, "dx_m": -2646.6620359681547, "dy_m": 1712.5661423474085, "n_particles": 20 }, "geometry": { "type": "Point", "coordinates": [ -0.321277239918709, 5.512065529823303 ] } },
{ "type": "Feature", "properties": { "seed_idx": 53, "delta_h": -15.690861521388888, "mean_lon": -0.32173800617456438, "mean_lat": 5.5124486923217777, "dx_m": -2728.632384608034, "dy_m": 1758.9708135141991, "n_particles": 20 }, "geometry": { "type": "Point", "coordinates": [ -0.321738006174564, 5.512448692321777 ] } },
{ "type": "Feature", "properties": { "seed_idx": 54, "delta_h": -15.690861521388888, "mean_lon": -0.32162921577692033, "mean_lat": 5.5124829769134518, "dx_m": -2739.9595636080485, "dy_m": 1764.1707090446725, "n_particles": 20 }, "geometry": { "type": "Point", "coordinates": [ -0.321629215776921, 5.51248297691345 ] } },
{ "type": "Feature", "properties": { "seed_idx": 55, "delta_h": -15.690861521388888, "mean_lon": -0.32214156687259676, "mean_lat": 5.5121932268142704, "dx_m": -2583.36061680282, "dy_m": 1722.6136749137659, "n_particles": 20 }, "geometry": { "type": "Point", "coordinates": [ -0.322141566872596, 5.512193226814271 ] } },
{ "type": "Feature", "properties": { "seed_idx": 56, "delta_h": -15.690861521388888, "mean_lon": -0.32229890674352646, "mean_lat": 5.511980724334717, "dx_m": -3016.7341331022326, "dy_m": 1656.3296521557495, "n_particles": 20 }, "geometry": { "type": "Point", "coordinates": [ -0.322298906743527, 5.511980724334716 ] } },
{ "type": "Feature", "properties": { "seed_idx": 57, "delta_h": -15.690861521388888, "mean_lon": -0.32284343391656878, "mean_lat": 5.5117010354995726, "dx_m": -3114.8657835640479, "dy_m": 1607.447176570422, "n_particles": 20 }, "geometry": { "type": "Point", "coordinates": [ -0.322843433916569, 5.511701035499573 ] } },
{ "type": "Feature", "properties": { "seed_idx": 58, "delta_h": -15.690861521388888, "mean_lon": -0.32335054427385329, "mean_lat": 5.5114193201065067, "dx_m": -3219.0440471275942, "dy_m": 1552.483127161162, "n_particles": 20 }, "geometry": { "type": "Point", "coordinates": [ -0.323350544273853, 5.511419320106507 ] } },
{ "type": "Feature", "properties": { "seed_idx": 59, "delta_h": -15.690861521388888, "mean_lon": -0.32331803292036054, "mean_lat": 5.5113884687423704, "dx_m": -3272.2544901061337, "dy_m": 1521.1362751043634, "n_particles": 20 }, "geometry": { "type": "Point", "coordinates": [ -0.323318032920361, 5.51138846874237 ] } },
{ "type": "Feature", "properties": { "seed_idx": 60, "delta_h": -15.690861521388888, "mean_lon": -0.32384923845529556, "mean_lat": 5.511090564727783, "dx_m": -3397.9762169835158, "dy_m": 1440.9638877740363, "n_particles": 20 }, "geometry": { "type": "Point", "coordinates": [ -0.323849238455296, 5.511090564727783 ] } },
{ "type": "Feature", "properties": { "seed_idx": 61, "delta_h": -15.690861521388888, "mean_lon": -0.3268109396100044, "mean_lat": 5.5109119415283203, "dx_m": -3753.9398784795776, "dy_m": 1397.7370146291796, "n_particles": 20 }, "geometry": { "type": "Point", "coordinates": [ -0.326810939610004, 5.510911941528319 ] } },
{ "type": "Feature", "properties": { "seed_idx": 62, "delta_h": -15.690861521388888, "mean_lon": -0.32525000274181365, "mean_lat": 5.5107065439224243, "dx_m": -3618.6540762500372, "dy_m": 1359.5803827530472, "n_particles": 20 }, "geometry": { "type": "Point", "coordinates": [ -0.325250002741812, 5.510706543922424 ] } },
{ "type": "Feature", "properties": { "seed_idx": 63, "delta_h": -15.690861521388888, "mean_lon": -0.32527718245983123, "mean_lat": 5.5108053207397463, "dx_m": -3650.9317636169726, "dy_m": 1371.8225314798765, "n_particles": 20 }, "geometry": { "type": "Point", "coordinates": [ -0.325277182459831, 5.510805320739746 ] } },
{ "type": "Feature", "properties": { "seed_idx": 64, "delta_h": -15.690861521388888, "mean_lon": -0.32555686980485915, "mean_lat": 5.5107833862304689, "dx_m": -3702.6039041636977, "dy_m": 1418.7161685836036, "n_particles": 20 }, "geometry": { "type": "Point", "coordinates": [ -0.325556869804859, 5.510783386230468 ] } },
{ "type": "Feature", "properties": { "seed_idx": 65, "delta_h": -15.690861521388888, "mean_lon": -0.32652257233858106, "mean_lat": 5.5120598077774048, "dx_m": -3832.5013438677415, "dy_m": 1620.5966892520664, "n_particles": 20 }, "geometry": { "type": "Point", "coordinates": [ -0.326522572338582, 5.512059807777405 ] } },
{ "type": "Feature", "properties": { "seed_idx": 66, "delta_h": -15.690861521388888, "mean_lon": -0.32646387368440627, "mean_lat": 5.5123193740844725, "dx_m": -3846.7456343726953, "dy_m": 1688.6073308942141, "n_particles": 20 }, "geometry": { "type": "Point", "coordinates": [ -0.326463873684406, 5.512319374084472 ] } },
{ "type": "Feature", "properties": { "seed_idx": 67, "delta_h": -15.690861521388888, "mean_lon": -0.32646722048521043, "mean_lat": 5.5123449087142946, "dx_m": -3893.9948703333503, "dy_m": 1720.3681881349767, "n_particles": 20 }, "geometry": { "type": "Point", "coordinates": [ -0.32646722048521, 5.512344908714295 ] } },
{ "type": "Feature", "properties": { "seed_idx": 68, "delta_h": -15.690861521388888, "mean_lon": -0.32762735933065412, "mean_lat": 5.5139988422393795, "dx_m": -4084.8985853880877, "dy_m": 1925.8551962187048, "n_particles": 20 }, "geometry": { "type": "Point", "coordinates": [ -0.327627359330654, 5.51399884223938 ] } },
{ "type": "Feature", "properties": { "seed_idx": 69, "delta_h": -15.690861521388888, "mean_lon": -0.32841923683881757, "mean_lat": 5.5142090797424315, "dx_m": -4197.87990299589, "dy_m": 2002.5386484957999, "n_particles": 20 }, "geometry": { "type": "Point", "coordinates": [ -0.328419236838819, 5.514209079742431 ] } },
{ "type": "Feature", "properties": { "seed_idx": 70, "delta_h": -15.690861521388888, "mean_lon": -0.3281927525997162, "mean_lat": 5.5155026435852053, "dx_m": -4196.9472258582246, "dy_m": 2183.5833168501267, "n_particles": 20 }, "geometry": { "type": "Point", "coordinates": [ -0.328192752599716, 5.515502643585205 ] } },
{ "type": "Feature", "properties": { "seed_idx": 71, "delta_h": -15.690861521388888, "mean_lon": -0.32802066504955291, "mean_lat": 5.5161865711212155, "dx_m": -4206.0325644640252, "dy_m": 2276.7152036208427, "n_particles": 20 }, "geometry": { "type": "Point", "coordinates": [ -0.328020665049553, 5.516186571121214 ] } },
{ "type": "Feature", "properties": { "seed_idx": 72, "delta_h": -15.690861521388888, "mean_lon": -0.32723616212606432, "mean_lat": 5.5170989513397215, "dx_m": -4144.4047049344517, "dy_m": 2395.4454884001752, "n_particles": 20 }, "geometry": { "type": "Point", "coordinates": [ -0.327236162126064, 5.517098951339722 ] } },
{ "type": "Feature", "properties": { "seed_idx": 73, "delta_h": -15.690861521388888, "mean_lon": -0.32783999294042587, "mean_lat": 5.51749210357666, "dx_m": -4312.4421644845279, "dy_m": 2464.4279019541573, "n_particles": 20 }, "geometry": { "type": "Point", "coordinates": [ -0.327839992940426, 5.517492103576659 ] } },
{ "type": "Feature", "properties": { "seed_idx": 74, "delta_h": -15.690861521388888, "mean_lon": -0.32800951451063154, "mean_lat": 5.5188588857650753, "dx_m": -4125.8329176480183, "dy_m": 2580.0881226989441, "n_particles": 20 }, "geometry": { "type": "Point", "coordinates": [ -0.328009514510631, 5.518858885765075 ] } },
{ "type": "Feature", "properties": { "seed_idx": 75, "delta_h": -15.690861521388888, "mean_lon": -0.33068767786025999, "mean_lat": 5.5141352653503422, "dx_m": -4379.6101693632081, "dy_m": 2067.8898166981526, "n_particles": 20 }, "geometry": { "type": "Point", "coordinates": [ -0.330687677860259, 5.514135265350341 ] } },
{ "type": "Feature", "properties": { "seed_idx": 76, "delta_h": -15.690861521388888, "mean_lon": -0.3307843878865242, "mean_lat": 5.5142780303955075, "dx_m": -4361.3081848227885, "dy_m": 2108.5486837655772, "n_particles": 20 }, "geometry": { "type": "Point", "coordinates": [ -0.330784387886526, 5.514278030395508 ] } },
{ "type": "Feature", "properties": { "seed_idx": 77, "delta_h": -15.690861521388888, "mean_lon": -0.3323106527328491, "mean_lat": 5.5156033754348757, "dx_m": -4491.881429807283, "dy_m": 2279.4067772020353, "n_particles": 20 }, "geometry": { "type": "Point", "coordinates": [ -0.332310652732849, 5.515603375434875 ] } },
{ "type": "Feature", "properties": { "seed_idx": 78, "delta_h": -15.690861521388888, "mean_lon": -0.33254653811454771, "mean_lat": 5.5157475709915165, "dx_m": -4486.0384257243713, "dy_m": 2308.5085513963131, "n_particles": 20 }, "geometry": { "type": "Point", "coordinates": [ -0.332546538114548, 5.515747570991516 ] } },
{ "type": "Feature", "properties": { "seed_idx": 79, "delta_h": -15.690861521388888, "mean_lon": -0.33317585140466688, "mean_lat": 5.5167863130569454, "dx_m": -4528.6769042387605, "dy_m": 2443.6716704831924, "n_particles": 20 }, "geometry": { "type": "Point", "coordinates": [ -0.333175851404667, 5.516786313056945 ] } },
{ "type": "Feature", "properties": { "seed_idx": 80, "delta_h": -15.690861521388888, "mean_lon": -0.33289172351360319, "mean_lat": 5.5166655778884888, "dx_m": -4457.7008979460225, "dy_m": 2435.0031871295068, "n_particles": 20 }, "geometry": { "type": "Point", "coordinates": [ -0.332891723513603, 5.51666557788849 ] } },
{ "type": "Feature", "properties": { "seed_idx": 81, "delta_h": -15.690861521388888, "mean_lon": -0.33284209221601485, "mean_lat": 5.5166763782501222, "dx_m": -4415.7122937232489, "dy_m": 2440.760573418811, "n_particles": 20 }, "geometry": { "type": "Point", "coordinates": [ -0.332842092216016, 5.516676378250123 ] } },
{ "type": "Feature", "properties": { "seed_idx": 82, "delta_h": -15.690861521388888, "mean_lon": -0.3329359397292137, "mean_lat": 5.5161085367202762, "dx_m": -4377.6561572421342, "dy_m": 2381.0103556117974, "n_particles": 20 }, "geometry": { "type": "Point", "coordinates": [ -0.332935939729215, 5.516108536720276 ] } },
{ "type": "Feature", "properties": { "seed_idx": 83, "delta_h": -15.690861521388888, "mean_lon": -0.3330590635538101, "mean_lat": 5.5163103818893431, "dx_m": -4331.5113100432791, "dy_m": 2399.1838607463287, "n_particles": 20 }, "geometry": { "type": "Point", "coordinates": [ -0.33305906355381, 5.516310381889343 ] } },
{ "type": "Feature", "properties": { "seed_idx": 84, "delta_h": -15.690861521388888, "mean_lon": -0.33327233642339704, "mean_lat": 5.5164433479309078, "dx_m": -4363.8690549102612, "dy_m": 2387.5184420255246, "n_particles": 20 }, "geometry": { "type": "Point", "coordinates": [ -0.333272336423398, 5.516443347930906 ] } },
{ "type": "Feature", "properties": { "seed_idx": 85, "delta_h": -15.690861521388888, "mean_lon": -0.33325378000736239, "mean_lat": 5.5167793035507202, "dx_m": -4396.9620746854926, "dy_m": 2409.9711402263492, "n_particles": 20 }, "geometry": { "type": "Point", "coordinates": [ -0.333253780007363, 5.51677930355072 ] } },
{ "type": "Feature", "properties": { "seed_idx": 86, "delta_h": -15.690861521388888, "mean_lon": -0.33447309732437136, "mean_lat": 5.5162235260009762, "dx_m": -4575.6002854944672, "dy_m": 2325.804521883605, "n_particles": 20 }, "geometry": { "type": "Point", "coordinates": [ -0.334473097324372, 5.516223526000974 ] } },
{ "type": "Feature", "properties": { "seed_idx": 87, "delta_h": -15.690861521388888, "mean_lon": -0.3359683692455292, "mean_lat": 5.5166650533676149, "dx_m": -4820.4466232247651, "dy_m": 2366.2772424506256, "n_particles": 20 }, "geometry": { "type": "Point", "coordinates": [ -0.335968369245528, 5.516665053367616 ] } },
{ "type": "Feature", "properties": { "seed_idx": 88, "delta_h": -15.690861521388888, "mean_lon": -0.33688841611146925, "mean_lat": 5.5160967588424681, "dx_m": -4964.3818734068191, "dy_m": 2269.2216945081018, "n_particles": 20 }, "geometry": { "type": "Point", "coordinates": [ -0.336888416111469, 5.516096758842468 ] } },
{ "type": "Feature", "properties": { "seed_idx": 89, "delta_h": -15.690861521388888, "mean_lon": -0.33915022313594817, "mean_lat": 5.5143652677536013, "dx_m": -5275.5370409385068, "dy_m": 2049.9855309999548, "n_particles": 20 }, "geometry": { "type": "Point", "coordinates": [ -0.339150223135948, 5.5143652677536 ] } },
{ "type": "Feature", "properties": { "seed_idx": 90, "delta_h": -15.690861521388888, "mean_lon": -0.33940503746271133, "mean_lat": 5.5144323110580444, "dx_m": -5246.6765303690918, "dy_m": 2015.270738869207, "n_particles": 20 }, "geometry": { "type": "Point", "coordinates": [ -0.339405037462712, 5.514432311058044 ] } },
{ "type": "Feature", "properties": { "seed_idx": 91, "delta_h": -15.690861521388888, "mean_lon": -0.3393317237496376, "mean_lat": 5.5144807100296021, "dx_m": -5164.1691597525496, "dy_m": 2038.489302498172, "n_particles": 20 }, "geometry": { "type": "Point", "coordinates": [ -0.339331723749637, 5.514480710029601 ] } },
{ "type": "Feature", "properties": { "seed_idx": 92, "delta_h": -15.690861521388888, "mean_lon": -0.34002622514963149, "mean_lat": 5.5140611886978146, "dx_m": -5154.8375647920184, "dy_m": 1999.399311895133, "n_particles": 20 }, "geometry": { "type": "Point", "coordinates": [ -0.340026225149632, 5.514061188697815 ] } },
{ "type": "Feature", "properties": { "seed_idx": 93, "delta_h": -15.690861521388888, "mean_lon": -0.34025132209062575, "mean_lat": 5.5142094850540158, "dx_m": -5179.8699105663691, "dy_m": 2015.698083929834, "n_particles": 20 }, "geometry": { "type": "Point", "coordinates": [ -0.340251322090625, 5.514209485054017 ] } },
{ "type": "Feature", "properties": { "seed_idx": 94, "delta_h": -15.690861521388888, "mean_lon": -0.341223469376564, "mean_lat": 5.5141875505447384, "dx_m": -5185.4559322058922, "dy_m": 2020.5396367184585, "n_particles": 20 }, "geometry": { "type": "Point", "coordinates": [ -0.341223469376564, 5.514187550544738 ] } },
{ "type": "Feature", "properties": { "seed_idx": 95, "delta_h": -15.690861521388888, "mean_lon": -0.34176445901393893, "mean_lat": 5.5132894039154055, "dx_m": -5326.5770756126149, "dy_m": 1875.3344205307076, "n_particles": 20 }, "geometry": { "type": "Point", "coordinates": [ -0.341764459013939, 5.513289403915405 ] } },
{ "type": "Feature", "properties": { "seed_idx": 96, "delta_h": -15.690861521388888, "mean_lon": -0.34305323213338851, "mean_lat": 5.5133473157882689, "dx_m": -5491.3733611749485, "dy_m": 1872.2617760916473, "n_particles": 20 }, "geometry": { "type": "Point", "coordinates": [ -0.343053232133389, 5.513347315788269 ] } },
{ "type": "Feature", "properties": { "seed_idx": 97, "delta_h": -15.690861521388888, "mean_lon": -0.34302729219198225, "mean_lat": 5.5124689579010013, "dx_m": -5488.0637693599565, "dy_m": 1775.0774123540614, "n_particles": 20 }, "geometry": { "type": "Point", "coordinates": [ -0.343027292191982, 5.512468957901001 ] } },
{ "type": "Feature", "properties": { "seed_idx": 98, "delta_h": -15.690861521388888, "mean_lon": -0.34373991340398791, "mean_lat": 5.5126676082611086, "dx_m": -5606.5237378439633, "dy_m": 1777.5822783156764, "n_particles": 20 }, "geometry": { "type": "Point", "coordinates": [ -0.343739913403988, 5.512667608261109 ] } },
{ "type": "Feature", "properties": { "seed_idx": 99, "delta_h": -15.690861521388888, "mean_lon": -0.34545455873012543, "mean_lat": 5.5121103525161743, "dx_m": -5952.6690632606624, "dy_m": 1721.649946243153, "n_particles": 20 }, "geometry": { "type": "Point", "coordinates": [ -0.345454558730126, 5.512110352516174 ] } },
{ "type": "Feature", "properties": { "seed_idx": 100, "delta_h": -15.690861521388888, "mean_lon": -0.34325212091207502, "mean_lat": 5.5095343112945558, "dx_m": -5595.6824507353595, "dy_m": 1324.5020817203913, "n_particles": 20 }, "geometry": { "type": "Point", "coordinates": [ -0.343252120912075, 5.509534311294555 ] } },
{ "type": "Feature", "properties": { "seed_idx": 101, "delta_h": -15.690861521388888, "mean_lon": -0.3437319338321686, "mean_lat": 5.5093522787094118, "dx_m": -5616.5936318302993, "dy_m": 1288.2355510486523, "n_particles": 20 }, "geometry": { "type": "Point", "coordinates": [ -0.343731933832169, 5.509352278709411 ] } },
{ "type": "Feature", "properties": { "seed_idx": 102, "delta_h": -15.690861521388888, "mean_lon": -0.34424802660942078, "mean_lat": 5.5091859340667728, "dx_m": -5643.2928041495616, "dy_m": 1319.2648924178211, "n_particles": 20 }, "geometry": { "type": "Point", "coordinates": [ -0.344248026609421, 5.509185934066773 ] } },
{ "type": "Feature", "properties": { "seed_idx": 103, "delta_h": -15.690861521388888, "mean_lon": -0.34403356760740278, "mean_lat": 5.5092557191848757, "dx_m": -5619.5475373212248, "dy_m": 1327.0930571825011, "n_particles": 20 }, "geometry": { "type": "Point", "coordinates": [ -0.344033567607403, 5.509255719184875 ] } },
{ "type": "Feature", "properties": { "seed_idx": 104, "delta_h": -15.690861521388888, "mean_lon": -0.34412989020347595, "mean_lat": 5.5093577146530155, "dx_m": -5602.8009360462893, "dy_m": 1398.2123576527229, "n_particles": 20 }, "geometry": { "type": "Point", "coordinates": [ -0.344129890203476, 5.509357714653015 ] } },
{ "type": "Feature", "properties": { "seed_idx": 105, "delta_h": -15.690861521388888, "mean_lon": -0.34592473804950713, "mean_lat": 5.5088066339492796, "dx_m": -5801.54580179404, "dy_m": 1336.3450665114215, "n_particles": 20 }, "geometry": { "type": "Point", "coordinates": [ -0.345924738049507, 5.50880663394928 ] } },
{ "type": "Feature", "properties": { "seed_idx": 106, "delta_h": -15.690861521388888, "mean_lon": -0.34718645960092542, "mean_lat": 5.509368896484375, "dx_m": -5826.7476139978971, "dy_m": 1485.909176803194, "n_particles": 20 }, "geometry": { "type": "Point", "coordinates": [ -0.347186459600925, 5.509368896484375 ] } },
{ "type": "Feature", "properties": { "seed_idx": 107, "delta_h": -15.690861521388888, "mean_lon": -0.34780002534389498, "mean_lat": 5.5093302249908449, "dx_m": -5864.1590176715981, "dy_m": 1496.0403446969576, "n_particles": 20 }, "geometry": { "type": "Point", "coordinates": [ -0.347800025343894, 5.509330224990845 ] } },
{ "type": "Feature", "properties": { "seed_idx": 108, "delta_h": -15.690861521388888, "mean_lon": -0.34893342852592468, "mean_lat": 5.5101680755615234, "dx_m": -5964.1485711792484, "dy_m": 1630.5801850984572, "n_particles": 20 }, "geometry": { "type": "Point", "coordinates": [ -0.348933428525924, 5.510168075561523 ] } },
{ "type": "Feature", "properties": { "seed_idx": 109, "delta_h": -15.690861521388888, "mean_lon": -0.34943391531705859, "mean_lat": 5.510190033912659, "dx_m": -6070.7686934350058, "dy_m": 1632.5320520397509, "n_particles": 20 }, "geometry": { "type": "Point", "coordinates": [ -0.349433915317058, 5.510190033912658 ] } },
{ "type": "Feature", "properties": { "seed_idx": 110, "delta_h": -15.690861521388888, "mean_lon": -0.35046667605638504, "mean_lat": 5.5105142831802372, "dx_m": -6185.4420659580501, "dy_m": 1667.9036046412075, "n_particles": 20 }, "geometry": { "type": "Point", "coordinates": [ -0.350466676056385, 5.510514283180236 ] } },
{ "type": "Feature", "properties": { "seed_idx": 111, "delta_h": -15.690861521388888, "mean_lon": -0.35074972957372663, "mean_lat": 5.5101672172546383, "dx_m": -6203.4008807535283, "dy_m": 1604.6420031617163, "n_particles": 20 }, "geometry": { "type": "Point", "coordinates": [ -0.350749729573727, 5.510167217254638 ] } },
{ "type": "Feature", "properties": { "seed_idx": 112, "delta_h": -15.690861521388888, "mean_lon": -0.35201139152050021, "mean_lat": 5.5094673156738283, "dx_m": -6258.1170950289816, "dy_m": 1659.5839678331977, "n_particles": 20 }, "geometry": { "type": "Point", "coordinates": [ -0.3520113915205, 5.509467315673829 ] } },
{ "type": "Feature", "properties": { "seed_idx": 113, "delta_h": -15.690861521388888, "mean_lon": -0.35318165123462675, "mean_lat": 5.508933734893799, "dx_m": -6391.3483676359756, "dy_m": 1618.1648218461778, "n_particles": 20 }, "geometry": { "type": "Point", "coordinates": [ -0.353181651234628, 5.508933734893798 ] } },
{ "type": "Feature", "properties": { "seed_idx": 114, "delta_h": -15.690861521388888, "mean_lon": -0.353362475335598, "mean_lat": 5.5087145328521725, "dx_m": -6552.1224092260236, "dy_m": 1571.320674183662, "n_particles": 20 }, "geometry": { "type": "Point", "coordinates": [ -0.353362475335598, 5.508714532852172 ] } },
{ "type": "Feature", "properties": { "seed_idx": 115, "delta_h": -15.690861521388888, "mean_lon": -0.35458623319864274, "mean_lat": 5.5065718173980711, "dx_m": -6498.6044998124707, "dy_m": 1225.1544797761599, "n_particles": 20 }, "geometry": { "type": "Point", "coordinates": [ -0.354586233198643, 5.50657181739807 ] } },
{ "type": "Feature", "properties": { "seed_idx": 116, "delta_h": -15.690861521388888, "mean_lon": -0.3555418148636818, "mean_lat": 5.5043892621994015, "dx_m": -6623.0810623768484, "dy_m": 955.39009905001149, "n_particles": 20 }, "geometry": { "type": "Point", "coordinates": [ -0.355541814863682, 5.5043892621994 ] } }
]
}
