{
"type": "FeatureCollection",
"name": "search_boxes_1km",
"crs": { "type": "name", "properties": { "name": "urn:ogc:def:crs:OGC:1.3:CRS84" } },
"features": [
{ "type": "Feature", "properties": { "seed_idx": 0, "delta_h": -15.690861521388888 }, "geometry": { "type": "Polygon", "coordinates": [ [ [ -0.319766879397887, 5.505174647533901 ], [ -0.319726344091821, 5.514211161834159 ], [ -0.328744684785049, 5.514251744599496 ], [ -0.328785084097762, 5.505215163398409 ], [ -0.319766879397887, 5.505174647533901 ] ] ] } },
{ "type": "Feature", "properties": { "seed_idx": 1, "delta_h": -15.690861521388888 }, "geometry": { "type": "Polygon", "coordinates": [ [ [ -0.319583262207155, 5.505096326598402 ], [ -0.31954272470588, 5.514132839557598 ], [ -0.328561062857134, 5.514173424531321 ], [ -0.328601464367101, 5.505136844666723 ], [ -0.319583262207155, 5.505096326598402 ] ] ] } },
{ "type": "Feature", "properties": { "seed_idx": 2, "delta_h": -15.690861521388888 }, "geometry": { "type": "Polygon", "coordinates": [ [ [ -0.318118436015549, 5.504042204601332 ], [ -0.318077884184393, 5.513078706988468 ], [ -0.327096195574741, 5.513119306425817 ], [ -0.327136611441657, 5.50408273709687 ], [ -0.318118436015549, 5.504042204601332 ] ] ] } },
{ "type": "Feature", "properties": { "seed_idx": 3, "delta_h": -15.690861521388888 }, "geometry": { "type": "Polygon", "coordinates": [ [ [ -0.319255291848656, 5.503799690456392 ], [ -0.319214758990672, 5.512836201369655 ], [ -0.328233075142865, 5.512876781800725 ], [ -0.328273472042182, 5.50384020397402 ], [ -0.319255291848656, 5.503799690456392 ] ] ] } },
{ "type": "Feature", "properties": { "seed_idx": 4, "delta_h": -15.690861521388888 }, "geometry": { "type": "Polygon", "coordinates": [ [ [ -0.319467095800552, 5.503867187334671 ], [ -0.319426565643066, 5.512903699801957 ], [ -0.328444884382511, 5.512944277518852 ], [ -0.328485278579544, 5.503907698143399 ], [ -0.319467095800552, 5.503867187334671 ] ] ] } },
{ "type": "Feature", "properties": { "seed_idx": 5, "delta_h": -15.690861521388888 }, "geometry": { "type": "Polygon", "coordinates": [ [ [ -0.318878388812708, 5.505039556617398 ], [ -0.318837841079232, 5.514076064353898 ], [ -0.32785617315295, 5.514116659594139 ], [ -0.327896584896855, 5.505080084934674 ], [ -0.318878388812708, 5.505039556617398 ] ] ] } },
{ "type": "Feature", "properties": { "seed_idx": 6, "delta_h": -15.690861521388888 }, "geometry": { "type": "Polygon", "coordinates": [ [ [ -0.318755706690091, 5.504847725231278 ], [ -0.318715158523088, 5.51388423211364 ], [ -0.327733486792453, 5.513924827805515 ], [ -0.327773898974746, 5.504888253997149 ], [ -0.318755706690091, 5.504847725231278 ] ] ] } },
{ "type": "Feature", "properties": { "seed_idx": 7, "delta_h": -15.690861521388888 }, "geometry": { "type": "Polygon", "coordinates": [ [ [ -0.318793138985678, 5.504975374233322 ], [ -0.318752590439123, 5.514011881355406 ], [ -0.327770920912545, 5.514052477416699 ], [ -0.327811333471175, 5.505015903369531 ], [ -0.318793138985678, 5.504975374233322 ] ] ] } },
{ "type": "Feature", "properties": { "seed_idx": 8, "delta_h": -15.690861521388888 }, "geometry": { "type": "Polygon", "coordinates": [ [ [ -0.319257848099102, 5.504774175293926 ], [ -0.319217308065021, 5.513810685931633 ], [ -0.328235638943615, 5.513851273473736 ], [ -0.328276042994606, 5.504814695922552 ], [ -0.319257848099102, 5.504774175293926 ] ] ] } },
{ "type": "Feature", "properties": { "seed_idx": 9, "delta_h": -15.690861521388888 }, "geometry": { "type": "Polygon", "coordinates": [ [ [ -0.318759793380757, 5.505405718124777 ], [ -0.318719241143565, 5.514442224868834 ], [ -0.327737577866042, 5.514482824593507 ], [ -0.327777994104539, 5.505446250923488 ], [ -0.318759793380757, 5.505405718124777 ] ] ] } },
{ "type": "Feature", "properties": { "seed_idx": 10, "delta_h": -15.690861521388888 }, "geometry": { "type": "Polygon", "coordinates": [ [ [ -0.318802273432684, 5.505327588795252 ], [ -0.318761722416057, 5.51436409587877 ], [ -0.327780058273808, 5.514404694386246 ], [ -0.327820473293678, 5.505368120377838 ], [ -0.318802273432684, 5.505327588795252 ] ] ] } },
{ "type": "Feature", "properties": { "seed_idx": 11, "delta_h": -15.690861521388888 }, "geometry": { "type": "Polygon", "coordinates": [ [ [ -0.318031563870662, 5.506203413390444 ], [ -0.317990994718748, 5.515239914478149 ], [ -0.327009338088562, 5.515280531095844 ], [ -0.327049771222113, 5.506243963063945 ], [ -0.318031563870662, 5.506203413390444 ] ] ] } },
{ "type": "Feature", "properties": { "seed_idx": 12, "delta_h": -15.690861521388888 }, "geometry": { "type": "Polygon", "coordinates": [ [ [ -0.317835269872003, 5.50626406610669 ], [ -0.317794697303662, 5.515300565716146 ], [ -0.32681304013466, 5.515341185754719 ], [ -0.326853476683205, 5.506304619196167 ], [ -0.317835269872003, 5.50626406610669 ] ] ] } },
{ "type": "Feature", "properties": { "seed_idx": 13, "delta_h": -15.690861521388888 }, "geometry": { "type": "Polygon", "coordinates": [ [ [ -0.317690733045992, 5.506696650695689 ], [ -0.317650155088252, 5.515733149099298 ], [ -0.326668503379595, 5.515773774504644 ], [ -0.326708945306762, 5.506737209148292 ], [ -0.317690733045992, 5.506696650695689 ] ] ] } },
{ "type": "Feature", "properties": { "seed_idx": 14, "delta_h": -15.690861521388888 }, "geometry": { "type": "Polygon", "coordinates": [ [ [ -0.317850787416285, 5.506743405031385 ], [ -0.317810211531773, 5.515779904611309 ], [ -0.326828561715157, 5.515820527933377 ], [ -0.326869001567853, 5.506783961404696 ], [ -0.317850787416285, 5.506743405031385 ] ] ] } },
{ "type": "Feature", "properties": { "seed_idx": 15, "delta_h": -15.690861521388888 }, "geometry": { "type": "Polygon", "coordinates": [ [ [ -0.317542573514447, 5.507200593699937 ], [ -0.317501989583536, 5.516237090849101 ], [ -0.326520344386387, 5.516277722200373 ], [ -0.32656079227416, 5.50724115809472 ], [ -0.317542573514447, 5.507200593699937 ] ] ] } },
{ "type": "Feature", "properties": { "seed_idx": 16, "delta_h": -15.690861521388888 }, "geometry": { "type": "Polygon", "coordinates": [ [ [ -0.31745996646785, 5.506919236607442 ], [ -0.317419383372521, 5.515955733227218 ], [ -0.326437733314587, 5.515996363765276 ], [ -0.326478180373868, 5.506959800186982 ], [ -0.31745996646785, 5.506919236607442 ] ] ] } },
{ "type": "Feature", "properties": { "seed_idx": 17, "delta_h": -15.690861521388888 }, "geometry": { "type": "Polygon", "coordinates": [ [ [ -0.316403161101263, 5.505779667268024 ], [ -0.316362570475405, 5.514816156369617 ], [ -0.325380895378045, 5.514856794560052 ], [ -0.325421349996884, 5.50582023847371 ], [ -0.316403161101263, 5.505779667268024 ] ] ] } },
{ "type": "Feature", "properties": { "seed_idx": 18, "delta_h": -15.690861521388888 }, "geometry": { "type": "Polygon", "coordinates": [ [ [ -0.317624555411663, 5.506137250899016 ], [ -0.317583980597645, 5.515173748979541 ], [ -0.326602319952481, 5.51521437128138 ], [ -0.326642758749976, 5.506177806246519 ], [ -0.317624555411663, 5.506137250899016 ] ] ] } },
{ "type": "Feature", "properties": { "seed_idx": 19, "delta_h": -15.690861521388888 }, "geometry": { "type": "Polygon", "coordinates": [ [ [ -0.317959292548517, 5.5058189406654 ], [ -0.317918725152051, 5.51485544133186 ], [ -0.32693706218183, 5.514896056222898 ], [ -0.3269774935696, 5.505859488610481 ], [ -0.317959292548517, 5.5058189406654 ] ] ] } },
{ "type": "Feature", "properties": { "seed_idx": 20, "delta_h": -15.690861521388888 }, "geometry": { "type": "Polygon", "coordinates": [ [ [ -0.317783953656182, 5.505921435775766 ], [ -0.317743382850263, 5.514957935107148 ], [ -0.326761720128107, 5.514998553408392 ], [ -0.326802154922839, 5.505961987126669 ], [ -0.317783953656182, 5.505921435775766 ] ] ] } },
{ "type": "Feature", "properties": { "seed_idx": 21, "delta_h": -15.690861521388888 }, "geometry": { "type": "Polygon", "coordinates": [ [ [ -0.317996387171112, 5.50579557586991 ], [ -0.317955820508387, 5.514832076819316 ], [ -0.326974157460302, 5.514872690976565 ], [ -0.3270145881149, 5.50583612308213 ], [ -0.317996387171112, 5.50579557586991 ] ] ] } },
{ "type": "Feature", "properties": { "seed_idx": 22, "delta_h": -15.690861521388888 }, "geometry": { "type": "Polygon", "coordinates": [ [ [ -0.318414790548405, 5.505440168158351 ], [ -0.318374232841846, 5.514476672326709 ], [ -0.327392567528511, 5.514517277533391 ], [ -0.327432989235663, 5.505480706430468 ], [ -0.318414790548405, 5.505440168158351 ] ] ] } },
{ "type": "Feature", "properties": { "seed_idx": 23, "delta_h": -15.690861521388888 }, "geometry": { "type": "Polygon", "coordinates": [ [ [ -0.317702486981978, 5.505523611622078 ], [ -0.317661917891753, 5.514560110467803 ], [ -0.326680248560118, 5.51460072708343 ], [ -0.326720681649163, 5.505564161285374 ], [ -0.317702486981978, 5.505523611622078 ] ] ] } },
{ "type": "Feature", "properties": { "seed_idx": 24, "delta_h": -15.690861521388888 }, "geometry": { "type": "Polygon", "coordinates": [ [ [ -0.317599681106422, 5.505380799000148 ], [ -0.317559111520389, 5.514417297124366 ], [ -0.32657743927101, 5.514457914249784 ], [ -0.326617872859488, 5.505421349170687 ], [ -0.317599681106422, 5.505380799000148 ] ] ] } },
{ "type": "Feature", "properties": { "seed_idx": 25, "delta_h": -15.690861521388888 }, "geometry": { "type": "Polygon", "coordinates": [ [ [ -0.316997330375836, 5.505491589402872 ], [ -0.31695675086523, 5.51452808301264 ], [ -0.325975075823813, 5.514568710081323 ], [ -0.326015519334354, 5.50553214950165 ], [ -0.316997330375836, 5.505491589402872 ] ] ] } },
{ "type": "Feature", "properties": { "seed_idx": 26, "delta_h": -15.690861521388888 }, "geometry": { "type": "Polygon", "coordinates": [ [ [ -0.316554466080573, 5.505703326490859 ], [ -0.316513878307398, 5.514739816741451 ], [ -0.32553220317934, 5.514780452077749 ], [ -0.325572654947342, 5.505743894846187 ], [ -0.316554466080573, 5.505703326490859 ] ] ] } },
{ "type": "Feature", "properties": { "seed_idx": 27, "delta_h": -15.690861521388888 }, "geometry": { "type": "Polygon", "coordinates": [ [ [ -0.316148646580001, 5.505285473998839 ], [ -0.316108055770338, 5.51432196135576 ], [ -0.325126371325516, 5.514362599774016 ], [ -0.325166826140657, 5.505326045426052 ], [ -0.316148646580001, 5.505285473998839 ] ] ] } },
{ "type": "Feature", "properties": { "seed_idx": 28, "delta_h": -15.690861521388888 }, "geometry": { "type": "Polygon", "coordinates": [ [ [ -0.316569183192196, 5.505082701331463 ], [ -0.316528600240959, 5.514119191879201 ], [ -0.325546915853302, 5.514159822434348 ], [ -0.325587362814913, 5.505123264906073 ], [ -0.316569183192196, 5.505082701331463 ] ] ] } },
{ "type": "Feature", "properties": { "seed_idx": 29, "delta_h": -15.690861521388888 }, "geometry": { "type": "Polygon", "coordinates": [ [ [ -0.31666948403713, 5.504882335449967 ], [ -0.316628904086575, 5.513918826804614 ], [ -0.325647217418099, 5.513959454368106 ], [ -0.325687661384005, 5.504922896035441 ], [ -0.31666948403713, 5.504882335449967 ] ] ] } },
{ "type": "Feature", "properties": { "seed_idx": 30, "delta_h": -15.690861521388888 }, "geometry": { "type": "Polygon", "coordinates": [ [ [ -0.317760752324102, 5.504494672409237 ], [ -0.317720191736643, 5.513531171999393 ], [ -0.326738507305416, 5.513571780178373 ], [ -0.326778931917456, 5.504535213637444 ], [ -0.317760752324102, 5.504494672409237 ] ] ] } },
{ "type": "Feature", "properties": { "seed_idx": 31, "delta_h": -15.690861521388888 }, "geometry": { "type": "Polygon", "coordinates": [ [ [ -0.31757911933094, 5.504576615886572 ], [ -0.317538555391755, 5.513613114100957 ], [ -0.326556870851283, 5.513653725634065 ], [ -0.326597298813075, 5.504617160464375 ], [ -0.31757911933094, 5.504576615886572 ] ] ] } },
{ "type": "Feature", "properties": { "seed_idx": 32, "delta_h": -15.690861521388888 }, "geometry": { "type": "Polygon", "coordinates": [ [ [ -0.317763432928482, 5.504516654535124 ], [ -0.317722872218691, 5.513553154138573 ], [ -0.326741188139109, 5.513593762438302 ], [ -0.326781612872928, 5.504557195884145 ], [ -0.317763432928482, 5.504516654535124 ] ] ] } },
{ "type": "Feature", "properties": { "seed_idx": 33, "delta_h": -15.690861521388888 }, "geometry": { "type": "Polygon", "coordinates": [ [ [ -0.31810235584236, 5.504175456213927 ], [ -0.318061802781268, 5.513211958441202 ], [ -0.327080116063508, 5.5132525591003 ], [ -0.327120533157029, 5.504215989930803 ], [ -0.31810235584236, 5.504175456213927 ] ] ] } },
{ "type": "Feature", "properties": { "seed_idx": 34, "delta_h": -15.690861521388888 }, "geometry": { "type": "Polygon", "coordinates": [ [ [ -0.317724142148168, 5.504086739516359 ], [ -0.317683584029399, 5.513123238957518 ], [ -0.326701893170124, 5.513163844696598 ], [ -0.326742315323712, 5.504127278303796 ], [ -0.317724142148168, 5.504086739516359 ] ] ] } },
{ "type": "Feature", "properties": { "seed_idx": 35, "delta_h": -15.690861521388888 }, "geometry": { "type": "Polygon", "coordinates": [ [ [ -0.317339493654205, 5.504141669482122 ], [ -0.317298929316452, 5.513178166045483 ], [ -0.326317236435502, 5.513218778016552 ], [ -0.326357664806869, 5.504182214491952 ], [ -0.317339493654205, 5.504141669482122 ] ] ] } },
{ "type": "Feature", "properties": { "seed_idx": 36, "delta_h": -15.690861521388888 }, "geometry": { "type": "Polygon", "coordinates": [ [ [ -0.317267026339149, 5.503962760531641 ], [ -0.317226462231966, 5.512999256609985 ], [ -0.326244766113832, 5.513039868365555 ], [ -0.326285194259145, 5.504003305324185 ], [ -0.317267026339149, 5.503962760531641 ] ] ] } },
{ "type": "Feature", "properties": { "seed_idx": 37, "delta_h": -15.690861521388888 }, "geometry": { "type": "Polygon", "coordinates": [ [ [ -0.316688096951019, 5.504083540729185 ], [ -0.316647523201389, 5.513120032463789 ], [ -0.325665824614636, 5.513160653878838 ], [ -0.325706262399626, 5.504124095166765 ], [ -0.316688096951019, 5.504083540729185 ] ] ] } },
{ "type": "Feature", "properties": { "seed_idx": 38, "delta_h": -15.690861521388888 }, "geometry": { "type": "Polygon", "coordinates": [ [ [ -0.316374513262716, 5.504402566298276 ], [ -0.316333932410382, 5.513439055602997 ], [ -0.325352236313612, 5.51347968411306 ], [ -0.325392681193452, 5.504443127823017 ], [ -0.316374513262716, 5.504402566298276 ] ] ] } },
{ "type": "Feature", "properties": { "seed_idx": 39, "delta_h": -15.690861521388888 }, "geometry": { "type": "Polygon", "coordinates": [ [ [ -0.316304495822251, 5.504572820135984 ], [ -0.316263912650014, 5.513609308868187 ], [ -0.325282218603759, 5.513649939689826 ], [ -0.325322665799266, 5.50461338397054 ], [ -0.316304495822251, 5.504572820135984 ] ] ] } },
{ "type": "Feature", "properties": { "seed_idx": 40, "delta_h": -15.690861521388888 }, "geometry": { "type": "Polygon", "coordinates": [ [ [ -0.315816410410248, 5.504675647827652 ], [ -0.315775819100153, 5.513712132896173 ], [ -0.324794122986668, 5.513752771869954 ], [ -0.324834578317672, 5.50471621980217 ], [ -0.315816410410248, 5.504675647827652 ] ] ] } },
{ "type": "Feature", "properties": { "seed_idx": 41, "delta_h": -15.690861521388888 }, "geometry": { "type": "Polygon", "coordinates": [ [ [ -0.315568991540553, 5.505011076791614 ], [ -0.31552839400477, 5.514047559917058 ], [ -0.324546701119356, 5.514088205104856 ], [ -0.324587162667753, 5.505051654973946 ], [ -0.315568991540553, 5.505011076791614 ] ] ] } },
{ "type": "Feature", "properties": { "seed_idx": 42, "delta_h": -15.690861521388888 }, "geometry": { "type": "Polygon", "coordinates": [ [ [ -0.315242076925603, 5.505071585955194 ], [ -0.31520147400068, 5.514108066628676 ], [ -0.324219779603893, 5.514148717215736 ], [ -0.32426024654006, 5.505112169528632 ], [ -0.315242076925603, 5.505071585955194 ] ] ] } },
{ "type": "Feature", "properties": { "seed_idx": 43, "delta_h": -15.690861521388888 }, "geometry": { "type": "Polygon", "coordinates": [ [ [ -0.313629936852541, 5.504712880264713 ], [ -0.313589312225272, 5.513749349040952 ], [ -0.322607600452514, 5.513790021424148 ], [ -0.322648089100733, 5.504753485594134 ], [ -0.313629936852541, 5.504712880264713 ] ] ] } },
{ "type": "Feature", "properties": { "seed_idx": 44, "delta_h": -15.690861521388888 }, "geometry": { "type": "Polygon", "coordinates": [ [ [ -0.314407075928731, 5.505070080709771 ], [ -0.314366460395924, 5.514106555166316 ], [ -0.323384759781851, 5.51414721839753 ], [ -0.323425239326311, 5.505110676906546 ], [ -0.314407075928731, 5.505070080709771 ] ] ] } },
{ "type": "Feature", "properties": { "seed_idx": 45, "delta_h": -15.690861521388888 }, "geometry": { "type": "Polygon", "coordinates": [ [ [ -0.31472112758616, 5.505119052921787 ], [ -0.314680516436306, 5.514155529702175 ], [ -0.323698818891515, 5.514196188533562 ], [ -0.323739294051655, 5.505159644726562 ], [ -0.31472112758616, 5.505119052921787 ] ] ] } },
{ "type": "Feature", "properties": { "seed_idx": 46, "delta_h": -15.690861521388888 }, "geometry": { "type": "Polygon", "coordinates": [ [ [ -0.315058266892007, 5.505155174506758 ], [ -0.315017660569404, 5.514191653786493 ], [ -0.324035966070916, 5.514232307773614 ], [ -0.32407643640275, 5.505195761475666 ], [ -0.315058266892007, 5.505155174506758 ] ] ] } },
{ "type": "Feature", "properties": { "seed_idx": 47, "delta_h": -15.690861521388888 }, "geometry": { "type": "Polygon", "coordinates": [ [ [ -0.315198824219775, 5.505742588671752 ], [ -0.315158215665802, 5.51477906882036 ], [ -0.324176531077391, 5.514819724993535 ], [ -0.32421700362581, 5.505783177830159 ], [ -0.315198824219775, 5.505742588671752 ] ] ] } },
{ "type": "Feature", "properties": { "seed_idx": 48, "delta_h": -15.690861521388888 }, "geometry": { "type": "Polygon", "coordinates": [ [ [ -0.315389052341711, 5.505987444421626 ], [ -0.315348444847493, 5.515023925912385 ], [ -0.324366765366631, 5.515064581001215 ], [ -0.324407236849074, 5.506028032500404 ], [ -0.315389052341711, 5.505987444421626 ] ] ] } },
{ "type": "Feature", "properties": { "seed_idx": 49, "delta_h": -15.690861521388888 }, "geometry": { "type": "Polygon", "coordinates": [ [ [ -0.316121736196623, 5.506239550160323 ], [ -0.316081137908344, 5.515276037028504 ], [ -0.325099467667308, 5.515316682862834 ], [ -0.325139929937169, 5.50628012900284 ], [ -0.316121736196623, 5.506239550160323 ] ] ] } },
{ "type": "Feature", "properties": { "seed_idx": 50, "delta_h": -15.690861521388888 }, "geometry": { "type": "Polygon", "coordinates": [ [ [ -0.316514310201036, 5.506657950962618 ], [ -0.316473714745975, 5.515694440625748 ], [ -0.325492053732924, 5.515735083581918 ], [ -0.325532513158904, 5.50669852693672 ], [ -0.316514310201036, 5.506657950962618 ] ] ] } },
{ "type": "Feature", "properties": { "seed_idx": 51, "delta_h": -15.690861521388888 }, "geometry": { "type": "Polygon", "coordinates": [ [ [ -0.316470237952358, 5.506936971072586 ], [ -0.316429639763134, 5.515973460323382 ], [ -0.325447982636394, 5.516014105996985 ], [ -0.325488444789566, 5.506977549762993 ], [ -0.316470237952358, 5.506936971072586 ] ] ] } },
{ "type": "Feature", "properties": { "seed_idx": 52, "delta_h": -15.690861521388888 }, "geometry": { "type": "Polygon", "coordinates": [ [ [ -0.316788395736589, 5.507526960835546 ], [ -0.316747797985079, 5.516563452275313 ], [ -0.325766152126321, 5.516604097458012 ], [ -0.325806613826851, 5.50756753904292 ], [ -0.316788395736589, 5.507526960835546 ] ] ] } },
{ "type": "Feature", "properties": { "seed_idx": 53, "delta_h": -15.690861521388888 }, "geometry": { "type": "Polygon", "coordinates": [ [ [ -0.317249155330173, 5.507910123760378 ], [ -0.317208561706129, 5.516946618512254 ], [ -0.32622692504935, 5.516987259521946 ], [ -0.326267382612606, 5.507950697806195 ], [ -0.317249155330173, 5.507910123760378 ] ] ] } },
{ "type": "Feature", "properties": { "seed_idx": 54, "delta_h": -15.690861521388888 }, "geometry": { "type": "Polygon", "coordinates": [ [ [ -0.31714036602651, 5.507944407811774 ], [ -0.31709977050349, 5.516980901743954 ], [ -0.326118133558132, 5.517021544655038 ], [ -0.326158593019554, 5.507984983756265 ], [ -0.31714036602651, 5.507944407811774 ] ] ] } },
{ "type": "Feature", "properties": { "seed_idx": 55, "delta_h": -15.690861521388888 }, "geometry": { "type": "Polygon", "coordinates": [ [ [ -0.31765271246298, 5.507654660708981 ], [ -0.31761212683342, 5.51669115854006 ], [ -0.326630489309497, 5.51673179155488 ], [ -0.326670938884492, 5.507695226770012 ], [ -0.31765271246298, 5.507654660708981 ] ] ] } },
{ "type": "Feature", "properties": { "seed_idx": 56, "delta_h": -15.690861521388888 }, "geometry": { "type": "Polygon", "coordinates": [ [ [ -0.317810051377623, 5.507442159584683 ], [ -0.317769469701137, 5.516478658650307 ], [ -0.326787830134085, 5.516519287719443 ], [ -0.326828275761262, 5.507482721703974 ], [ -0.317810051377623, 5.507442159584683 ] ] ] } },
{ "type": "Feature", "properties": { "seed_idx": 57, "delta_h": -15.690861521388888 }, "geometry": { "type": "Polygon", "coordinates": [ [ [ -0.318354573491299, 5.507162473834442 ], [ -0.318314002118956, 5.516198977034229 ], [ -0.327332362363109, 5.516239595794341 ], [ -0.327372797692909, 5.507203025658312 ], [ -0.318354573491299, 5.507162473834442 ] ] ] } },
{ "type": "Feature", "properties": { "seed_idx": 58, "delta_h": -15.690861521388888 }, "geometry": { "type": "Polygon", "coordinates": [ [ [ -0.318861679219126, 5.506880761389103 ], [ -0.318821117599446, 5.515917268444663 ], [ -0.327839477346435, 5.515957877448975 ], [ -0.327879902930406, 5.506921303469847 ], [ -0.318861679219126, 5.506880761389103 ] ] ] } },
{ "type": "Feature", "properties": { "seed_idx": 59, "delta_h": -15.690861521388888 }, "geometry": { "type": "Polygon", "coordinates": [ [ [ -0.318829168350291, 5.506849910008206 ], [ -0.318788606467574, 5.515886416831383 ], [ -0.32780696550789, 5.515927026102199 ], [ -0.327847391355687, 5.506890452354647 ], [ -0.318829168350291, 5.506849910008206 ] ] ] } },
{ "type": "Feature", "properties": { "seed_idx": 60, "delta_h": -15.690861521388888 }, "geometry": { "type": "Polygon", "coordinates": [ [ [ -0.319360369047229, 5.506552009091208 ], [ -0.319319817400458, 5.515588519953487 ], [ -0.328338175877208, 5.51562911898525 ], [ -0.328378591496289, 5.506592541211869 ], [ -0.319360369047229, 5.506552009091208 ] ] ] } },
{ "type": "Feature", "properties": { "seed_idx": 61, "delta_h": -15.690861521388888 }, "geometry": { "type": "Polygon", "coordinates": [ [ [ -0.322322037542518, 5.50637339794922 ], [ -0.322281531987488, 5.515409930868619 ], [ -0.331299909689755, 5.515450483692353 ], [ -0.331340279220255, 5.506413883935704 ], [ -0.322322037542518, 5.50637339794922 ] ] ] } },
{ "type": "Feature", "properties": { "seed_idx": 62, "delta_h": -15.690861521388888 }, "geometry": { "type": "Polygon", "coordinates": [ [ [ -0.320761119036623, 5.506167995041096 ], [ -0.320720591406181, 5.515204516429108 ], [ -0.329738954456348, 5.515245091409525 ], [ -0.329779346068099, 5.506208503145369 ], [ -0.320761119036623, 5.506167995041096 ] ] ] } },
{ "type": "Feature", "properties": { "seed_idx": 63, "delta_h": -15.690861521388888 }, "geometry": { "type": "Polygon", "coordinates": [ [ [ -0.320788298069041, 5.506266771615758 ], [ -0.320747770118537, 5.51530329317583 ], [ -0.329766134861211, 5.515343868468543 ], [ -0.329806526790538, 5.506307280032996 ], [ -0.320788298069041, 5.506266771615758 ] ] ] } },
{ "type": "Feature", "properties": { "seed_idx": 64, "delta_h": -15.690861521388888 }, "geometry": { "type": "Polygon", "coordinates": [ [ [ -0.321067982349468, 5.506244838262901 ], [ -0.321027458788946, 5.515281361907396 ], [ -0.330045825270627, 5.515321932799483 ], [ -0.330086212810397, 5.506285342286486 ], [ -0.321067982349468, 5.506244838262901 ] ] ] } },
{ "type": "Feature", "properties": { "seed_idx": 65, "delta_h": -15.690861521388888 }, "geometry": { "type": "Polygon", "coordinates": [ [ [ -0.32203366910297, 5.507521259048411 ], [ -0.321993150699263, 5.516557789479372 ], [ -0.331011543600778, 5.516598355087706 ], [ -0.331051925951315, 5.507561757812188 ], [ -0.32203366910297, 5.507521259048411 ] ] ] } },
{ "type": "Feature", "properties": { "seed_idx": 66, "delta_h": -15.690861521388888 }, "geometry": { "type": "Polygon", "coordinates": [ [ [ -0.321974970111245, 5.507780824215973 ], [ -0.321934448900243, 5.516817354132526 ], [ -0.330952845287393, 5.516857922533376 ], [ -0.330993230438747, 5.507821325770777 ], [ -0.321974970111245, 5.507780824215973 ] ] ] } },
{ "type": "Feature", "properties": { "seed_idx": 67, "delta_h": -15.690861521388888 }, "geometry": { "type": "Polygon", "coordinates": [ [ [ -0.321978316776141, 5.507806358768927 ], [ -0.321937795426882, 5.516842888702607 ], [ -0.330956192224426, 5.516883457239864 ], [ -0.330996577513394, 5.507846860460218 ], [ -0.321978316776141, 5.507806358768927 ] ] ] } },
{ "type": "Feature", "properties": { "seed_idx": 68, "delta_h": -15.690861521388888 }, "geometry": { "type": "Polygon", "coordinates": [ [ [ -0.323138436193277, 5.509460290962181 ], [ -0.323097920157763, 5.518496829008883 ], [ -0.332116350519162, 5.518537392071823 ], [ -0.332156730452418, 5.50950078720791 ], [ -0.323138436193277, 5.509460290962181 ] ] ] } },
{ "type": "Feature", "properties": { "seed_idx": 69, "delta_h": -15.690861521388888 }, "geometry": { "type": "Polygon", "coordinates": [ [ [ -0.32393030397549, 5.509670530788505 ], [ -0.323889798362991, 5.518707074648702 ], [ -0.332908237756087, 5.518747627240365 ], [ -0.332948607260707, 5.509711016582674 ], [ -0.32393030397549, 5.509670530788505 ] ] ] } },
{ "type": "Feature", "properties": { "seed_idx": 70, "delta_h": -15.690861521388888 }, "geometry": { "type": "Polygon", "coordinates": [ [ [ -0.323703817302861, 5.510964089209498 ], [ -0.323663298703316, 5.520000630997497 ], [ -0.332681755966671, 5.520041196499596 ], [ -0.332722138426018, 5.511004587908326 ], [ -0.323703817302861, 5.510964089209498 ] ] ] } },
{ "type": "Feature", "properties": { "seed_idx": 71, "delta_h": -15.690861521388888 }, "geometry": { "type": "Polygon", "coordinates": [ [ [ -0.323531729054977, 5.511648013676103 ], [ -0.323491202796341, 5.520684553979939 ], [ -0.33250966912276, 5.520725127102855 ], [ -0.332550059224134, 5.511688519991387 ], [ -0.323531729054977, 5.511648013676103 ] ] ] } },
{ "type": "Feature", "properties": { "seed_idx": 72, "delta_h": -15.690861521388888 }, "geometry": { "type": "Polygon", "coordinates": [ [ [ -0.322747231451313, 5.51256038765174 ], [ -0.322706686576284, 5.521596921856137 ], [ -0.331725160890706, 5.521637513568301 ], [ -0.331765569585953, 5.512600912536623 ], [ -0.322747231451313, 5.51256038765174 ] ] ] } },
{ "type": "Feature", "properties": { "seed_idx": 73, "delta_h": -15.690861521388888 }, "geometry": { "type": "Polygon", "coordinates": [ [ [ -0.323351053948057, 5.512953540843945 ], [ -0.323310515304505, 5.521990079411602 ], [ -0.332329000027748, 5.522030664839928 ], [ -0.332369402481397, 5.512994059460003 ], [ -0.323351053948057, 5.512953540843945 ] ] ] } },
{ "type": "Feature", "properties": { "seed_idx": 74, "delta_h": -15.690861521388888 }, "geometry": { "type": "Polygon", "coordinates": [ [ [ -0.323520568337102, 5.514320318885306 ], [ -0.323480022155715, 5.523356858297284 ], [ -0.332498528796277, 5.523397451164662 ], [ -0.332538938753431, 5.514360844944502 ], [ -0.323520568337102, 5.514320318885306 ] ] ] } },
{ "type": "Feature", "properties": { "seed_idx": 75, "delta_h": -15.690861521388888 }, "geometry": { "type": "Polygon", "coordinates": [ [ [ -0.326198719744118, 5.509596725432645 ], [ -0.326158248987409, 5.518633286141356 ], [ -0.335176704029919, 5.518673803784104 ], [ -0.335217038679592, 5.509637176334465 ], [ -0.326198719744118, 5.509596725432645 ] ] ] } },
{ "type": "Feature", "properties": { "seed_idx": 76, "delta_h": -15.690861521388888 }, "geometry": { "type": "Polygon", "coordinates": [ [ [ -0.326295428131417, 5.509739490350951 ], [ -0.326254957783223, 5.51877605173349 ], [ -0.335273415696962, 5.518816568954021 ], [ -0.3353137499345, 5.509779940832947 ], [ -0.326295428131417, 5.509739490350951 ] ] ] } },
{ "type": "Feature", "properties": { "seed_idx": 77, "delta_h": -15.690861521388888 }, "geometry": { "type": "Polygon", "coordinates": [ [ [ -0.327821670685826, 5.511064836650081 ], [ -0.327781213641794, 5.52010140894417 ], [ -0.336799702852148, 5.520141912706156 ], [ -0.336840023751629, 5.511105273711448 ], [ -0.327821670685826, 5.511064836650081 ] ] ] } },
{ "type": "Feature", "properties": { "seed_idx": 78, "delta_h": -15.690861521388888 }, "geometry": { "type": "Polygon", "coordinates": [ [ [ -0.328057552855919, 5.511209032614937 ], [ -0.328017098316527, 5.520245606613185 ], [ -0.337035591447312, 5.520286107850718 ], [ -0.337075909838434, 5.511249467157719 ], [ -0.328057552855919, 5.511209032614937 ] ] ] } },
{ "type": "Feature", "properties": { "seed_idx": 79, "delta_h": -15.690861521388888 }, "geometry": { "type": "Polygon", "coordinates": [ [ [ -0.328686855051891, 5.512247773476319 ], [ -0.328646402370055, 5.521284351822295 ], [ -0.337664915844734, 5.521324851105762 ], [ -0.337705232351986, 5.512288206080616 ], [ -0.328686855051891, 5.512247773476319 ] ] ] } },
{ "type": "Feature", "properties": { "seed_idx": 80, "delta_h": -15.690861521388888 }, "geometry": { "type": "Polygon", "coordinates": [ [ [ -0.328402730825343, 5.512127037629636 ], [ -0.328362274734833, 5.521163613907384 ], [ -0.337380784287578, 5.521204116619853 ], [ -0.337421104206657, 5.512167473655865 ], [ -0.328402730825343, 5.512127037629636 ] ] ] } },
{ "type": "Feature", "properties": { "seed_idx": 81, "delta_h": -15.690861521388888 }, "geometry": { "type": "Polygon", "coordinates": [ [ [ -0.328353100044726, 5.512137837760955 ], [ -0.328312643123499, 5.521174413667749 ], [ -0.337331152473146, 5.521214917212355 ], [ -0.337371473222693, 5.512178274618083 ], [ -0.328353100044726, 5.512137837760955 ] ] ] } },
{ "type": "Feature", "properties": { "seed_idx": 82, "delta_h": -15.690861521388888 }, "geometry": { "type": "Polygon", "coordinates": [ [ [ -0.328446948694139, 5.511569998586772 ], [ -0.328406497382829, 5.520606575360707 ], [ -0.337424998843036, 5.52064707332925 ], [ -0.337465313996854, 5.511610429870235 ], [ -0.328446948694139, 5.511569998586772 ] ] ] } },
{ "type": "Feature", "properties": { "seed_idx": 83, "delta_h": -15.690861521388888 }, "geometry": { "type": "Polygon", "coordinates": [ [ [ -0.328570070353536, 5.511771843525171 ], [ -0.328529619415912, 5.520808421150102 ], [ -0.337548124835386, 5.52084891872617 ], [ -0.337588439610406, 5.511812274419207 ], [ -0.328570070353536, 5.511771843525171 ] ] ] } },
{ "type": "Feature", "properties": { "seed_idx": 84, "delta_h": -15.690861521388888 }, "geometry": { "type": "Polygon", "coordinates": [ [ [ -0.328783340309124, 5.511904809927278 ], [ -0.328742891617585, 5.520941389091778 ], [ -0.337761400620685, 5.520981884403679 ], [ -0.337801713146195, 5.511945238562452 ], [ -0.328783340309124, 5.511904809927278 ] ] ] } },
{ "type": "Feature", "properties": { "seed_idx": 85, "delta_h": -15.690861521388888 }, "geometry": { "type": "Polygon", "coordinates": [ [ [ -0.32876478280448, 5.512240764296874 ], [ -0.328724331353604, 5.521277343222218 ], [ -0.33774284529747, 5.521317841271828 ], [ -0.337783160573903, 5.512281195669258 ], [ -0.32876478280448, 5.512240764296874 ] ] ] } },
{ "type": "Feature", "properties": { "seed_idx": 86, "delta_h": -15.690861521388888 }, "geometry": { "type": "Polygon", "coordinates": [ [ [ -0.329984088544992, 5.511684993424839 ], [ -0.329943659643727, 5.52072158154816 ], [ -0.33896217418428, 5.520762057032607 ], [ -0.339002466924491, 5.511725402262516 ], [ -0.329984088544992, 5.511684993424839 ] ] ] } },
{ "type": "Feature", "properties": { "seed_idx": 87, "delta_h": -15.690861521388888 }, "geometry": { "type": "Polygon", "coordinates": [ [ [ -0.331479341933592, 5.512126525046033 ], [ -0.331438932402971, 5.521163124103397 ], [ -0.340457464643857, 5.521203580123187 ], [ -0.340497738001696, 5.512166914456285 ], [ -0.331479341933592, 5.512126525046033 ] ] ] } },
{ "type": "Feature", "properties": { "seed_idx": 88, "delta_h": -15.690861521388888 }, "geometry": { "type": "Polygon", "coordinates": [ [ [ -0.332399380644981, 5.511558236082947 ], [ -0.332358989223546, 5.520594842119271 ], [ -0.341377519657432, 5.520635280028041 ], [ -0.341417774919918, 5.511598607405177 ], [ -0.332399380644981, 5.511558236082947 ] ] ] } },
{ "type": "Feature", "properties": { "seed_idx": 89, "delta_h": -15.690861521388888 }, "geometry": { "type": "Polygon", "coordinates": [ [ [ -0.334661168925165, 5.509826759836796 ], [ -0.334620824472136, 5.51886338312107 ], [ -0.343639345405007, 5.518903774079051 ], [ -0.343679553741483, 5.509867084264803 ], [ -0.334661168925165, 5.509826759836796 ] ] ] } },
{ "type": "Feature", "properties": { "seed_idx": 90, "delta_h": -15.690861521388888 }, "geometry": { "type": "Polygon", "coordinates": [ [ [ -0.334915980127376, 5.509893803896099 ], [ -0.334875639035135, 5.518930429043304 ], [ -0.34389416285722, 5.518970816625022 ], [ -0.343934367831116, 5.50993412495419 ], [ -0.334915980127376, 5.509893803896099 ] ] ] } },
{ "type": "Feature", "properties": { "seed_idx": 91, "delta_h": -15.690861521388888 }, "geometry": { "type": "Polygon", "coordinates": [ [ [ -0.334842667051493, 5.50994220241362 ], [ -0.334802324494056, 5.518978827004368 ], [ -0.343820848507545, 5.519019216051229 ], [ -0.343861054945456, 5.50998252493502 ], [ -0.334842667051493, 5.50994220241362 ] ] ] } },
{ "type": "Feature", "properties": { "seed_idx": 92, "delta_h": -15.690861521388888 }, "geometry": { "type": "Polygon", "coordinates": [ [ [ -0.33553716226523, 5.509522685246544 ], [ -0.335496833300095, 5.518559315096223 ], [ -0.344515356088693, 5.518599690548679 ], [ -0.344555548944511, 5.509562994190898 ], [ -0.33553716226523, 5.509522685246544 ] ] ] } },
{ "type": "Feature", "properties": { "seed_idx": 93, "delta_h": -15.690861521388888 }, "geometry": { "type": "Polygon", "coordinates": [ [ [ -0.335762256101821, 5.509670981958267 ], [ -0.335721929450067, 5.518707613426127 ], [ -0.344740456135997, 5.518747986545607 ], [ -0.344780646674617, 5.509711288575243 ], [ -0.335762256101821, 5.509670981958267 ] ] ] } },
{ "type": "Feature", "properties": { "seed_idx": 94, "delta_h": -15.690861521388888 }, "geometry": { "type": "Polygon", "coordinates": [ [ [ -0.336734392543487, 5.509649051302254 ], [ -0.336694080757161, 5.518685689957533 ], [ -0.345712614266147, 5.518726048171028 ], [ -0.34575278993946, 5.509689343037483 ], [ -0.336734392543487, 5.509649051302254 ] ] ] } },
{ "type": "Feature", "properties": { "seed_idx": 95, "delta_h": -15.690861521388888 }, "geometry": { "type": "Polygon", "coordinates": [ [ [ -0.337275379575209, 5.50875090991471 ], [ -0.337235082576539, 5.517787552836639 ], [ -0.346253606498042, 5.517827896298798 ], [ -0.346293767405968, 5.50879118691218 ], [ -0.337275379575209, 5.50875090991471 ] ] ] } },
{ "type": "Feature", "properties": { "seed_idx": 96, "delta_h": -15.690861521388888 }, "geometry": { "type": "Polygon", "coordinates": [ [ [ -0.338564137986335, 5.508808826593205 ], [ -0.338523860051908, 5.517845479011187 ], [ -0.347542394326825, 5.517885803349527 ], [ -0.347582536168488, 5.508849084498982 ], [ -0.338564137986335, 5.508808826593205 ] ] ] } },
{ "type": "Feature", "properties": { "seed_idx": 97, "delta_h": -15.690861521388888 }, "geometry": { "type": "Polygon", "coordinates": [ [ [ -0.338538201736115, 5.507930471674053 ], [ -0.338497929865809, 5.516967124166324 ], [ -0.34751645068322, 5.517007442500005 ], [ -0.347556586482788, 5.507970723574614 ], [ -0.338538201736115, 5.507930471674053 ] ] ] } },
{ "type": "Feature", "properties": { "seed_idx": 98, "delta_h": -15.690861521388888 }, "geometry": { "type": "Polygon", "coordinates": [ [ [ -0.33925081417197, 5.508129124109574 ], [ -0.339210551617126, 5.517165781800316 ], [ -0.348229080674022, 5.51720609077452 ], [ -0.348269207152834, 5.508169366668405 ], [ -0.33925081417197, 5.508129124109574 ] ] ] } },
{ "type": "Feature", "properties": { "seed_idx": 99, "delta_h": -15.690861521388888 }, "geometry": { "type": "Polygon", "coordinates": [ [ [ -0.340965442392686, 5.507571876976425 ], [ -0.340925209857664, 5.516608547482655 ], [ -0.349943743098977, 5.516648826399847 ], [ -0.349983839571178, 5.507612089521048 ], [ -0.340965442392686, 5.507571876976425 ] ] ] } },
{ "type": "Feature", "properties": { "seed_idx": 100, "delta_h": -15.690861521388888 }, "geometry": { "type": "Polygon", "coordinates": [ [ [ -0.338763039281632, 5.504995836194028 ], [ -0.338722792380169, 5.514032491233023 ], [ -0.347741270541161, 5.514072784782826 ], [ -0.347781381445338, 5.505036063316615 ], [ -0.338763039281632, 5.504995836194028 ] ] ] } },
{ "type": "Feature", "properties": { "seed_idx": 101, "delta_h": -15.690861521388888 }, "geometry": { "type": "Polygon", "coordinates": [ [ [ -0.339242847516327, 5.504813806107476 ], [ -0.339202609203706, 5.513850464741992 ], [ -0.34822108814448, 5.513890749694231 ], [ -0.348261190464165, 5.504854024644479 ], [ -0.339242847516327, 5.504813806107476 ] ] ] } },
{ "type": "Feature", "properties": { "seed_idx": 102, "delta_h": -15.690861521388888 }, "geometry": { "type": "Polygon", "coordinates": [ [ [ -0.339758935140586, 5.504647464049587 ], [ -0.33971870584931, 5.513684126541873 ], [ -0.348737186072754, 5.513724402461433 ], [ -0.348777279375035, 5.504687673566793 ], [ -0.339758935140586, 5.504647464049587 ] ] ] } },
{ "type": "Feature", "properties": { "seed_idx": 103, "delta_h": -15.690861521388888 }, "geometry": { "type": "Polygon", "coordinates": [ [ [ -0.339544478277233, 5.504717248091284 ], [ -0.339504245232391, 5.513753908980388 ], [ -0.348522724932898, 5.513794188658181 ], [ -0.34856282198709, 5.50475746136137 ], [ -0.339544478277233, 5.504717248091284 ] ] ] } },
{ "type": "Feature", "properties": { "seed_idx": 104, "delta_h": -15.690861521388888 }, "geometry": { "type": "Polygon", "coordinates": [ [ [ -0.339640799397103, 5.504819243577186 ], [ -0.33960056705846, 5.513855905146049 ], [ -0.348619049006473, 5.513896184106712 ], [ -0.348659145351869, 5.504859456132533 ], [ -0.339640799397103, 5.504819243577186 ] ] ] } },
{ "type": "Feature", "properties": { "seed_idx": 105, "delta_h": -15.690861521388888 }, "geometry": { "type": "Polygon", "coordinates": [ [ [ -0.341435629219878, 5.504268171768151 ], [ -0.341395428051317, 5.513304846739959 ], [ -0.350413914869249, 5.513345094489276 ], [ -0.350453980057582, 5.504308353156957 ], [ -0.341435629219878, 5.504268171768151 ] ] ] } },
{ "type": "Feature", "properties": { "seed_idx": 106, "delta_h": -15.690861521388888 }, "geometry": { "type": "Polygon", "coordinates": [ [ [ -0.342697334429709, 5.504830437244242 ], [ -0.342657148199997, 5.513867121345451 ], [ -0.35167565276958, 5.513907354064031 ], [ -0.351715703004416, 5.504870603633711 ], [ -0.342697334429709, 5.504830437244242 ] ] ] } },
{ "type": "Feature", "properties": { "seed_idx": 107, "delta_h": -15.690861521388888 }, "geometry": { "type": "Polygon", "coordinates": [ [ [ -0.343310893434365, 5.504791768270846 ], [ -0.34327071676066, 5.513828456904376 ], [ -0.352289225250513, 5.513868680042929 ], [ -0.352329265930041, 5.504831925095591 ], [ -0.343310893434365, 5.504791768270846 ] ] ] } },
{ "type": "Feature", "properties": { "seed_idx": 108, "delta_h": -15.690861521388888 }, "geometry": { "type": "Polygon", "coordinates": [ [ [ -0.344444280647822, 5.505629620328278 ], [ -0.344404114957162, 5.514666317056416 ], [ -0.353422644411864, 5.514706529107376 ], [ -0.353462674086848, 5.505669766093603 ], [ -0.344444280647822, 5.505629620328278 ] ] ] } },
{ "type": "Feature", "properties": { "seed_idx": 109, "delta_h": -15.690861521388888 }, "geometry": { "type": "Polygon", "coordinates": [ [ [ -0.344944761735863, 5.505651580550271 ], [ -0.344904603448704, 5.514688280956911 ], [ -0.353923136906475, 5.514728485581244 ], [ -0.353963159177189, 5.505691718901445 ], [ -0.344944761735863, 5.505651580550271 ] ] ] } },
{ "type": "Feature", "properties": { "seed_idx": 110, "delta_h": -15.690861521388888 }, "geometry": { "type": "Polygon", "coordinates": [ [ [ -0.345977509626251, 5.505975832707814 ], [ -0.345937364571905, 5.515012540618542 ], [ -0.354955910499034, 5.515052731943883 ], [ -0.354995919528351, 5.506015957785712 ], [ -0.345977509626251, 5.505975832707814 ] ] ] } },
{ "type": "Feature", "properties": { "seed_idx": 111, "delta_h": -15.690861521388888 }, "geometry": { "type": "Polygon", "coordinates": [ [ [ -0.346260561312524, 5.505628769093261 ], [ -0.34622042308032, 5.514665479191978 ], [ -0.355238965843158, 5.514705663705885 ], [ -0.355278968058907, 5.505668887366816 ], [ -0.346260561312524, 5.505628769093261 ] ] ] } },
{ "type": "Feature", "properties": { "seed_idx": 112, "delta_h": -15.690861521388888 }, "geometry": { "type": "Polygon", "coordinates": [ [ [ -0.347522211815588, 5.504928874862303 ], [ -0.347482097779827, 5.513965594454727 ], [ -0.356500639225146, 5.514005754763837 ], [ -0.35654061726144, 5.504968968962586 ], [ -0.347522211815588, 5.504928874862303 ] ] ] } },
{ "type": "Feature", "properties": { "seed_idx": 113, "delta_h": -15.690861521388888 }, "geometry": { "type": "Polygon", "coordinates": [ [ [ -0.348692460470126, 5.504395300497129 ], [ -0.348652368026935, 5.513432028856561 ], [ -0.357670909992433, 5.513472167557661 ], [ -0.357710866449015, 5.504435373018635 ], [ -0.348692460470126, 5.504395300497129 ] ] ] } },
{ "type": "Feature", "properties": { "seed_idx": 114, "delta_h": -15.690861521388888 }, "geometry": { "type": "Polygon", "coordinates": [ [ [ -0.348873283392989, 5.504176099922616 ], [ -0.348833195287206, 5.513212829677698 ], [ -0.357851735268805, 5.513252964048038 ], [ -0.357891687393395, 5.504216168117893 ], [ -0.348873283392989, 5.504176099922616 ] ] ] } },
{ "type": "Feature", "properties": { "seed_idx": 115, "delta_h": -15.690861521388888 }, "geometry": { "type": "Polygon", "coordinates": [ [ [ -0.350097035841963, 5.502033396688862 ], [ -0.350056981909107, 5.511070136086005 ], [ -0.359075498519336, 5.511110236371782 ], [ -0.359115416524164, 5.502073430830301 ], [ -0.350097035841963, 5.502033396688862 ] ] ] } },
{ "type": "Feature", "properties": { "seed_idx": 116, "delta_h": -15.690861521388888 }, "geometry": { "type": "Polygon", "coordinates": [ [ [ -0.351052615256123, 5.49985085280033 ], [ -0.351012591724012, 5.508887599877387 ], [ -0.360031082408115, 5.50892766986477 ], [ -0.360070970066478, 5.499890856667422 ], [ -0.351052615256123, 5.49985085280033 ] ] ] } }
]
}
